{"directed": false, "multigraph": false, "graph": {}, "nodes": [{"y": 40.7110047, "x": -74.0143969, "highway": "traffic_signals", "street_count": 3, "id": 42422028}, {"y": 40.7096669, "x": -74.0116583, "highway": "traffic_signals", "street_count": 3, "id": 42422038}, {"y": 40.7091731, "x": -74.0105706, "highway": "traffic_signals", "street_count": 4, "id": 42422042}, {"y": 40.708614, "x": -74.009371, "street_count": 4, "id": 42422050}, {"y": 40.7077219, "x": -74.008269, "street_count": 4, "id": 42422053}, {"y": 40.7062566, "x": -74.0027542, "ref": "2", "highway": "motorway_junction", "street_count": 3, "id": 42422270}, {"y": 40.7094916, "x": -74.001657, "highway": "traffic_signals", "street_count": 5, "id": 42422283}, {"y": 40.7143955, "x": -74.0005026, "highway": "traffic_signals", "street_count": 3, "id": 42425955}, {"y": 40.7116883, "x": -74.0058474, "highway": "traffic_signals", "street_count": 3, "id": 42427236}, {"y": 40.710185, "x": -74.0042501, "highway": "traffic_signals", "street_count": 3, "id": 42427242}, {"y": 40.706993, "x": -74.0064696, "street_count": 3, "id": 42427249}, {"y": 40.706375, "x": -74.005691, "street_count": 4, "id": 42427251}, {"y": 40.7059974, "x": -74.0052131, "street_count": 4, "id": 42427254}, {"y": 40.7136151, "x": -74.0035586, "highway": "traffic_signals", "street_count": 3, "id": 42427278}, {"y": 40.715168, "x": -74.0021328, "highway": "traffic_signals", "street_count": 4, "id": 42427300}, {"y": 40.7157533, "x": -74.0016876, "highway": "traffic_signals", "street_count": 4, "id": 42427305}, {"y": 40.71693, "x": -74.000818, "highway": "traffic_signals", "street_count": 3, "id": 42427307}, {"y": 40.717619, "x": -74.000274, "highway": "traffic_signals", "street_count": 4, "id": 42427311}, {"y": 40.718016, "x": -73.9999554, "highway": "traffic_signals", "street_count": 4, "id": 42427316}, {"y": 40.7186723, "x": -73.9994292, "highway": "traffic_signals", "street_count": 3, "id": 42427319}, {"y": 40.718913, "x": -73.999234, "street_count": 3, "id": 42427322}, {"y": 40.7074486, "x": -74.0119864, "highway": "traffic_signals", "street_count": 3, "id": 42428368}, {"y": 40.7082982, "x": -74.01129, "highway": "traffic_signals", "street_count": 3, "id": 42428371}, {"y": 40.7085716, "x": -74.0110652, "street_count": 3, "id": 42428373}, {"y": 40.7088206, "x": -74.0108604, "highway": "traffic_signals", "street_count": 4, "id": 42428374}, {"y": 40.7098263, "x": -74.0100172, "highway": "traffic_signals", "street_count": 4, "id": 42428376}, {"y": 40.7103389, "x": -74.0095729, "street_count": 3, "id": 42428377}, {"y": 40.7104441, "x": -74.009473, "highway": "traffic_signals", "street_count": 3, "id": 42428379}, {"y": 40.710913, "x": -74.0090985, "highway": "traffic_signals", "street_count": 4, "id": 42428385}, {"y": 40.7113948, "x": -74.0086548, "highway": "traffic_signals", "street_count": 5, "id": 42428391}, {"y": 40.7146811, "x": -74.0058866, "highway": "traffic_signals", "street_count": 4, "id": 42428402}, {"y": 40.715236, "x": -74.00542, "highway": "traffic_signals", "street_count": 4, "id": 42428405}, {"y": 40.71576, "x": -74.004976, "highway": "traffic_signals", "street_count": 3, "id": 42428408}, {"y": 40.7162939, "x": -74.0045248, "highway": "traffic_signals", "street_count": 4, "id": 42428411}, {"y": 40.717449, "x": -74.003533, "highway": "traffic_signals", "street_count": 4, "id": 42428420}, {"y": 40.7180338, "x": -74.003043, "highway": "traffic_signals", "street_count": 4, "id": 42428425}, {"y": 40.7186389, "x": -74.0025285, "highway": "traffic_signals", "street_count": 4, "id": 42428428}, {"y": 40.719153, "x": -74.002091, "street_count": 3, "id": 42428431}, {"y": 40.7194058, "x": -74.0018769, "highway": "traffic_signals", "street_count": 4, "id": 42428433}, {"y": 40.707205, "x": -74.005951, "street_count": 3, "id": 42429353}, {"y": 40.707855, "x": -74.0068357, "street_count": 4, "id": 42429354}, {"y": 40.7138056, "x": -74.0088463, "highway": "traffic_signals", "street_count": 4, "id": 42429562}, {"y": 40.714383, "x": -74.010128, "highway": "traffic_signals", "street_count": 4, "id": 42429563}, {"y": 40.714904, "x": -74.0113427, "highway": "traffic_signals", "street_count": 4, "id": 42429565}, {"y": 40.7152226, "x": -74.0132124, "highway": "traffic_signals", "street_count": 4, "id": 42429570}, {"y": 40.7163029, "x": -74.0061645, "street_count": 3, "id": 42429829}, {"y": 40.7165394, "x": -74.0066823, "highway": "traffic_signals", "street_count": 4, "id": 42429830}, {"y": 40.7171217, "x": -74.0079572, "highway": "traffic_signals", "street_count": 4, "id": 42429832}, {"y": 40.717598, "x": -74.009, "street_count": 3, "id": 42429833}, {"y": 40.7077053, "x": -74.0102034, "highway": "stop", "street_count": 3, "id": 42429838}, {"y": 40.706953, "x": -74.008996, "street_count": 4, "id": 42429840}, {"y": 40.7060628, "x": -74.0074544, "street_count": 4, "id": 42429842}, {"y": 40.7132584, "x": -74.0092662, "highway": "traffic_signals", "street_count": 4, "id": 42430004}, {"y": 40.7138543, "x": -74.0105666, "highway": "traffic_signals", "street_count": 4, "id": 42430007}, {"y": 40.714294, "x": -74.011527, "highway": "traffic_signals", "street_count": 3, "id": 42430009}, {"y": 40.7182987, "x": -74.0053609, "highway": "traffic_signals", "street_count": 4, "id": 42430115}, {"y": 40.7190194, "x": -74.0051717, "highway": "traffic_signals", "street_count": 4, "id": 42430118}, {"y": 40.7174635, "x": -74.0106317, "street_count": 3, "id": 42430519}, {"y": 40.7174024, "x": -74.0100927, "street_count": 3, "id": 42430521}, {"y": 40.7172851, "x": -74.0090579, "highway": "traffic_signals", "street_count": 3, "id": 42430529}, {"y": 40.7141387, "x": -74.0034162, "highway": "traffic_signals", "street_count": 4, "id": 42430535}, {"y": 40.7145736, "x": -74.0040114, "street_count": 3, "id": 42430540}, {"y": 40.716013, "x": -74.0070959, "highway": "traffic_signals", "street_count": 4, "id": 42430550}, {"y": 40.7166018, "x": -74.0083657, "highway": "traffic_signals", "street_count": 4, "id": 42430557}, {"y": 40.716928, "x": -74.0091078, "highway": "traffic_signals", "street_count": 4, "id": 42430571}, {"y": 40.7094091, "x": -74.0051183, "highway": "stop", "street_count": 3, "id": 42430848}, {"y": 40.7134886, "x": -74.0048235, "street_count": 3, "id": 42431602}, {"y": 40.7149352, "x": -74.0079521, "highway": "traffic_signals", "street_count": 4, "id": 42431611}, {"y": 40.7155224, "x": -74.0092214, "highway": "traffic_signals", "street_count": 4, "id": 42431614}, {"y": 40.7163041, "x": -74.0109232, "highway": "traffic_signals", "street_count": 4, "id": 42431617}, {"y": 40.7171351, "x": -74.0127568, "highway": "traffic_signals", "street_count": 4, "id": 42431626}, {"y": 40.7176174, "x": -74.0138209, "street_count": 3, "id": 42431629}, {"y": 40.7177392, "x": -74.0140898, "street_count": 3, "id": 42431630}, {"y": 40.7127279, "x": -73.9979893, "street_count": 3, "id": 42431990}, {"y": 40.7119737, "x": -73.9977759, "highway": "traffic_signals", "street_count": 3, "id": 42431992}, {"y": 40.7145118, "x": -73.9987971, "street_count": 3, "id": 42432238}, {"y": 40.714995, "x": -73.998866, "street_count": 3, "id": 42432241}, {"y": 40.7156303, "x": -73.9984926, "highway": "traffic_signals", "street_count": 4, "id": 42432244}, {"y": 40.7168256, "x": -73.9977531, "highway": "traffic_signals", "street_count": 4, "id": 42432246}, {"y": 40.7082026, "x": -74.0020446, "street_count": 3, "id": 42433205}, {"y": 40.7077666, "x": -74.0016826, "street_count": 3, "id": 42433212}, {"y": 40.7072852, "x": -74.0013158, "street_count": 3, "id": 42433218}, {"y": 40.708846, "x": -74.002503, "highway": "traffic_signals", "street_count": 3, "id": 42433229}, {"y": 40.7082711, "x": -74.0019074, "street_count": 4, "id": 42433231}, {"y": 40.707871, "x": -74.0014617, "street_count": 3, "id": 42433237}, {"y": 40.7074377, "x": -74.0010233, "street_count": 3, "id": 42433243}, {"y": 40.707905, "x": -74.006021, "street_count": 3, "id": 42433330}, {"y": 40.7134688, "x": -73.9972984, "highway": "traffic_signals", "street_count": 4, "id": 42433537}, {"y": 40.708117, "x": -74.009829, "street_count": 3, "id": 42434410}, {"y": 40.7093107, "x": -74.011935, "highway": "traffic_signals", "street_count": 4, "id": 42434412}, {"y": 40.7063877, "x": -74.007136, "street_count": 3, "id": 42434418}, {"y": 40.7073347, "x": -74.0086352, "street_count": 3, "id": 42434420}, {"y": 40.714465, "x": -73.9995899, "street_count": 3, "id": 42435435}, {"y": 40.7171195, "x": -73.9985963, "highway": "traffic_signals", "street_count": 4, "id": 42435451}, {"y": 40.7181633, "x": -73.9979382, "highway": "traffic_signals", "street_count": 4, "id": 42435456}, {"y": 40.7193363, "x": -73.9972995, "highway": "traffic_signals", "street_count": 4, "id": 42435470}, {"y": 40.7181153, "x": -74.0104958, "street_count": 3, "id": 42436050}, {"y": 40.7194446, "x": -74.0102387, "street_count": 3, "id": 42436055}, {"y": 40.7070893, "x": -74.0139691, "street_count": 3, "id": 42436178}, {"y": 40.7079832, "x": -74.0135999, "highway": "traffic_signals", "street_count": 4, "id": 42436181}, {"y": 40.7087418, "x": -74.0132592, "street_count": 3, "id": 42436184}, {"y": 40.7091384, "x": -74.013089, "highway": "traffic_signals", "street_count": 3, "id": 42436187}, {"y": 40.7093852, "x": -74.0129792, "street_count": 3, "id": 42436192}, {"y": 40.7062776, "x": -74.0142958, "street_count": 3, "id": 42436202}, {"y": 40.7161935, "x": -74.0091994, "highway": "traffic_signals", "street_count": 3, "id": 42436322}, {"y": 40.7179347, "x": -74.0089396, "highway": "traffic_signals", "street_count": 3, "id": 42436326}, {"y": 40.7182739, "x": -74.0088803, "street_count": 3, "id": 42436327}, {"y": 40.718642, "x": -74.008819, "street_count": 3, "id": 42436330}, {"y": 40.719029, "x": -74.008747, "street_count": 3, "id": 42436333}, {"y": 40.719296, "x": -74.008699, "highway": "traffic_signals", "street_count": 4, "id": 42436335}, {"y": 40.7098267, "x": -74.0147291, "highway": "traffic_signals", "street_count": 4, "id": 42437396}, {"y": 40.7139962, "x": -73.9974922, "street_count": 4, "id": 42437559}, {"y": 40.7117846, "x": -73.9997105, "highway": "traffic_signals", "street_count": 3, "id": 42437749}, {"y": 40.711879, "x": -73.9986817, "highway": "traffic_signals", "street_count": 3, "id": 42437753}, {"y": 40.7153613, "x": -73.9977158, "street_count": 3, "id": 42438034}, {"y": 40.7103692, "x": -74.0112079, "highway": "traffic_signals", "street_count": 3, "id": 42438155}, {"y": 40.7083602, "x": -74.0004789, "street_count": 3, "id": 42438471}, {"y": 40.7078996, "x": -74.0001276, "highway": "traffic_signals", "street_count": 3, "id": 42438476}, {"y": 40.719193, "x": -73.999841, "highway": "traffic_signals", "street_count": 4, "id": 42439580}, {"y": 40.7125535, "x": -73.9989343, "highway": "traffic_signals", "street_count": 3, "id": 42439813}, {"y": 40.7074356, "x": -74.0040807, "highway": "traffic_signals", "street_count": 3, "id": 42440270}, {"y": 40.7090978, "x": -74.0054875, "highway": "traffic_signals", "street_count": 4, "id": 42440280}, {"y": 40.709557, "x": -74.006435, "highway": "traffic_signals", "street_count": 4, "id": 42440282}, {"y": 40.709872, "x": -74.007054, "street_count": 3, "id": 42440284}, {"y": 40.710221, "x": -74.007745, "highway": "traffic_signals", "street_count": 4, "id": 42440287}, {"y": 40.70953, "x": -74.008418, "street_count": 4, "id": 42440335}, {"y": 40.7090899, "x": -74.0078053, "street_count": 3, "id": 42440340}, {"y": 40.7087143, "x": -74.0072883, "street_count": 4, "id": 42440343}, {"y": 40.708227, "x": -74.006531, "street_count": 4, "id": 42440345}, {"y": 40.707387, "x": -74.005482, "street_count": 4, "id": 42440347}, {"y": 40.7068521, "x": -74.0050152, "highway": "traffic_signals", "street_count": 4, "id": 42440350}, {"y": 40.7064108, "x": -74.0045698, "street_count": 3, "id": 42440353}, {"y": 40.7175538, "x": -73.9993088, "highway": "traffic_signals", "street_count": 4, "id": 42440810}, {"y": 40.7140166, "x": -74.0044302, "street_count": 4, "id": 42443588}, {"y": 40.7117008, "x": -74.0069661, "highway": "traffic_signals", "street_count": 4, "id": 42443844}, {"y": 40.7085457, "x": -73.9990003, "street_count": 3, "id": 42444108}, {"y": 40.7080602, "x": -74.0034478, "highway": "traffic_signals", "street_count": 3, "id": 42444271}, {"y": 40.7067331, "x": -74.0067906, "highway": "traffic_signals", "street_count": 4, "id": 42444424}, {"y": 40.7154408, "x": -74.0075519, "highway": "traffic_signals", "street_count": 4, "id": 42445356}, {"y": 40.7160188, "x": -74.0088192, "highway": "traffic_signals", "street_count": 4, "id": 42445357}, {"y": 40.7155864, "x": -74.0030308, "highway": "traffic_signals", "street_count": 4, "id": 42445466}, {"y": 40.716182, "x": -74.0025478, "highway": "traffic_signals", "street_count": 4, "id": 42445474}, {"y": 40.716731, "x": -74.002078, "highway": "traffic_signals", "street_count": 3, "id": 42445479}, {"y": 40.7173003, "x": -74.0015648, "highway": "traffic_signals", "street_count": 4, "id": 42445481}, {"y": 40.717932, "x": -74.000988, "highway": "traffic_signals", "street_count": 4, "id": 42445484}, {"y": 40.7184427, "x": -73.9987539, "highway": "traffic_signals", "street_count": 4, "id": 42445612}, {"y": 40.7077766, "x": -74.0129583, "highway": "traffic_signals", "street_count": 4, "id": 42446622}, {"y": 40.7082321, "x": -74.0143778, "street_count": 4, "id": 42446632}, {"y": 40.717113, "x": -74.0145636, "highway": "traffic_signals", "street_count": 4, "id": 42446814}, {"y": 40.7169942, "x": -74.0143011, "highway": "traffic_signals", "street_count": 4, "id": 42446825}, {"y": 40.7173295, "x": -73.9994477, "highway": "traffic_signals", "street_count": 4, "id": 42447255}, {"y": 40.718269, "x": -74.007052, "highway": "traffic_signals", "street_count": 5, "id": 42448162}, {"y": 40.7176834, "x": -74.0057919, "highway": "traffic_signals", "street_count": 4, "id": 42448171}, {"y": 40.7109496, "x": -74.0036162, "highway": "traffic_signals", "street_count": 4, "id": 42448469}, {"y": 40.7108044, "x": -74.0034015, "street_count": 3, "id": 42448483}, {"y": 40.706378, "x": -74.0094998, "street_count": 3, "id": 42448578}, {"y": 40.7079881, "x": -74.0080159, "street_count": 4, "id": 42448583}, {"y": 40.710397, "x": -74.005599, "highway": "traffic_signals", "street_count": 3, "id": 42448593}, {"y": 40.7143685, "x": -74.0084008, "highway": "traffic_signals", "street_count": 4, "id": 42449597}, {"y": 40.7149502, "x": -74.0096777, "highway": "traffic_signals", "street_count": 4, "id": 42449600}, {"y": 40.7164234, "x": -74.0129331, "highway": "traffic_signals", "street_count": 4, "id": 42449613}, {"y": 40.7090879, "x": -74.0140487, "street_count": 4, "id": 42452310}, {"y": 40.7094458, "x": -74.0148642, "street_count": 3, "id": 42452314}, {"y": 40.7072195, "x": -74.0027472, "street_count": 3, "id": 42452620}, {"y": 40.7176679, "x": -74.0075333, "highway": "traffic_signals", "street_count": 4, "id": 42452816}, {"y": 40.7170848, "x": -74.0062505, "highway": "traffic_signals", "street_count": 4, "id": 42452817}, {"y": 40.7191185, "x": -74.0069347, "highway": "traffic_signals", "street_count": 4, "id": 42453038}, {"y": 40.7188752, "x": -74.0065849, "highway": "traffic_signals", "street_count": 4, "id": 42453059}, {"y": 40.7136952, "x": -74.0137098, "highway": "traffic_signals", "street_count": 4, "id": 42453395}, {"y": 40.7144839, "x": -74.0134034, "street_count": 3, "id": 42453398}, {"y": 40.7190475, "x": -74.0123246, "highway": "traffic_signals", "street_count": 3, "id": 42453417}, {"y": 40.7194586, "x": -74.0061348, "highway": "traffic_signals", "street_count": 3, "id": 42453773}, {"y": 40.7188593, "x": -74.0048352, "highway": "traffic_signals", "street_count": 4, "id": 42453777}, {"y": 40.7091509, "x": -74.001064, "street_count": 3, "id": 42453792}, {"y": 40.7110143, "x": -74.0107794, "highway": "traffic_signals", "street_count": 3, "id": 42453934}, {"y": 40.712713, "x": -74.009634, "highway": "traffic_signals", "street_count": 4, "id": 42453952}, {"y": 40.7133376, "x": -74.0110084, "highway": "traffic_signals", "street_count": 4, "id": 42454401}, {"y": 40.709044, "x": -74.008893, "street_count": 4, "id": 42454795}, {"y": 40.706146, "x": -74.0060157, "highway": "traffic_signals", "street_count": 4, "id": 42454798}, {"y": 40.711231, "x": -74.006478, "highway": "stop", "street_count": 4, "id": 42456492}, {"y": 40.7090349, "x": -74.0121098, "highway": "traffic_signals", "street_count": 4, "id": 42456888}, {"y": 40.7076706, "x": -74.0031101, "street_count": 3, "id": 42457292}, {"y": 40.70966, "x": -74.004827, "highway": "traffic_signals", "street_count": 3, "id": 42457311}, {"y": 40.7139451, "x": -74.0123406, "highway": "traffic_signals", "street_count": 3, "id": 42459493}, {"y": 40.7104183, "x": -74.003965, "street_count": 3, "id": 42459820}, {"y": 40.7070267, "x": -74.0016215, "street_count": 3, "id": 205019740}, {"y": 40.7087705, "x": -73.9992724, "street_count": 3, "id": 205025778}, {"y": 40.7111162, "x": -74.0146587, "highway": "traffic_signals", "street_count": 4, "id": 246858433}, {"y": 40.715284, "x": -74.0135419, "highway": "traffic_signals", "street_count": 4, "id": 246858435}, {"y": 40.7172595, "x": -74.0130258, "highway": "traffic_signals", "street_count": 4, "id": 246858448}, {"y": 40.7165276, "x": -74.0132223, "highway": "traffic_signals", "street_count": 4, "id": 246858449}, {"y": 40.7136173, "x": -74.011617, "highway": "traffic_signals", "street_count": 4, "id": 272194254}, {"y": 40.7119884, "x": -74.0081342, "highway": "traffic_signals", "street_count": 4, "id": 272195270}, {"y": 40.7141733, "x": -74.0063041, "highway": "traffic_signals", "street_count": 4, "id": 272195271}, {"y": 40.7082374, "x": -74.0001093, "highway": "motorway_junction", "street_count": 3, "id": 278608420}, {"y": 40.708574, "x": -74.0001685, "street_count": 3, "id": 278608718}, {"y": 40.7084983, "x": -73.999331, "highway": "motorway_junction", "street_count": 3, "id": 278608816}, {"y": 40.7082903, "x": -73.9994418, "street_count": 3, "id": 278609760}, {"y": 40.7095901, "x": -74.0009031, "street_count": 3, "id": 278609863}, {"y": 40.7096039, "x": -74.0015481, "highway": "traffic_signals", "street_count": 4, "id": 278609934}, {"y": 40.7116882, "x": -74.0027433, "street_count": 3, "id": 278638234}, {"y": 40.710898, "x": -74.0035219, "street_count": 3, "id": 278642478}, {"y": 40.712497, "x": -74.004813, "highway": "traffic_signals", "street_count": 3, "id": 370705004}, {"y": 40.7137911, "x": -74.013941, "highway": "traffic_signals", "street_count": 4, "id": 373880031}, {"y": 40.7112711, "x": -74.0034826, "street_count": 3, "id": 486819531}, {"y": 40.7117782, "x": -74.0038416, "highway": "motorway_junction", "street_count": 3, "id": 486819535}, {"y": 40.7098325, "x": -74.000623, "street_count": 3, "id": 587988061}, {"y": 40.7092334, "x": -74.0002125, "street_count": 3, "id": 588455738}, {"y": 40.7136728, "x": -73.997981, "street_count": 4, "id": 588455742}, {"y": 40.7134518, "x": -73.9984931, "street_count": 4, "id": 588455743}, {"y": 40.7114635, "x": -74.0079458, "street_count": 3, "id": 588545728}, {"y": 40.7084063, "x": -74.0047736, "street_count": 3, "id": 673008453}, {"y": 40.7117173, "x": -74.0041198, "street_count": 1, "id": 983501181}, {"y": 40.7119157, "x": -74.0060472, "highway": "traffic_signals", "street_count": 5, "id": 1272562931}, {"y": 40.7099178, "x": -74.006076, "highway": "stop", "street_count": 4, "id": 1538237248}, {"y": 40.7089774, "x": -73.9978326, "street_count": 3, "id": 1538237325}, {"y": 40.7105761, "x": -74.0073842, "highway": "stop", "street_count": 4, "id": 1538237434}, {"y": 40.7135233, "x": -73.9986438, "street_count": 5, "id": 1773055865}, {"y": 40.7140611, "x": -73.9975944, "street_count": 4, "id": 1773060097}, {"y": 40.7137811, "x": -73.9980743, "street_count": 3, "id": 1773060099}, {"y": 40.7146482, "x": -73.9971597, "street_count": 3, "id": 1773063787}, {"y": 40.7140865, "x": -73.997415, "street_count": 4, "id": 1773066054}, {"y": 40.713618, "x": -74.006753, "highway": "traffic_signals", "street_count": 3, "id": 2821304136}, {"y": 40.7130447, "x": -74.0072254, "highway": "traffic_signals", "street_count": 3, "id": 2821304137}, {"y": 40.712544, "x": -74.0076683, "highway": "traffic_signals", "street_count": 3, "id": 2821304138}, {"y": 40.7117881, "x": -74.0070888, "highway": "traffic_signals", "street_count": 3, "id": 2821304143}, {"y": 40.7120337, "x": -74.0060831, "highway": "traffic_signals", "street_count": 3, "id": 2821304145}, {"y": 40.7121302, "x": -74.0056926, "street_count": 3, "id": 2821304146}, {"y": 40.7059917, "x": -74.0087767, "street_count": 3, "id": 2824895141}, {"y": 40.706712, "x": -74.0023233, "highway": "traffic_signals", "street_count": 3, "id": 3350498747}, {"y": 40.7154577, "x": -74.0146395, "highway": "crossing", "street_count": 3, "id": 3588508439}, {"y": 40.7095053, "x": -74.0138882, "highway": "stop", "street_count": 4, "id": 3772840882}, {"y": 40.7100562, "x": -74.0012106, "highway": "traffic_signals", "street_count": 5, "id": 3884569924}, {"y": 40.7101928, "x": -74.0011123, "highway": "traffic_signals", "street_count": 3, "id": 3884569931}, {"y": 40.707836, "x": -74.0043276, "street_count": 3, "id": 4015192929}, {"y": 40.7129663, "x": -74.0117547, "street_count": 1, "id": 4143765783}, {"y": 40.7179523, "x": -74.0055874, "street_count": 3, "id": 4143851142}, {"y": 40.7182558, "x": -74.0052693, "street_count": 4, "id": 4143851144}, {"y": 40.7117314, "x": -74.0078441, "street_count": 3, "id": 4143875757}, {"y": 40.7119257, "x": -74.0038321, "street_count": 3, "id": 4143876126}, {"y": 40.7069507, "x": -74.0135153, "highway": "traffic_signals", "street_count": 4, "id": 4149936235}, {"y": 40.7071527, "x": -74.0139431, "street_count": 3, "id": 4149936245}, {"y": 40.7105631, "x": -74.003015, "street_count": 3, "id": 4158673495}, {"y": 40.7114021, "x": -74.0036437, "street_count": 3, "id": 4158740807}, {"y": 40.708837, "x": -73.9993506, "street_count": 2, "id": 4158749895}, {"y": 40.7090749, "x": -74.0007292, "street_count": 1, "id": 4158752889}, {"y": 40.7111417, "x": -74.0030492, "highway": "motorway_junction", "street_count": 3, "id": 4158753824}, {"y": 40.7132906, "x": -73.9982694, "street_count": 3, "id": 4158807592}, {"y": 40.7139716, "x": -74.0030568, "highway": "traffic_signals", "street_count": 3, "id": 4561384853}, {"y": 40.7157771, "x": -74.0065871, "street_count": 3, "id": 4754091366}, {"y": 40.713153, "x": -74.0041097, "highway": "traffic_signals", "street_count": 4, "id": 4878831008}, {"y": 40.708794, "x": -74.0008601, "street_count": 3, "id": 5378284711}, {"y": 40.7184284, "x": -74.0005347, "highway": "traffic_signals", "street_count": 4, "id": 5706569898}, {"y": 40.716871, "x": -74.004026, "highway": "traffic_signals", "street_count": 4, "id": 5706569905}, {"y": 40.7156024, "x": -74.0111062, "highway": "traffic_signals", "street_count": 4, "id": 5812723033}, {"y": 40.7188059, "x": -74.0103517, "street_count": 4, "id": 5812723035}, {"y": 40.7169068, "x": -74.010766, "street_count": 3, "id": 5812723036}, {"y": 40.7172435, "x": -73.9988759, "street_count": 3, "id": 6123654602}, {"y": 40.7083571, "x": -74.0076525, "street_count": 3, "id": 6262915547}, {"y": 40.70724, "x": -74.0074598, "street_count": 4, "id": 6262915548}, {"y": 40.7105022, "x": -74.0145419, "street_count": 3, "id": 6417761624}, {"y": 40.7159184, "x": -73.9993233, "highway": "traffic_signals", "street_count": 4, "id": 7132405535}, {"y": 40.7152927, "x": -74.0007903, "street_count": 3, "id": 7132405537}, {"y": 40.7162, "x": -74.000138, "street_count": 3, "id": 7132405547}, {"y": 40.7139391, "x": -73.9995713, "street_count": 3, "id": 7132405548}, {"y": 40.7130113, "x": -74.0008309, "street_count": 3, "id": 7476968854}, {"y": 40.7130749, "x": -74.0008317, "street_count": 3, "id": 7476968855}, {"y": 40.7115948, "x": -74.0084808, "street_count": 3, "id": 8262936580}, {"y": 40.7113856, "x": -74.0082065, "street_count": 3, "id": 8262936586}, {"y": 40.7115277, "x": -74.0104404, "highway": "traffic_signals", "street_count": 3, "id": 8840333846}, {"y": 40.7120585, "x": -74.0101209, "highway": "traffic_signals", "street_count": 3, "id": 8840333851}, {"y": 40.7131054, "x": -74.0040125, "highway": "traffic_signals", "street_count": 3, "id": 9121386334}, {"y": 40.7136604, "x": -74.003649, "highway": "traffic_signals", "street_count": 4, "id": 9121386338}, {"y": 40.7132206, "x": -74.0111434, "street_count": 1, "id": 10282972213}], "links": [{"osmid": 438899450, "oneway": false, "name": "Liberty Street", "highway": "residential", "reversed": false, "length": 25.311, "source": 42422028, "target": 246858433}, {"osmid": 195743264, "oneway": true, "lanes": "4", "ref": "NY 9A", "name": "West Street", "highway": "trunk", "maxspeed": "30 mph", "reversed": false, "length": 305.121, "source": 42422028, "target": 42453395}, {"osmid": 837515831, "oneway": true, "lanes": "6", "ref": "NY 9A", "name": "West Street", "highway": "trunk", "maxspeed": "30 mph", "reversed": false, "length": 57.197, "source": 42422028, "target": 6417761624}, {"osmid": [460624365, 1052686445], "oneway": true, "lanes": ["2", "3"], "name": "Church Street", "highway": "secondary", "maxspeed": "25 mph", "reversed": false, "length": 86.882, "source": 42422038, "target": 42438155}, {"osmid": [1126410242, 460624363], "lanes": "2", "name": "Liberty Street", "highway": "unclassified", "maxspeed": "25 mph", "oneway": false, "reversed": [false, true], "length": 106.88999999999999, "source": 42422038, "target": 42422042}, {"osmid": 588157329, "oneway": true, "lanes": "2", "name": "Trinity Place", "highway": "secondary", "maxspeed": "25 mph", "reversed": false, "length": 46.473000000000006, "source": 42422038, "target": 42434412}, {"osmid": 1127576633, "oneway": true, "lanes": "1", "name": "Liberty Street", "highway": "residential", "maxspeed": "25 mph", "reversed": false, "length": 118.83199999999998, "source": 42422042, "target": 42422050}, {"osmid": 1149014898, "oneway": true, "lanes": "2", "name": "Broadway", "highway": "secondary", "maxspeed": "25 mph", "reversed": false, "length": 46.185, "source": 42422042, "target": 42428374}, {"osmid": [1126410086, 1158491837, 1158491838], "oneway": true, "lanes": ["2", "3"], "name": "Broadway", "highway": "secondary", "maxspeed": "25 mph", "reversed": false, "length": 86.322, "source": 42422042, "target": 42428376}, {"osmid": 46160330, "oneway": true, "lanes": "1", "name": "Liberty Street", "highway": "residential", "maxspeed": "25 mph", "reversed": false, "length": 135.9, "source": 42422050, "target": 42422053}, {"osmid": 1135576553, "oneway": true, "lanes": "1", "name": "Nassau Street", "highway": "residential", "maxspeed": "25 mph", "reversed": false, "length": 62.525999999999996, "source": 42422050, "target": 42454795}, {"osmid": 1135576552, "oneway": true, "lanes": "1", "name": "Nassau Street", "highway": "residential", "maxspeed": "25 mph", "reversed": false, "length": 67.412, "source": 42422050, "target": 42434410}, {"osmid": 46160330, "oneway": true, "lanes": "1", "name": "Liberty Street", "highway": "residential", "maxspeed": "25 mph", "reversed": false, "length": 86.85300000000001, "source": 42422053, "target": 6262915548}, {"osmid": 1127573674, "oneway": true, "lanes": "1", "name": "William Street", "highway": "residential", "maxspeed": "25 mph", "reversed": false, "length": 36.487, "source": 42422053, "target": 42448583}, {"osmid": 526839039, "oneway": true, "lanes": "1", "name": "William Street", "highway": "residential", "maxspeed": "25 mph", "reversed": false, "length": 52.976, "source": 42422053, "target": 42434420}, {"osmid": [46177184, 25561915], "bridge": "yes", "oneway": true, "lanes": "1", "highway": "motorway_link", "maxspeed": "40 mph", "reversed": false, "length": 341.47599999999994, "source": 42422270, "target": 278608420}, {"osmid": 5670703, "oneway": true, "lanes": "1", "name": "Dover Street", "highway": "secondary", "maxspeed": "25 mph", "reversed": false, "length": 103.25, "source": 42422283, "target": 5378284711}, {"osmid": [1135361330, 194923778], "lanes": "5", "name": "Pearl Street", "highway": "primary", "oneway": false, "reversed": true, "length": 101.191, "source": 42422283, "target": 42433229}, {"osmid": 414743582, "name": "Frankfort Street", "highway": "secondary", "maxspeed": "25 mph", "oneway": false, "reversed": false, "length": 165.23, "source": 42422283, "target": 4158673495}, {"osmid": 524361790, "name": "Pearl Street", "highway": "primary", "maxspeed": "25 mph", "oneway": false, "reversed": true, "length": 15.532, "source": 42422283, "target": 278609934}, {"osmid": [25564137, 1188167855], "bridge": "yes", "oneway": true, "lanes": "1", "highway": "motorway_link", "maxspeed": "30 mph", "reversed": false, "length": 191.56000000000003, "source": 42422283, "target": 278608420}, {"osmid": [5672410, 5671543], "oneway": true, "lanes": "1", "name": ["Baxter Street", "Hogan Place"], "highway": "residential", "maxspeed": "25 mph", "reversed": false, "length": 112.876, "source": 42425955, "target": 7132405537}, {"osmid": 414751576, "oneway": false, "lanes": "2", "name": "Worth Street", "highway": "residential", "maxspeed": "25 mph", "reversed": true, "length": 162.044, "source": 42425955, "target": 42427300}, {"osmid": 1135342275, "oneway": false, "lanes": "4", "name": "Worth Street", "highway": "residential", "maxspeed": "25 mph", "reversed": false, "length": 93.49, "source": 42425955, "target": 7132405548}, {"osmid": [652875877, 480682390, 5669631], "oneway": true, "name": "Spruce Street", "highway": "residential", "maxspeed": "25 mph", "reversed": false, "length": 214.63400000000001, "source": 42427236, "target": 42427242}, {"osmid": 480682397, "oneway": true, "name": "Nassau Street", "highway": "residential", "maxspeed": "25 mph", "reversed": false, "length": 73.55799999999999, "source": 42427236, "target": 42456492}, {"osmid": 494221658, "oneway": true, "lanes": "1", "name": "Spruce Street", "highway": "residential", "maxspeed": "25 mph", "reversed": false, "length": 30.575000000000003, "source": 42427236, "target": 1272562931}, {"osmid": 480682391, "oneway": false, "lanes": "2", "name": "Gold Street", "highway": "residential", "maxspeed": "25 mph", "reversed": false, "length": 35.362, "source": 42427242, "target": 42459820}, {"osmid": 480682392, "oneway": false, "name": "Gold Street", "highway": "residential", "maxspeed": "25 mph", "reversed": true, "length": 75.977, "source": 42427242, "target": 42457311}, {"osmid": 5669633, "oneway": true, "name": "Fletcher Street", "highway": "unclassified", "maxspeed": "25 mph", "reversed": false, "length": 95.027, "source": 42427249, "target": 42427251}, {"osmid": 536917119, "oneway": true, "lanes": "1", "name": "Pearl Street", "highway": "residential", "maxspeed": "25 mph", "reversed": false, "length": 39.596000000000004, "source": 42427249, "target": 42444424}, {"osmid": 480682395, "oneway": true, "name": "Pearl Street", "highway": "residential", "maxspeed": "25 mph", "reversed": false, "length": 49.665, "source": 42427249, "target": 42429353}, {"osmid": 5669633, "oneway": true, "name": "Fletcher Street", "highway": "unclassified", "maxspeed": "25 mph", "reversed": false, "length": 58.203, "source": 42427251, "target": 42427254}, {"osmid": 525656852, "lanes": "4", "name": "Water Street", "highway": "primary", "maxspeed": "25 mph", "oneway": false, "reversed": true, "length": 37.384, "source": 42427251, "target": 42454798}, {"osmid": 525658419, "lanes": "4", "name": "Water Street", "highway": "primary", "maxspeed": "25 mph", "oneway": false, "reversed": false, "length": 77.853, "source": 42427251, "target": 42440350}, {"osmid": 38605248, "oneway": true, "lanes": "1", "name": "Front Street", "highway": "unclassified", "maxspeed": "25 mph", "reversed": false, "length": 71.1, "source": 42427254, "target": 42440353}, {"osmid": 40956098, "oneway": true, "lanes": "2", "name": "Centre Street", "highway": "secondary", "maxspeed": "25 mph", "reversed": false, "length": 58.327000000000005, "source": 42427278, "target": 4561384853}, {"osmid": [5671314, 986838188], "oneway": true, "lanes": "1", "name": "Reade Street", "highway": "unclassified", "maxspeed": "25 mph", "reversed": false, "length": 9.14, "source": 42427278, "target": 9121386338}, {"osmid": 986807784, "oneway": true, "name": "Centre Street", "highway": "secondary", "maxspeed": "25 mph", "reversed": false, "length": 68.38, "source": 42427278, "target": 9121386334}, {"osmid": 125436141, "oneway": true, "lanes": "1", "name": "Centre Street", "highway": "secondary", "maxspeed": "25 mph", "reversed": false, "length": 75.15, "source": 42427300, "target": 42427305}, {"osmid": [1135342276, 194923798], "oneway": false, "lanes": "3", "name": "Worth Street", "highway": "residential", "maxspeed": "25 mph", "reversed": true, "length": 88.89, "source": 42427300, "target": 42445466}, {"osmid": [5671172, 421825694], "oneway": true, "lanes": "2", "name": "Centre Street", "highway": "secondary", "maxspeed": "25 mph", "reversed": false, "length": 156.87699999999998, "source": 42427300, "target": 4561384853}, {"osmid": 46332301, "oneway": true, "lanes": "1", "name": "Leonard Street", "highway": "residential", "maxspeed": "25 mph", "reversed": false, "length": 86.93900000000001, "source": 42427305, "target": 42445474}, {"osmid": 125436141, "oneway": true, "lanes": "1", "name": "Centre Street", "highway": "secondary", "maxspeed": "25 mph", "reversed": false, "length": 149.97400000000002, "source": 42427305, "target": 42427307}, {"osmid": 630828596, "oneway": true, "lanes": "1", "name": "Hogan Place", "highway": "residential", "maxspeed": "25 mph", "reversed": false, "length": 91.49099999999999, "source": 42427305, "target": 7132405537}, {"osmid": 125436141, "oneway": true, "lanes": "1", "name": "Centre Street", "highway": "secondary", "maxspeed": "25 mph", "reversed": false, "length": 89.296, "source": 42427307, "target": 42427311}, {"osmid": 413054857, "oneway": true, "lanes": "1", "name": "White Street", "highway": "residential", "maxspeed": "25 mph", "reversed": false, "length": 75.213, "source": 42427307, "target": 42445481}, {"osmid": 125436141, "oneway": true, "lanes": "1", "name": "Centre Street", "highway": "secondary", "maxspeed": "25 mph", "reversed": false, "length": 51.67, "source": 42427311, "target": 42427316}, {"osmid": 412180553, "oneway": true, "lanes": "1", "name": "Walker Street", "highway": "tertiary", "maxspeed": "25 mph", "reversed": false, "length": 76.727, "source": 42427311, "target": 42447255}, {"osmid": 412180553, "oneway": true, "lanes": "1", "name": "Walker Street", "highway": "tertiary", "maxspeed": "25 mph", "reversed": false, "length": 69.515, "source": 42427311, "target": 42445484}, {"osmid": 68668539, "oneway": true, "lanes": "1", "name": "Centre Street", "highway": "secondary", "maxspeed": "25 mph", "reversed": false, "length": 85.395, "source": 42427316, "target": 42427319}, {"osmid": 591772210, "oneway": false, "lanes": "4", "name": "Canal Street", "highway": "trunk", "maxspeed": "25 mph", "reversed": true, "length": 66.981, "source": 42427316, "target": 5706569898}, {"osmid": 591772210, "oneway": false, "lanes": "4", "name": "Canal Street", "highway": "trunk", "maxspeed": "25 mph", "reversed": false, "length": 74.90599999999999, "source": 42427316, "target": 42440810}, {"osmid": 68668539, "oneway": true, "lanes": "1", "name": "Centre Street", "highway": "secondary", "maxspeed": "25 mph", "reversed": false, "length": 31.415999999999997, "source": 42427319, "target": 42427322}, {"osmid": 847921887, "oneway": true, "name": "Hester Street", "highway": "residential", "maxspeed": "25 mph", "reversed": false, "length": 62.377, "source": 42427319, "target": 42445612}, {"osmid": 1034527688, "oneway": true, "name": "Howard Street", "highway": "residential", "maxspeed": "25 mph", "reversed": false, "length": 59.885, "source": 42427322, "target": 42439580}, {"osmid": [827979008, 1128388463], "oneway": true, "lanes": "2", "name": "Broadway", "highway": "secondary", "maxspeed": "25 mph", "reversed": false, "length": 111.224, "source": 42428368, "target": 42428371}, {"osmid": 5671436, "oneway": true, "name": "Rector Street", "highway": "residential", "maxspeed": "25 mph", "width": "18'0\"", "reversed": false, "length": 90.99, "source": 42428368, "target": 42446622}, {"osmid": 827979008, "oneway": true, "lanes": "2", "name": "Broadway", "highway": "secondary", "maxspeed": "25 mph", "reversed": false, "length": 35.823, "source": 42428371, "target": 42428373}, {"osmid": 847932330, "oneway": true, "lanes": "1", "name": "Pine Street", "highway": "residential", "maxspeed": "25 mph", "reversed": false, "length": 114.17599999999999, "source": 42428371, "target": 42429838}, {"osmid": 827979008, "oneway": true, "lanes": "2", "name": "Broadway", "highway": "secondary", "maxspeed": "25 mph", "reversed": false, "length": 32.628, "source": 42428373, "target": 42428374}, {"osmid": 46171907, "oneway": true, "lanes": "1", "name": "Thames Street", "highway": "unclassified", "maxspeed": "25 mph", "width": "15'8\"", "reversed": false, "length": 105.23800000000001, "source": 42428373, "target": 42456888}, {"osmid": 5670267, "oneway": true, "lanes": "1", "name": "Cedar Street", "highway": "unclassified", "maxspeed": "25 mph", "reversed": false, "length": 105.859, "source": 42428374, "target": 42434412}, {"osmid": 1148931681, "oneway": true, "lanes": "1", "name": "Cedar Street", "highway": "unclassified", "maxspeed": "25 mph", "reversed": false, "length": 117.06099999999999, "source": 42428374, "target": 42434410}, {"osmid": 5670668, "oneway": true, "lanes": "1", "name": "Cortlandt Street", "highway": "residential", "maxspeed": "25 mph", "reversed": false, "length": 117.119, "source": 42428376, "target": 42438155}, {"osmid": 837943499, "oneway": true, "lanes": "2", "name": "Broadway", "highway": "secondary", "maxspeed": "25 mph", "reversed": false, "length": 68.214, "source": 42428376, "target": 42428377}, {"osmid": 46154327, "oneway": true, "lanes": "1", "name": "Maiden Lane", "highway": "residential", "maxspeed": "25 mph", "reversed": false, "length": 130.37400000000002, "source": 42428376, "target": 42454795}, {"osmid": 5670877, "oneway": true, "name": "John Street", "highway": "residential", "maxspeed": "25 mph", "reversed": false, "length": 132.578, "source": 42428377, "target": 42440335}, {"osmid": 1158491836, "oneway": true, "lanes": "3", "name": "Broadway", "highway": "secondary", "maxspeed": "25 mph", "reversed": false, "length": 14.417, "source": 42428377, "target": 42428379}, {"osmid": 5673211, "oneway": true, "lanes": "1", "name": "Dey Street", "highway": "residential", "maxspeed": "25 mph", "width": "24'8\"", "reversed": false, "length": 128.349, "source": 42428379, "target": 42453934}, {"osmid": 835694479, "oneway": true, "lanes": "3", "name": "Broadway", "highway": "secondary", "maxspeed": "25 mph", "reversed": false, "length": 61.073, "source": 42428379, "target": 42428385}, {"osmid": 835694480, "oneway": true, "lanes": "1", "name": "Fulton Street", "highway": "residential", "maxspeed": "25 mph", "reversed": false, "length": 132.186, "source": 42428385, "target": 8840333846}, {"osmid": 222299275, "oneway": true, "lanes": "2", "name": "Broadway", "highway": "secondary", "maxspeed": "25 mph", "reversed": false, "length": 66.263, "source": 42428385, "target": 42428391}, {"osmid": 541345307, "oneway": true, "lanes": "1", "name": "Fulton Street", "highway": "residential", "maxspeed": "25 mph", "reversed": false, "length": 137.60999999999999, "source": 42428385, "target": 42440287}, {"osmid": 46116326, "oneway": true, "lanes": "2", "name": "Park Row", "highway": "secondary", "maxspeed": "25 mph", "reversed": false, "length": 41.757999999999996, "source": 42428391, "target": 8262936586}, {"osmid": 140391522, "oneway": true, "lanes": "1", "name": "Ann Street", "highway": "residential", "maxspeed": "25 mph", "reversed": false, "length": 140.924, "source": 42428391, "target": 1538237434}, {"osmid": 974294810, "oneway": true, "lanes": "3", "name": "Broadway", "highway": "secondary", "maxspeed": "25 mph", "reversed": false, "length": 26.641, "source": 42428391, "target": 8262936580}, {"osmid": 5673530, "oneway": true, "name": "Vesey Street", "highway": "secondary", "maxspeed": "25 mph", "reversed": false, "length": 144.69500000000002, "source": 42428391, "target": 8840333851}, {"osmid": 5671314, "oneway": true, "lanes": "1", "name": "Reade Street", "highway": "unclassified", "maxspeed": "25 mph", "reversed": false, "length": 163.815, "source": 42428402, "target": 42445356}, {"osmid": [420810619, 496982627], "oneway": true, "lanes": ["2", "3"], "name": "Broadway", "highway": "secondary", "maxspeed": "25 mph", "reversed": false, "length": 66.531, "source": 42428402, "target": 272195271}, {"osmid": 496982627, "oneway": true, "lanes": "2", "name": "Broadway", "highway": "secondary", "maxspeed": "25 mph", "reversed": false, "length": 73.169, "source": 42428402, "target": 42428405}, {"osmid": 5671314, "oneway": true, "lanes": "1", "name": "Reade Street", "highway": "unclassified", "maxspeed": "25 mph", "reversed": false, "length": 143.272, "source": 42428402, "target": 42443588}, {"osmid": 1137046265, "name": "Duane Street", "highway": "unclassified", "maxspeed": "25 mph", "access": "no", "oneway": false, "reversed": false, "length": 139.87, "source": 42428405, "target": 42430540}, {"osmid": 256902830, "oneway": true, "lanes": "2", "name": "Broadway", "highway": "secondary", "maxspeed": "25 mph", "reversed": false, "length": 69.248, "source": 42428405, "target": 42428408}, {"osmid": 5669938, "oneway": true, "name": "Duane Street", "highway": "residential", "maxspeed": "25 mph", "reversed": false, "length": 115.30699999999999, "source": 42428405, "target": 4754091366}, {"osmid": 5669866, "oneway": true, "name": "Thomas Street", "highway": "residential", "maxspeed": "25 mph", "reversed": false, "length": 116.952, "source": 42428408, "target": 42429829}, {"osmid": 256902830, "oneway": true, "lanes": "2", "name": "Broadway", "highway": "secondary", "maxspeed": "25 mph", "reversed": false, "length": 70.501, "source": 42428408, "target": 42428411}, {"osmid": [1135342277, 256902831], "lanes": ["2", "4"], "name": "Worth Street", "highway": "residential", "maxspeed": "25 mph", "oneway": false, "reversed": true, "length": 148.652, "source": 42428411, "target": 42445466}, {"osmid": 524817694, "lanes": "2", "name": "Worth Street", "highway": "residential", "maxspeed": "25 mph", "oneway": false, "reversed": false, "length": 170.002, "source": 42428411, "target": 42452817}, {"osmid": [963551553, 420810620], "oneway": true, "lanes": "2", "name": "Broadway", "highway": "secondary", "maxspeed": "25 mph", "reversed": false, "length": 76.717, "source": 42428411, "target": 5706569905}, {"osmid": 541346246, "oneway": true, "name": "Franklin Street", "highway": "residential", "maxspeed": "25 mph", "reversed": false, "length": 146.32600000000002, "source": 42428420, "target": 42445479}, {"osmid": 963551553, "oneway": true, "lanes": "2", "name": "Broadway", "highway": "secondary", "maxspeed": "25 mph", "reversed": false, "length": 76.531, "source": 42428420, "target": 5706569905}, {"osmid": 963551553, "oneway": true, "lanes": "2", "name": "Broadway", "highway": "secondary", "maxspeed": "25 mph", "reversed": false, "length": 77.03200000000001, "source": 42428420, "target": 42428425}, {"osmid": [908405992, 541346245, 541346246], "oneway": true, "name": "Franklin Street", "highway": "residential", "maxspeed": "25 mph", "reversed": false, "length": 171.644, "source": 42428420, "target": 4143851144}, {"osmid": 413054857, "oneway": true, "lanes": "1", "name": "White Street", "highway": "residential", "maxspeed": "25 mph", "reversed": false, "length": 176.746, "source": 42428425, "target": 42453777}, {"osmid": 963551553, "oneway": true, "lanes": "2", "name": "Broadway", "highway": "secondary", "maxspeed": "25 mph", "reversed": false, "length": 80.04599999999999, "source": 42428425, "target": 42428428}, {"osmid": 413054857, "oneway": true, "lanes": "1", "name": "White Street", "highway": "residential", "maxspeed": "25 mph", "reversed": false, "length": 148.90999999999997, "source": 42428425, "target": 42445481}, {"osmid": 412180553, "oneway": true, "lanes": "1", "name": "Walker Street", "highway": "tertiary", "maxspeed": "25 mph", "reversed": false, "length": 151.77100000000002, "source": 42428428, "target": 42445484}, {"osmid": 963551553, "oneway": true, "lanes": "2", "name": "Broadway", "highway": "secondary", "maxspeed": "25 mph", "reversed": false, "length": 68.025, "source": 42428428, "target": 42428431}, {"osmid": 963551553, "oneway": true, "lanes": "2", "name": "Broadway", "highway": "secondary", "maxspeed": "25 mph", "reversed": false, "length": 33.403, "source": 42428431, "target": 42428433}, {"osmid": [591772210, 505598707], "oneway": false, "lanes": "4", "name": "Canal Street", "highway": "trunk", "maxspeed": "25 mph", "reversed": false, "length": 156.872, "source": 42428433, "target": 5706569898}, {"osmid": 480682394, "oneway": true, "lanes": "1", "name": "Platt Street", "highway": "unclassified", "maxspeed": "25 mph", "reversed": false, "length": 103.85199999999999, "source": 42429353, "target": 42429354}, {"osmid": 370169932, "oneway": true, "name": "Pearl Street", "highway": "residential", "maxspeed": "25 mph", "reversed": false, "length": 44.412, "source": 42429353, "target": 42440347}, {"osmid": 480682393, "oneway": true, "lanes": "1", "name": "Gold Street", "highway": "unclassified", "maxspeed": "25 mph", "reversed": false, "length": 87.269, "source": 42429354, "target": 6262915548}, {"osmid": 40879223, "oneway": true, "name": "Gold Street", "highway": "unclassified", "maxspeed": "25 mph", "reversed": false, "length": 48.738, "source": 42429354, "target": 42440345}, {"osmid": 5669804, "oneway": true, "lanes": "1", "name": "Platt Street", "highway": "unclassified", "maxspeed": "25 mph", "reversed": false, "length": 88.64099999999999, "source": 42429354, "target": 6262915547}, {"osmid": 222299254, "oneway": true, "lanes": "4", "name": "Church Street", "highway": "secondary", "maxspeed": "25 mph", "reversed": false, "length": 72.98999999999998, "source": 42429562, "target": 42449597}, {"osmid": 222299272, "oneway": true, "lanes": "1", "name": "Murray Street", "highway": "secondary", "maxspeed": "25 mph", "reversed": false, "length": 125.66499999999999, "source": 42429562, "target": 42429563}, {"osmid": [1149017144, 1149017145, 1149017114, 587038051], "oneway": true, "lanes": "4", "name": "Church Street", "highway": "secondary", "maxspeed": "25 mph", "reversed": false, "length": 70.39, "source": 42429562, "target": 42430004}, {"osmid": 25026344, "oneway": true, "name": "Murray Street", "highway": "secondary", "maxspeed": "25 mph", "reversed": false, "length": 160.69400000000002, "source": 42429562, "target": 2821304137}, {"osmid": 46171879, "oneway": true, "lanes": "2", "name": "West Broadway", "highway": "residential", "maxspeed": "25 mph", "reversed": false, "length": 69.44500000000001, "source": 42429563, "target": 42430007}, {"osmid": 46171880, "oneway": true, "name": "Murray Street", "highway": "secondary", "maxspeed": "25 mph", "reversed": false, "length": 117.792, "source": 42429563, "target": 42429565}, {"osmid": 46171887, "oneway": true, "lanes": "2", "name": "West Broadway", "highway": "secondary", "maxspeed": "25 mph", "reversed": false, "length": 73.608, "source": 42429563, "target": 42449600}, {"osmid": 46165812, "oneway": false, "lanes": "2", "name": "Murray Street", "highway": "secondary", "maxspeed": "25 mph", "reversed": true, "length": 161.672, "source": 42429565, "target": 42429570}, {"osmid": 46171884, "oneway": true, "name": "Greenwich Street", "highway": "residential", "maxspeed": "25 mph", "reversed": false, "length": 69.767, "source": 42429565, "target": 42430009}, {"osmid": [643000849, 1042970371], "oneway": true, "lanes": ["2", "1"], "name": "Greenwich Street", "highway": "residential", "maxspeed": "25 mph", "reversed": false, "length": 80.381, "source": 42429565, "target": 5812723033}, {"osmid": 195743189, "name": "Murray Street", "highway": "secondary", "oneway": false, "reversed": true, "length": 28.598, "source": 42429570, "target": 246858435}, {"osmid": [195743228, 421832645], "oneway": true, "lanes": ["5", "4"], "ref": "NY 9A", "name": "West Street", "highway": "trunk", "maxspeed": "30 mph", "reversed": false, "length": 135.58599999999998, "source": 42429570, "target": 42449613}, {"osmid": [420809440, 1021063591], "oneway": true, "lanes": ["6", "5"], "ref": "NY 9A", "name": "West Street", "highway": "trunk", "maxspeed": "30 mph", "reversed": false, "length": 83.72300000000001, "source": 42429570, "target": 42453398}, {"osmid": 5669866, "oneway": true, "name": "Thomas Street", "highway": "residential", "maxspeed": "25 mph", "reversed": false, "length": 50.951, "source": 42429829, "target": 42429830}, {"osmid": 5672803, "oneway": true, "name": "Trimble Place", "highway": "residential", "maxspeed": "25 mph", "reversed": false, "length": 68.46, "source": 42429829, "target": 4754091366}, {"osmid": 5669866, "oneway": true, "name": "Thomas Street", "highway": "residential", "maxspeed": "25 mph", "reversed": false, "length": 125.44900000000001, "source": 42429830, "target": 42429832}, {"osmid": [903589929, 1084033950], "oneway": true, "lanes": "3", "name": "Church Street", "highway": "secondary", "maxspeed": "25 mph", "reversed": false, "length": 70.727, "source": 42429830, "target": 42452817}, {"osmid": 947916172, "oneway": true, "lanes": "3", "name": "Church Street", "highway": "secondary", "maxspeed": "25 mph", "reversed": false, "length": 68.126, "source": 42429830, "target": 42430550}, {"osmid": 5669866, "oneway": true, "name": "Thomas Street", "highway": "residential", "maxspeed": "25 mph", "reversed": false, "length": 102.611, "source": 42429832, "target": 42429833}, {"osmid": 1022549185, "oneway": true, "lanes": "2", "name": "West Broadway", "highway": "secondary", "maxspeed": "25 mph", "reversed": false, "length": 67.285, "source": 42429832, "target": 42430557}, {"osmid": 1022549185, "oneway": true, "lanes": "2", "name": "West Broadway", "highway": "secondary", "maxspeed": "25 mph", "reversed": false, "length": 70.463, "source": 42429832, "target": 42452816}, {"osmid": 124814435, "oneway": true, "name": "Hudson Street", "highway": "secondary", "maxspeed": "25 mph", "reversed": false, "length": 37.785, "source": 42429833, "target": 42436326}, {"osmid": 124814435, "oneway": true, "name": "Hudson Street", "highway": "secondary", "maxspeed": "25 mph", "reversed": false, "length": 35.134, "source": 42429833, "target": 42430529}, {"osmid": 1135576504, "oneway": true, "lanes": "1", "name": "Nassau Street", "highway": "residential", "maxspeed": "25 mph", "reversed": false, "length": 55.604, "source": 42429838, "target": 42434410}, {"osmid": 1127576696, "oneway": true, "lanes": "1", "name": "Pine Street", "highway": "residential", "maxspeed": "25 mph", "reversed": false, "length": 131.75199999999998, "source": 42429838, "target": 42429840}, {"osmid": [1127573246, 526839039], "oneway": true, "lanes": "1", "name": "William Street", "highway": "residential", "maxspeed": "25 mph", "reversed": false, "length": 52.215999999999994, "source": 42429840, "target": 42434420}, {"osmid": 847932331, "oneway": true, "lanes": "1", "name": "Pine Street", "highway": "residential", "maxspeed": "25 mph", "reversed": false, "length": 163.354, "source": 42429840, "target": 42429842}, {"osmid": 1127572723, "oneway": true, "lanes": "1", "name": "William Street", "highway": "residential", "maxspeed": "25 mph", "reversed": false, "length": 76.756, "source": 42429840, "target": 42448578}, {"osmid": 1151034558, "oneway": true, "lanes": "1", "name": "Pearl Street", "highway": "residential", "maxspeed": "25 mph", "reversed": false, "length": 45.006, "source": 42429842, "target": 42434418}, {"osmid": [587038050, 1096304299], "oneway": false, "lanes": "2", "name": "Park Place", "highway": "residential", "maxspeed": "25 mph", "reversed": true, "length": 156.36, "source": 42430004, "target": 2821304138}, {"osmid": 5669882, "oneway": true, "name": "Park Place", "highway": "residential", "maxspeed": "25 mph", "reversed": false, "length": 128.077, "source": 42430004, "target": 42430007}, {"osmid": [1149017059, 222299277], "oneway": true, "lanes": "4", "name": "Church Street", "highway": "secondary", "maxspeed": "25 mph", "reversed": false, "length": 68.543, "source": 42430004, "target": 42453952}, {"osmid": 941936918, "oneway": true, "lanes": "2", "name": "West Broadway", "highway": "residential", "maxspeed": "25 mph", "reversed": false, "length": 68.865, "source": 42430007, "target": 42454401}, {"osmid": 5669882, "oneway": true, "name": "Park Place", "highway": "residential", "maxspeed": "25 mph", "reversed": false, "length": 94.56500000000001, "source": 42430007, "target": 42430009}, {"osmid": 46171884, "oneway": true, "name": "Greenwich Street", "highway": "residential", "maxspeed": "25 mph", "reversed": false, "length": 76.93400000000001, "source": 42430009, "target": 272194254}, {"osmid": 955293894, "oneway": true, "name": "Franklin Street", "highway": "residential", "maxspeed": "25 mph", "reversed": false, "length": 9.075, "source": 42430115, "target": 4143851144}, {"osmid": [955293893, 955293895], "oneway": true, "lanes": ["2", "3"], "name": "6th Avenue", "highway": "secondary", "maxspeed": "25 mph", "reversed": false, "length": 82.053, "source": 42430115, "target": 42430118}, {"osmid": 5672168, "oneway": true, "name": "Franklin Street", "highway": "residential", "maxspeed": "25 mph", "reversed": false, "length": 121.454, "source": 42430115, "target": 42453059}, {"osmid": 5669922, "oneway": true, "lanes": "2", "name": "6th Avenue", "highway": "secondary", "maxspeed": "25 mph", "reversed": false, "length": 42.995000000000005, "source": 42430115, "target": 4143851142}, {"osmid": 1036714798, "oneway": true, "name": "White Street", "highway": "residential", "maxspeed": "25 mph", "reversed": false, "length": 94.727, "source": 42430118, "target": 42453773}, {"osmid": 1036714798, "oneway": true, "name": "White Street", "highway": "residential", "maxspeed": "25 mph", "reversed": false, "length": 33.483, "source": 42430118, "target": 42453777}, {"osmid": 5669935, "oneway": true, "name": "Duane Street", "highway": "residential", "maxspeed": "25 mph", "reversed": false, "length": 45.932, "source": 42430519, "target": 42430521}, {"osmid": 556311124, "oneway": true, "name": "Greenwich Street", "highway": "residential", "maxspeed": "25 mph", "reversed": false, "length": 62.928999999999995, "source": 42430519, "target": 5812723036}, {"osmid": 556311124, "oneway": true, "name": "Greenwich Street", "highway": "residential", "maxspeed": "25 mph", "reversed": false, "length": 73.376, "source": 42430519, "target": 42436050}, {"osmid": 5669935, "oneway": true, "name": "Duane Street", "highway": "residential", "maxspeed": "25 mph", "reversed": false, "length": 88.18199999999999, "source": 42430521, "target": 42430529}, {"osmid": 1022549184, "oneway": true, "name": "Duane Street", "highway": "residential", "maxspeed": "25 mph", "reversed": false, "length": 98.351, "source": 42430521, "target": 42430571}, {"osmid": 124814435, "oneway": true, "name": "Hudson Street", "highway": "secondary", "maxspeed": "25 mph", "reversed": false, "length": 39.93, "source": 42430529, "target": 42430571}, {"osmid": 46332307, "oneway": true, "lanes": "1", "name": "Duane Street", "highway": "secondary", "maxspeed": "25 mph", "reversed": false, "length": 35.56100000000001, "source": 42430535, "target": 4561384853}, {"osmid": 46332308, "name": "Duane Street", "highway": "unclassified", "maxspeed": "25 mph", "access": "no", "oneway": false, "reversed": true, "length": 69.856, "source": 42430535, "target": 42430540}, {"osmid": 496990369, "oneway": true, "lanes": "1", "name": "Lafayette Street", "highway": "secondary", "maxspeed": "25 mph", "reversed": false, "length": 57.017, "source": 42430535, "target": 9121386338}, {"osmid": [194923776, 1030282418, 1135342278], "oneway": true, "lanes": "2", "name": "Lafayette Street", "highway": "secondary", "maxspeed": "25 mph", "reversed": false, "length": 164.704, "source": 42430535, "target": 42445466}, {"osmid": 46332309, "oneway": true, "name": "Elk Street", "highway": "unclassified", "maxspeed": "25 mph", "access": "no", "reversed": false, "length": 71.821, "source": 42430540, "target": 42443588}, {"osmid": 5669938, "oneway": true, "name": "Duane Street", "highway": "residential", "maxspeed": "25 mph", "reversed": false, "length": 50.269, "source": 42430550, "target": 4754091366}, {"osmid": 5669938, "oneway": true, "name": "Duane Street", "highway": "residential", "maxspeed": "25 mph", "reversed": false, "length": 125.45700000000001, "source": 42430550, "target": 42430557}, {"osmid": 955237975, "oneway": true, "lanes": "4", "name": "Church Street", "highway": "secondary", "maxspeed": "25 mph", "reversed": false, "length": 74.33200000000001, "source": 42430550, "target": 42445356}, {"osmid": [1022549186, 68668562], "oneway": true, "lanes": ["2", "3"], "name": "West Broadway", "highway": "secondary", "maxspeed": "25 mph", "reversed": false, "length": 75.25500000000001, "source": 42430557, "target": 42445357}, {"osmid": 1022549184, "oneway": true, "name": "Duane Street", "highway": "residential", "maxspeed": "25 mph", "reversed": false, "length": 72.31400000000001, "source": 42430557, "target": 42430571}, {"osmid": 124814435, "oneway": true, "name": "Hudson Street", "highway": "secondary", "maxspeed": "25 mph", "reversed": false, "length": 82.064, "source": 42430571, "target": 42436322}, {"osmid": 480682392, "oneway": false, "name": "Gold Street", "highway": "residential", "maxspeed": "25 mph", "reversed": false, "length": 37.165, "source": 42430848, "target": 42457311}, {"osmid": 536917120, "oneway": false, "lanes": "2", "name": "Gold Street", "highway": "residential", "maxspeed": "25 mph", "reversed": true, "length": 46.577, "source": 42430848, "target": 42440280}, {"osmid": 388167519, "oneway": true, "lanes": "1", "name": "Ann Street", "highway": "residential", "maxspeed": "25 mph", "reversed": false, "length": 98.85700000000001, "source": 42430848, "target": 1538237248}, {"osmid": 5671121, "oneway": true, "name": "Elk Street", "highway": "unclassified", "maxspeed": "25 mph", "reversed": false, "length": 67.89, "source": 42431602, "target": 42443588}, {"osmid": [1010159653, 837450655], "oneway": false, "lanes": ["4", "3"], "name": "Chambers Street", "highway": "unclassified", "maxspeed": "25 mph", "reversed": true, "length": 146.18099999999998, "source": 42431602, "target": 272195271}, {"osmid": 986808853, "oneway": false, "lanes": "4", "name": "Chambers Street", "highway": "unclassified", "maxspeed": "25 mph", "reversed": false, "length": 70.79599999999999, "source": 42431602, "target": 4878831008}, {"osmid": [955237974, 413054286], "oneway": true, "lanes": ["4", "3"], "name": "Church Street", "highway": "secondary", "maxspeed": "25 mph", "reversed": false, "length": 65.563, "source": 42431611, "target": 42445356}, {"osmid": 524816751, "oneway": false, "lanes": "2", "name": "Chambers Street", "highway": "residential", "maxspeed": "25 mph", "reversed": true, "length": 125.33099999999999, "source": 42431611, "target": 42431614}, {"osmid": 837450654, "oneway": false, "lanes": "3", "name": "Chambers Street", "highway": "unclassified", "maxspeed": "25 mph", "reversed": false, "length": 162.696, "source": 42431611, "target": 272195271}, {"osmid": 483707770, "oneway": true, "lanes": "4", "name": "Church Street", "highway": "secondary", "maxspeed": "25 mph", "reversed": false, "length": 73.491, "source": 42431611, "target": 42449597}, {"osmid": 127690685, "oneway": false, "lanes": "2", "name": "Chambers Street", "highway": "secondary", "maxspeed": "25 mph", "reversed": true, "length": 167.71200000000002, "source": 42431614, "target": 42431617}, {"osmid": 439933951, "oneway": true, "lanes": "2", "name": "West Broadway", "highway": "secondary", "maxspeed": "25 mph", "reversed": false, "length": 74.345, "source": 42431614, "target": 42449600}, {"osmid": 68668562, "oneway": true, "lanes": "2", "name": "West Broadway", "highway": "secondary", "maxspeed": "25 mph", "reversed": false, "length": 64.775, "source": 42431614, "target": 42445357}, {"osmid": [421832642, 226040986], "lanes": "3", "name": "Chambers Street", "highway": "secondary", "maxspeed": "25 mph", "oneway": false, "reversed": true, "length": 180.05499999999998, "source": 42431617, "target": 42431626}, {"osmid": 643000849, "oneway": true, "lanes": "1", "name": "Greenwich Street", "highway": "residential", "maxspeed": "25 mph", "reversed": false, "length": 79.536, "source": 42431617, "target": 5812723033}, {"osmid": 226041017, "oneway": true, "name": "Greenwich Street", "highway": "residential", "maxspeed": "25 mph", "reversed": false, "length": 68.31400000000001, "source": 42431617, "target": 5812723036}, {"osmid": 420772653, "name": "Chambers Street", "highway": "secondary", "maxspeed": "25 mph", "oneway": false, "reversed": true, "length": 26.558, "source": 42431626, "target": 246858448}, {"osmid": 195743229, "oneway": true, "lanes": "4", "ref": "NY 9A", "name": "West Street", "highway": "trunk", "maxspeed": "30 mph", "reversed": false, "length": 215.74699999999999, "source": 42431626, "target": 42453417}, {"osmid": 222299274, "oneway": true, "lanes": "4", "ref": "NY 9A", "name": "West Street", "highway": "trunk", "maxspeed": "30 mph", "reversed": false, "length": 80.52, "source": 42431626, "target": 42449613}, {"osmid": 584971513, "lanes": "2", "name": "Chambers Street", "highway": "residential", "maxspeed": "25 mph", "oneway": false, "reversed": true, "length": 26.401, "source": 42431629, "target": 42431630}, {"osmid": [226040985, 46165814], "lanes": "2", "name": "Chambers Street", "highway": "residential", "maxspeed": "25 mph", "oneway": false, "reversed": false, "length": 77.953, "source": 42431629, "target": 246858448}, {"osmid": 196117045, "oneway": true, "name": "North End Avenue", "highway": "residential", "maxspeed": "25 mph", "reversed": false, "length": 80.24900000000001, "source": 42431629, "target": 42446825}, {"osmid": 5671457, "oneway": true, "name": "North End Avenue", "highway": "residential", "maxspeed": "25 mph", "reversed": false, "length": 80.268, "source": 42431630, "target": 42446814}, {"osmid": 5670058, "oneway": true, "name": "Oliver Street", "highway": "residential", "maxspeed": "25 mph", "reversed": false, "length": 68.49199999999999, "source": 42431990, "target": 4158807592}, {"osmid": 5670058, "oneway": true, "name": "Oliver Street", "highway": "residential", "maxspeed": "25 mph", "reversed": false, "length": 85.773, "source": 42431990, "target": 42431992}, {"osmid": 584971525, "oneway": false, "name": "Madison Street", "highway": "secondary", "maxspeed": "25 mph", "reversed": false, "length": 77.069, "source": 42431992, "target": 42437753}, {"osmid": 5670092, "oneway": true, "name": "Mott Street", "highway": "residential", "maxspeed": "25 mph", "reversed": false, "length": 110.679, "source": 42432238, "target": 1773055865}, {"osmid": 183010767, "oneway": true, "name": "Mosco Street", "highway": "residential", "reversed": false, "length": 67.023, "source": 42432238, "target": 42435435}, {"osmid": 5670092, "oneway": true, "name": "Mott Street", "highway": "residential", "maxspeed": "25 mph", "reversed": false, "length": 54.043, "source": 42432238, "target": 42432241}, {"osmid": 5670092, "oneway": true, "name": "Mott Street", "highway": "residential", "maxspeed": "25 mph", "reversed": false, "length": 77.335, "source": 42432241, "target": 42432244}, {"osmid": 5671434, "oneway": true, "name": "Pell Street", "highway": "residential", "maxspeed": "25 mph", "reversed": false, "length": 148.89100000000002, "source": 42432241, "target": 1773063787}, {"osmid": 847873802, "oneway": true, "name": "Bayard Street", "highway": "residential", "maxspeed": "25 mph", "reversed": false, "length": 71.97899999999998, "source": 42432244, "target": 42438034}, {"osmid": 5670092, "oneway": true, "name": "Mott Street", "highway": "residential", "maxspeed": "25 mph", "reversed": false, "length": 146.799, "source": 42432244, "target": 42432246}, {"osmid": 847873803, "oneway": true, "name": "Bayard Street", "highway": "residential", "maxspeed": "25 mph", "reversed": false, "length": 76.994, "source": 42432244, "target": 7132405535}, {"osmid": 388695705, "oneway": false, "lanes": "4", "name": "Canal Street", "highway": "trunk", "maxspeed": "25 mph", "reversed": true, "length": 78.218, "source": 42432246, "target": 42435451}, {"osmid": 5670167, "oneway": true, "name": "Peck Slip", "highway": "residential", "maxspeed": "25 mph", "reversed": false, "length": 57.28399999999999, "source": 42433205, "target": 42433212}, {"osmid": 46154300, "oneway": true, "lanes": "1", "name": "Water Street", "highway": "residential", "maxspeed": "25 mph", "reversed": false, "length": 13.848, "source": 42433205, "target": 42433231}, {"osmid": 46154300, "oneway": true, "lanes": "1", "name": "Water Street", "highway": "residential", "maxspeed": "25 mph", "reversed": false, "length": 107.54299999999999, "source": 42433205, "target": 42457292}, {"osmid": 814259709, "oneway": true, "name": "Peck Slip", "highway": "residential", "maxspeed": "25 mph", "reversed": false, "length": 61.827999999999996, "source": 42433212, "target": 42433218}, {"osmid": 814259710, "oneway": true, "name": "Front Street", "highway": "residential", "maxspeed": "25 mph", "reversed": false, "length": 108.414, "source": 42433212, "target": 42452620}, {"osmid": 1080978584, "lanes": "2", "name": "South Street", "highway": "primary", "maxspeed": "25 mph", "oneway": false, "reversed": true, "length": 29.924, "source": 42433218, "target": 42433243}, {"osmid": 1145069303, "lanes": "2", "name": "South Street", "highway": "primary", "maxspeed": "25 mph", "oneway": false, "reversed": false, "length": 106.18900000000001, "source": 42433218, "target": 3350498747}, {"osmid": 438366913, "lanes": "4", "name": "Pearl Street", "highway": "primary", "oneway": false, "reversed": true, "length": 118.24400000000001, "source": 42433229, "target": 42444271}, {"osmid": 39956205, "oneway": true, "lanes": "1", "name": "Peck Slip", "highway": "residential", "maxspeed": "25 mph", "reversed": false, "length": 81.29400000000001, "source": 42433229, "target": 42433231}, {"osmid": 46154300, "oneway": true, "lanes": "1", "name": "Water Street", "highway": "residential", "maxspeed": "25 mph", "reversed": false, "length": 105.705, "source": 42433231, "target": 5378284711}, {"osmid": 5670168, "oneway": true, "name": "Peck Slip", "highway": "residential", "maxspeed": "25 mph", "reversed": false, "length": 58.341, "source": 42433231, "target": 42433237}, {"osmid": 5670168, "oneway": true, "name": "Peck Slip", "highway": "residential", "maxspeed": "25 mph", "reversed": false, "length": 60.730000000000004, "source": 42433237, "target": 42433243}, {"osmid": 46154332, "oneway": true, "lanes": "1", "name": "Front Street", "highway": "residential", "maxspeed": "25 mph", "reversed": false, "length": 99.105, "source": 42433237, "target": 42438471}, {"osmid": 1080978584, "lanes": "2", "name": "South Street", "highway": "primary", "maxspeed": "25 mph", "oneway": false, "reversed": true, "length": 91.31400000000001, "source": 42433243, "target": 42438476}, {"osmid": 5670174, "oneway": true, "name": "Cliff Street", "highway": "residential", "maxspeed": "25 mph", "reversed": false, "length": 119.006, "source": 42433330, "target": 673008453}, {"osmid": 1151033517, "oneway": true, "name": "John Street", "highway": "residential", "maxspeed": "25 mph", "reversed": false, "length": 73.361, "source": 42433330, "target": 42440347}, {"osmid": 1151033517, "oneway": true, "name": "John Street", "highway": "residential", "maxspeed": "25 mph", "reversed": false, "length": 55.946999999999996, "source": 42433330, "target": 42440345}, {"osmid": [421824309, 196117014], "oneway": false, "name": "East Broadway", "highway": "secondary", "maxspeed": "25 mph", "reversed": true, "length": 67.86999999999999, "source": 42433537, "target": 588455742}, {"osmid": 910361854, "oneway": true, "name": "Catherine Street", "highway": "residential", "maxspeed": "25 mph", "reversed": false, "length": 61.617999999999995, "source": 42433537, "target": 42437559}, {"osmid": [1032502936, 129834316], "oneway": true, "lanes": "1", "name": ["Cedar Street", "Greenwich Street"], "highway": ["residential", "unclassified"], "maxspeed": "25 mph", "reversed": false, "length": 123.008, "source": 42434412, "target": 42436192}, {"osmid": 1032502937, "oneway": true, "lanes": "3", "name": "Trinity Place", "highway": "secondary", "maxspeed": "25 mph", "reversed": false, "length": 34.028, "source": 42434412, "target": 42456888}, {"osmid": 5670268, "oneway": true, "name": "Cedar Street", "highway": "residential", "maxspeed": "25 mph", "reversed": false, "length": 164.494, "source": 42434418, "target": 42434420}, {"osmid": 536917118, "oneway": true, "name": "Pearl Street", "highway": "residential", "maxspeed": "25 mph", "reversed": false, "length": 48.195, "source": 42434418, "target": 42444424}, {"osmid": [799480720, 5670366], "oneway": true, "name": "Mulberry Street", "highway": "residential", "maxspeed": "25 mph", "reversed": false, "length": 166.343, "source": 42435435, "target": 7132405535}, {"osmid": 5670366, "oneway": true, "name": "Mulberry Street", "highway": "residential", "maxspeed": "25 mph", "reversed": false, "length": 58.594, "source": 42435435, "target": 7132405548}, {"osmid": 438901171, "oneway": false, "lanes": "5", "name": "Canal Street", "highway": "trunk", "maxspeed": "25 mph", "reversed": true, "length": 27.413, "source": 42435451, "target": 6123654602}, {"osmid": 799480720, "oneway": true, "name": "Mulberry Street", "highway": "residential", "maxspeed": "25 mph", "reversed": false, "length": 128.637, "source": 42435451, "target": 42435456}, {"osmid": 799480720, "oneway": true, "name": "Mulberry Street", "highway": "residential", "maxspeed": "25 mph", "reversed": false, "length": 146.944, "source": 42435451, "target": 7132405535}, {"osmid": 847921887, "oneway": true, "name": "Hester Street", "highway": "residential", "maxspeed": "25 mph", "reversed": false, "length": 75.44, "source": 42435456, "target": 42445612}, {"osmid": 847931435, "oneway": true, "name": "Mulberry Street", "highway": "residential", "maxspeed": "25 mph", "reversed": false, "length": 141.253, "source": 42435456, "target": 42435470}, {"osmid": 5673441, "oneway": true, "lanes": "2", "name": "Jay Street", "highway": "residential", "maxspeed": "25 mph", "reversed": false, "length": 132.68200000000002, "source": 42436050, "target": 42436326}, {"osmid": 556311124, "oneway": true, "name": "Greenwich Street", "highway": "residential", "maxspeed": "25 mph", "reversed": false, "length": 77.746, "source": 42436050, "target": 5812723035}, {"osmid": 46332299, "oneway": true, "name": "Franklin Street", "highway": "residential", "maxspeed": "25 mph", "reversed": false, "length": 130.808, "source": 42436055, "target": 42436335}, {"osmid": 556311124, "oneway": true, "name": "Greenwich Street", "highway": "residential", "maxspeed": "25 mph", "reversed": false, "length": 71.65599999999999, "source": 42436055, "target": 5812723035}, {"osmid": 1128358854, "lanes": "2", "name": "Greenwich Street", "highway": "residential", "maxspeed": "25 mph", "oneway": false, "reversed": false, "length": 7.383, "source": 42436178, "target": 4149936245}, {"osmid": 5672893, "oneway": true, "lanes": "1", "name": "Edgar Street", "highway": "residential", "maxspeed": "25 mph", "reversed": false, "length": 41.969, "source": 42436178, "target": 4149936235}, {"osmid": 5671436, "oneway": true, "name": "Rector Street", "highway": "residential", "maxspeed": "25 mph", "width": "18'0\"", "reversed": false, "length": 58.760000000000005, "source": 42436181, "target": 42446622}, {"osmid": 46166212, "oneway": true, "lanes": "1", "name": "Greenwich Street", "highway": "residential", "maxspeed": "25 mph", "reversed": false, "length": 96.773, "source": 42436181, "target": 4149936245}, {"osmid": 541336911, "oneway": true, "name": "Greenwich Street", "highway": "residential", "maxspeed": "25 mph", "reversed": false, "length": 89.108, "source": 42436181, "target": 42436184}, {"osmid": 5671436, "oneway": true, "name": "Rector Street", "highway": "residential", "maxspeed": "25 mph", "width": "18'0\"", "reversed": false, "length": 71.171, "source": 42436181, "target": 42446632}, {"osmid": 5672027, "oneway": true, "lanes": "1", "name": "Carlisle Street", "highway": "residential", "maxspeed": "25 mph", "width": "14'4\"", "reversed": false, "length": 76.874, "source": 42436184, "target": 42452310}, {"osmid": 1015379882, "oneway": true, "name": "Greenwich Street", "highway": "residential", "maxspeed": "25 mph", "reversed": false, "length": 46.375, "source": 42436184, "target": 42436187}, {"osmid": 129834316, "oneway": true, "name": "Greenwich Street", "highway": "residential", "maxspeed": "25 mph", "reversed": false, "length": 28.962, "source": 42436187, "target": 42436192}, {"osmid": 413051876, "oneway": true, "lanes": "1", "name": "Albany Street", "highway": "residential", "maxspeed": "25 mph", "reversed": false, "length": 79.123, "source": 42436187, "target": 3772840882}, {"osmid": 5673628, "oneway": true, "lanes": "1", "name": "Thames Street", "highway": "unclassified", "maxspeed": "25 mph", "reversed": false, "length": 85.396, "source": 42436192, "target": 42456888}, {"osmid": [1131052144, 5672973], "oneway": true, "lanes": "3", "name": "Trinity Place", "highway": "secondary", "maxspeed": "25 mph", "reversed": false, "length": 101.791, "source": 42436202, "target": 4149936235}, {"osmid": 413045202, "oneway": true, "lanes": "1", "name": "Reade Street", "highway": "residential", "maxspeed": "25 mph", "reversed": false, "length": 154.02500000000003, "source": 42436322, "target": 5812723036}, {"osmid": 413045201, "oneway": true, "lanes": "1", "name": "Reade Street", "highway": "secondary", "maxspeed": "25 mph", "reversed": false, "length": 37.473, "source": 42436322, "target": 42445357}, {"osmid": 124814435, "oneway": true, "name": "Hudson Street", "highway": "secondary", "maxspeed": "25 mph", "reversed": false, "length": 38.047, "source": 42436326, "target": 42436327}, {"osmid": 68668553, "oneway": true, "lanes": "3", "name": "Hudson Street", "highway": "secondary", "maxspeed": "25 mph", "reversed": false, "length": 41.254999999999995, "source": 42436327, "target": 42436330}, {"osmid": 403405990, "name": "Worth Street", "highway": "residential", "maxspeed": "25 mph", "oneway": false, "reversed": false, "length": 132.016, "source": 42436327, "target": 42452816}, {"osmid": 195743179, "oneway": true, "lanes": "3", "name": "Hudson Street", "highway": "secondary", "maxspeed": "25 mph", "reversed": false, "length": 43.458, "source": 42436330, "target": 42436333}, {"osmid": 46332300, "oneway": true, "lanes": "2", "name": "Harrison Street", "highway": "residential", "maxspeed": "25 mph", "reversed": false, "length": 130.45499999999998, "source": 42436330, "target": 5812723035}, {"osmid": 195743179, "oneway": true, "lanes": "3", "name": "Hudson Street", "highway": "secondary", "maxspeed": "25 mph", "reversed": false, "length": 29.963, "source": 42436333, "target": 42436335}, {"osmid": 941943231, "oneway": true, "name": "Leonard Street", "highway": "residential", "maxspeed": "25 mph", "reversed": false, "length": 165.975, "source": 42436333, "target": 42448162}, {"osmid": 46332299, "oneway": true, "name": "Franklin Street", "highway": "residential", "maxspeed": "25 mph", "reversed": false, "length": 149.994, "source": 42436335, "target": 42453038}, {"osmid": 413051876, "oneway": true, "lanes": "1", "name": "Albany Street", "highway": "residential", "maxspeed": "25 mph", "reversed": false, "length": 79.941, "source": 42437396, "target": 3772840882}, {"osmid": [413052676, 1053552023], "oneway": true, "lanes": ["6", "4"], "ref": "NY 9A", "name": "West Street", "highway": "trunk", "maxspeed": "30 mph", "reversed": false, "length": 76.793, "source": 42437396, "target": 6417761624}, {"osmid": 1015379883, "oneway": true, "lanes": "4", "ref": "NY 9A", "name": "West Street", "highway": "trunk", "maxspeed": "30 mph", "reversed": false, "length": 43.867, "source": 42437396, "target": 42452314}, {"osmid": 195745925, "oneway": true, "name": "Bowery", "highway": "primary", "reversed": false, "length": 11.985, "source": 42437559, "target": 1773066054}, {"osmid": 5672971, "oneway": true, "lanes": "2", "name": "Chatham Square", "highway": "primary", "maxspeed": "25 mph", "reversed": false, "length": 55.135, "source": 42437559, "target": 588455742}, {"osmid": 5670536, "oneway": true, "name": "Catherine Street", "highway": "residential", "maxspeed": "25 mph", "reversed": false, "length": 11.237, "source": 42437559, "target": 1773060097}, {"osmid": [420890074, 5671717, 420890077], "lanes": "4", "name": ["Saint James Place", "Pearl Street"], "highway": "primary", "maxspeed": "25 mph", "oneway": false, "reversed": false, "length": 213.32500000000002, "source": 42437749, "target": 3884569931}, {"osmid": 42786502, "lanes": "4", "name": "Saint James Place", "highway": "primary", "maxspeed": "25 mph", "oneway": false, "reversed": true, "length": 107.657, "source": 42437749, "target": 42439813}, {"osmid": 584971525, "oneway": false, "name": "Madison Street", "highway": "secondary", "maxspeed": "25 mph", "reversed": true, "length": 87.346, "source": 42437749, "target": 42437753}, {"osmid": [5670832, 799486399], "oneway": true, "name": "James Street", "highway": "residential", "maxspeed": "25 mph", "reversed": false, "length": 79.22500000000001, "lanes": "1", "source": 42437753, "target": 42439813}, {"osmid": 5672377, "oneway": true, "lanes": "3", "name": "Church Street", "highway": "secondary", "maxspeed": "25 mph", "reversed": false, "length": 80.32000000000001, "source": 42438155, "target": 42453934}, {"osmid": 5670703, "oneway": true, "lanes": "1", "name": "Dover Street", "highway": "secondary", "maxspeed": "25 mph", "reversed": false, "length": 59.166000000000004, "source": 42438471, "target": 42438476}, {"osmid": 5670703, "oneway": true, "lanes": "1", "name": "Dover Street", "highway": "secondary", "maxspeed": "25 mph", "reversed": false, "length": 58.246, "source": 42438471, "target": 5378284711}, {"osmid": 1080978585, "oneway": false, "lanes": "3", "name": "South Street", "highway": "primary", "maxspeed": "25 mph", "reversed": true, "length": 72.311, "source": 42438476, "target": 278609760}, {"osmid": [1034527689, 1034527690, 1034527687], "oneway": true, "lanes": "2", "name": "Lafayette Street", "highway": "primary", "maxspeed": "25 mph", "reversed": false, "length": 103.181, "source": 42439580, "target": 5706569898}, {"osmid": 42786502, "lanes": "4", "name": "Saint James Place", "highway": "primary", "maxspeed": "25 mph", "oneway": false, "reversed": true, "length": 101.292, "source": 42439813, "target": 4158807592}, {"osmid": 46154330, "name": "Fulton Street", "highway": "residential", "maxspeed": "25 mph", "oneway": false, "reversed": true, "length": 49.439, "source": 42440270, "target": 4015192929}, {"osmid": 496978219, "lanes": "4", "name": "Water Street", "highway": "primary", "maxspeed": "25 mph", "oneway": false, "reversed": true, "length": 102.05199999999999, "source": 42440270, "target": 42440350}, {"osmid": 525038147, "lanes": "4", "name": "Pearl Street", "highway": "primary", "maxspeed": "25 mph", "oneway": false, "reversed": false, "length": 87.69, "source": 42440270, "target": 42444271}, {"osmid": 5673581, "oneway": true, "name": "Gold Street", "highway": "residential", "maxspeed": "25 mph", "reversed": false, "length": 130.937, "source": 42440280, "target": 42440345}, {"osmid": 46154330, "name": "Fulton Street", "highway": "residential", "maxspeed": "25 mph", "oneway": false, "reversed": false, "length": 98.70200000000001, "source": 42440280, "target": 673008453}, {"osmid": 46160225, "oneway": true, "name": "Fulton Street", "highway": "residential", "maxspeed": "25 mph", "reversed": false, "length": 94.799, "source": 42440280, "target": 42440282}, {"osmid": 46160225, "oneway": true, "name": "Fulton Street", "highway": "residential", "maxspeed": "25 mph", "reversed": false, "length": 62.842, "source": 42440282, "target": 42440284}, {"osmid": 1151033361, "oneway": true, "name": "William Street", "highway": "residential", "maxspeed": "25 mph", "reversed": false, "length": 50.251000000000005, "source": 42440282, "target": 1538237248}, {"osmid": 526839040, "oneway": true, "name": "William Street", "highway": "residential", "maxspeed": "25 mph", "reversed": false, "length": 118.126, "source": 42440282, "target": 42440343}, {"osmid": 5671599, "oneway": true, "name": "Dutch Street", "highway": "residential", "maxspeed": "25 mph", "reversed": false, "length": 107.57900000000001, "source": 42440284, "target": 42440340}, {"osmid": 46160225, "oneway": true, "name": "Fulton Street", "highway": "residential", "maxspeed": "25 mph", "reversed": false, "length": 69.987, "source": 42440284, "target": 42440287}, {"osmid": 46160365, "oneway": true, "lanes": "1", "name": "Nassau Street", "highway": "residential", "maxspeed": "25 mph", "reversed": false, "length": 49.839, "source": 42440287, "target": 1538237434}, {"osmid": 46160365, "oneway": true, "lanes": "1", "name": "Nassau Street", "highway": "residential", "maxspeed": "25 mph", "reversed": false, "length": 95.508, "source": 42440287, "target": 42440335}, {"osmid": 5670877, "oneway": true, "name": "John Street", "highway": "residential", "maxspeed": "25 mph", "reversed": false, "length": 71.14699999999999, "source": 42440335, "target": 42440340}, {"osmid": 1135576553, "oneway": true, "lanes": "1", "name": "Nassau Street", "highway": "residential", "maxspeed": "25 mph", "reversed": false, "length": 67.256, "source": 42440335, "target": 42454795}, {"osmid": 1151033516, "oneway": true, "name": "John Street", "highway": "residential", "maxspeed": "25 mph", "reversed": false, "length": 60.36, "source": 42440340, "target": 42440343}, {"osmid": 1151033591, "oneway": true, "name": "John Street", "highway": "residential", "maxspeed": "25 mph", "reversed": false, "length": 83.72999999999999, "source": 42440343, "target": 42440345}, {"osmid": 1127573855, "oneway": true, "name": "William Street", "highway": "residential", "maxspeed": "25 mph", "reversed": false, "length": 50.199, "source": 42440343, "target": 6262915547}, {"osmid": 38605246, "lanes": "2", "name": "John Street", "highway": "unclassified", "maxspeed": "25 mph", "oneway": false, "reversed": true, "length": 71.992, "source": 42440347, "target": 42440350}, {"osmid": 370169932, "oneway": true, "name": "Pearl Street", "highway": "residential", "maxspeed": "25 mph", "reversed": false, "length": 109.395, "source": 42440347, "target": 4015192929}, {"osmid": 496978218, "lanes": "2", "name": "John Street", "highway": "unclassified", "maxspeed": "25 mph", "oneway": false, "reversed": true, "length": 62.14, "source": 42440350, "target": 42440353}, {"osmid": 5672409, "oneway": true, "name": "Baxter Street", "highway": "residential", "maxspeed": "25 mph", "reversed": false, "length": 27.551000000000002, "source": 42440810, "target": 42447255}, {"osmid": 671201389, "oneway": false, "lanes": "5", "name": "Canal Street", "highway": "trunk", "maxspeed": "25 mph", "reversed": false, "length": 50.215, "source": 42440810, "target": 6123654602}, {"osmid": 630828595, "oneway": true, "name": "Baxter Street", "highway": "residential", "maxspeed": "25 mph", "reversed": false, "length": 109.348, "source": 42440810, "target": 42445612}, {"osmid": 5671314, "oneway": true, "lanes": "1", "name": "Reade Street", "highway": "unclassified", "maxspeed": "25 mph", "reversed": false, "length": 76.83699999999999, "source": 42443588, "target": 9121386338}, {"osmid": 5671587, "oneway": true, "lanes": "3", "name": "Park Row", "highway": "secondary", "maxspeed": "25 mph", "reversed": false, "length": 81.089, "source": 42443844, "target": 1272562931}, {"osmid": 455501315, "oneway": true, "lanes": "1", "name": "Beekman Street", "highway": "residential", "maxspeed": "25 mph", "reversed": false, "length": 14.401, "source": 42443844, "target": 2821304143}, {"osmid": 46160153, "oneway": true, "lanes": "1", "name": "Beekman Street", "highway": "residential", "maxspeed": "25 mph", "reversed": false, "length": 66.495, "source": 42443844, "target": 42456492}, {"osmid": 455501322, "oneway": true, "lanes": "2", "name": "Park Row", "highway": "secondary", "maxspeed": "25 mph", "reversed": false, "length": 86.689, "source": 42443844, "target": 588545728}, {"osmid": 1080978585, "oneway": false, "lanes": "3", "name": "South Street", "highway": "primary", "maxspeed": "25 mph", "reversed": false, "length": 46.812, "source": 42444108, "target": 278609760}, {"osmid": 5672986, "lanes": "2", "name": "Robert F. Wagner Sr. Place", "highway": "secondary", "maxspeed": "25 mph", "oneway": false, "reversed": true, "length": 33.926, "source": 42444108, "target": 205025778}, {"osmid": 1080978586, "oneway": false, "lanes": "3", "name": "South Street", "highway": "primary", "maxspeed": "25 mph", "reversed": true, "length": 110.126, "source": 42444108, "target": 1538237325}, {"osmid": 388284037, "oneway": true, "lanes": "1", "name": "Beekman Street", "highway": "residential", "maxspeed": "25 mph", "reversed": false, "length": 52.435, "source": 42444271, "target": 42457292}, {"osmid": 525656841, "lanes": "2", "name": "Maiden Lane", "highway": "secondary", "maxspeed": "25 mph", "oneway": false, "reversed": true, "length": 79.74399999999999, "source": 42444424, "target": 6262915548}, {"osmid": 525656842, "lanes": "2", "name": "Maiden Lane", "highway": "secondary", "maxspeed": "25 mph", "oneway": false, "reversed": false, "length": 92.35, "source": 42444424, "target": 42454798}, {"osmid": 413045201, "oneway": true, "lanes": "1", "name": "Reade Street", "highway": "secondary", "maxspeed": "25 mph", "reversed": false, "length": 124.655, "source": 42445356, "target": 42445357}, {"osmid": 46139039, "oneway": true, "lanes": "2", "name": "Lafayette Street", "highway": "secondary", "maxspeed": "25 mph", "reversed": false, "length": 77.971, "source": 42445466, "target": 42445474}, {"osmid": 46332301, "oneway": true, "lanes": "1", "name": "Leonard Street", "highway": "residential", "maxspeed": "25 mph", "reversed": false, "length": 146.285, "source": 42445474, "target": 5706569905}, {"osmid": 46139039, "oneway": true, "lanes": "2", "name": "Lafayette Street", "highway": "secondary", "maxspeed": "25 mph", "reversed": false, "length": 72.763, "source": 42445474, "target": 42445479}, {"osmid": 46139039, "oneway": true, "lanes": "2", "name": "Lafayette Street", "highway": "secondary", "maxspeed": "25 mph", "reversed": false, "length": 76.668, "source": 42445479, "target": 42445481}, {"osmid": 46139039, "oneway": true, "lanes": "2", "name": "Lafayette Street", "highway": "secondary", "maxspeed": "25 mph", "reversed": false, "length": 85.423, "source": 42445481, "target": 42445484}, {"osmid": 46139039, "oneway": true, "lanes": "2", "name": "Lafayette Street", "highway": "secondary", "maxspeed": "25 mph", "reversed": false, "length": 67.128, "source": 42445484, "target": 5706569898}, {"osmid": [1032502934, 1032502935], "oneway": true, "lanes": ["2", "3"], "name": "Trinity Place", "highway": "secondary", "maxspeed": "25 mph", "reversed": false, "length": 157.136, "source": 42446622, "target": 42456888}, {"osmid": 1089573084, "oneway": true, "lanes": "3", "name": "Trinity Place", "highway": "secondary", "maxspeed": "25 mph", "reversed": false, "length": 103.15899999999999, "source": 42446622, "target": 4149936235}, {"osmid": 46171889, "oneway": true, "lanes": "1", "name": "Washington Street", "highway": "residential", "maxspeed": "25 mph", "reversed": false, "length": 99.12100000000001, "source": 42446632, "target": 42452310}, {"osmid": 5671713, "name": "Warren Street", "highway": "residential", "maxspeed": "25 mph", "oneway": false, "reversed": true, "length": 25.767, "source": 42446814, "target": 42446825}, {"osmid": [196117059, 46165813], "name": "Warren Street", "highway": "residential", "maxspeed": "25 mph", "oneway": false, "reversed": true, "length": 104.74, "source": 42446825, "target": 246858449}, {"osmid": 5672409, "oneway": true, "name": "Baxter Street", "highway": "residential", "maxspeed": "25 mph", "reversed": false, "length": 138.417, "source": 42447255, "target": 7132405547}, {"osmid": 591772211, "oneway": true, "lanes": "2", "name": "Walker Street", "highway": "tertiary", "maxspeed": "25 mph", "reversed": false, "length": 50.951, "source": 42447255, "target": 6123654602}, {"osmid": 46171883, "oneway": true, "lanes": "2", "name": "West Broadway", "highway": "secondary", "maxspeed": "25 mph", "reversed": false, "length": 78.186, "source": 42448162, "target": 42452816}, {"osmid": 46332301, "oneway": true, "lanes": "1", "name": "Leonard Street", "highway": "residential", "maxspeed": "25 mph", "reversed": false, "length": 124.57300000000001, "source": 42448162, "target": 42448171}, {"osmid": [420810621, 420810623], "oneway": true, "lanes": "2", "name": "Varick Street", "highway": "secondary", "maxspeed": "25 mph", "reversed": false, "length": 95.513, "source": 42448162, "target": 42453038}, {"osmid": 903589928, "oneway": true, "lanes": "1", "name": "West Broadway", "highway": "secondary", "maxspeed": "25 mph", "reversed": false, "length": 78.05900000000001, "source": 42448162, "target": 42453059}, {"osmid": 947916171, "oneway": true, "lanes": "3", "name": "Church Street", "highway": "secondary", "maxspeed": "25 mph", "reversed": false, "length": 34.512, "source": 42448171, "target": 4143851142}, {"osmid": 524817693, "oneway": true, "lanes": "3", "name": "Church Street", "highway": "secondary", "maxspeed": "25 mph", "reversed": false, "length": 76.96900000000001, "source": 42448171, "target": 42452817}, {"osmid": 46332301, "oneway": true, "lanes": "1", "name": "Leonard Street", "highway": "residential", "maxspeed": "25 mph", "reversed": false, "length": 174.099, "source": 42448171, "target": 5706569905}, {"osmid": 46160244, "oneway": false, "lanes": "2", "name": "Gold Street", "highway": "residential", "maxspeed": "25 mph", "reversed": true, "length": 66.353, "source": 42448469, "target": 42459820}, {"osmid": 524363437, "oneway": true, "name": "Frankfort Street", "highway": "secondary", "maxspeed": "25 mph", "reversed": false, "length": 24.253, "source": 42448469, "target": 42448483}, {"osmid": [520532096, 5671593, 526503346], "oneway": true, "lanes": "1", "name": ["Frankfort Street", "Park Row"], "highway": "secondary", "maxspeed": "25 mph", "reversed": false, "length": 249.39, "source": 42448469, "target": 1272562931}, {"osmid": 414743429, "oneway": true, "name": "Frankfort Street", "highway": "secondary", "reversed": false, "length": 68.05, "source": 42448469, "target": 4158673495}, {"osmid": 524363437, "oneway": true, "name": "Frankfort Street", "highway": "secondary", "maxspeed": "25 mph", "reversed": false, "length": 42.204, "source": 42448483, "target": 4158673495}, {"osmid": 5673591, "oneway": true, "lanes": "1", "name": "Gold Street", "highway": "residential", "maxspeed": "25 mph", "reversed": false, "length": 64.109, "source": 42448483, "target": 42459820}, {"osmid": 447018423, "oneway": true, "lanes": "1", "name": "Wall Street", "highway": "residential", "maxspeed": "25 mph", "access": "yes", "reversed": false, "length": 74.57199999999999, "source": 42448578, "target": 2824895141}, {"osmid": 1127573855, "oneway": true, "name": "William Street", "highway": "residential", "maxspeed": "25 mph", "reversed": false, "length": 51.204, "source": 42448583, "target": 6262915547}, {"osmid": 46154327, "oneway": true, "lanes": "1", "name": "Maiden Lane", "highway": "residential", "maxspeed": "25 mph", "reversed": false, "length": 138.74800000000002, "source": 42448583, "target": 42454795}, {"osmid": 1127576536, "oneway": true, "lanes": "1", "name": "Maiden Lane", "highway": "residential", "maxspeed": "25 mph", "reversed": false, "length": 95.484, "source": 42448583, "target": 6262915548}, {"osmid": 5673038, "oneway": true, "lanes": "1", "name": "Beekman Street", "highway": "unclassified", "maxspeed": "25 mph", "reversed": false, "length": 118.699, "source": 42448593, "target": 42456492}, {"osmid": 40879221, "oneway": true, "lanes": "2", "name": "Beekman Street", "highway": "residential", "maxspeed": "25 mph", "reversed": false, "length": 104.642, "source": 42448593, "target": 42457311}, {"osmid": 388167518, "oneway": true, "lanes": "1", "name": "William Street", "highway": "residential", "reversed": false, "length": 66.751, "source": 42448593, "target": 1538237248}, {"osmid": 588168462, "oneway": true, "lanes": "1", "name": "Warren Street", "highway": "residential", "maxspeed": "25 mph", "reversed": false, "length": 162.02700000000002, "source": 42449597, "target": 2821304136}, {"osmid": 413050335, "oneway": true, "name": "Warren Street", "highway": "residential", "maxspeed": "25 mph", "reversed": false, "length": 125.562, "source": 42449597, "target": 42449600}, {"osmid": 413050335, "oneway": true, "name": "Warren Street", "highway": "residential", "maxspeed": "25 mph", "reversed": false, "length": 140.552, "source": 42449600, "target": 5812723033}, {"osmid": 475867322, "name": "Warren Street", "highway": "residential", "maxspeed": "25 mph", "oneway": false, "reversed": false, "length": 26.988, "source": 42449613, "target": 246858449}, {"osmid": [643000848, 413050335], "oneway": true, "name": "Warren Street", "highway": "residential", "maxspeed": "25 mph", "reversed": false, "length": 179.03100000000003, "source": 42449613, "target": 5812723033}, {"osmid": 5672027, "oneway": true, "lanes": "1", "name": "Carlisle Street", "highway": "residential", "maxspeed": "25 mph", "width": "14'4\"", "reversed": false, "length": 79.428, "source": 42452310, "target": 42452314}, {"osmid": 373857803, "oneway": true, "lanes": "1", "name": "Washington Street", "highway": "residential", "reversed": false, "length": 48.343, "source": 42452310, "target": 3772840882}, {"osmid": 388284037, "oneway": true, "lanes": "1", "name": "Beekman Street", "highway": "residential", "maxspeed": "25 mph", "reversed": false, "length": 58.754, "source": 42452620, "target": 42457292}, {"osmid": 5673035, "oneway": true, "lanes": "1", "name": "Beekman Street", "highway": "residential", "maxspeed": "25 mph", "reversed": false, "length": 66.79299999999999, "source": 42452620, "target": 3350498747}, {"osmid": 5672110, "lanes": "2", "name": "Worth Street", "highway": "residential", "maxspeed": "25 mph", "oneway": false, "reversed": true, "length": 126.065, "source": 42452816, "target": 42452817}, {"osmid": 5672168, "oneway": true, "name": "Franklin Street", "highway": "residential", "maxspeed": "25 mph", "reversed": false, "length": 40.73, "source": 42453038, "target": 42453059}, {"osmid": 46171878, "oneway": true, "lanes": "2", "name": "West Broadway", "highway": "secondary", "maxspeed": "25 mph", "reversed": false, "length": 75.147, "source": 42453059, "target": 42453773}, {"osmid": 44225575, "lanes": "2", "name": "Vesey Street", "highway": "residential", "maxspeed": "25 mph", "oneway": false, "reversed": false, "length": 22.213, "source": 42453395, "target": 373880031}, {"osmid": 438900013, "oneway": true, "lanes": "4", "ref": "NY 9A", "name": "West Street", "highway": "trunk", "maxspeed": "30 mph", "reversed": false, "length": 91.42999999999999, "source": 42453395, "target": 42453398}, {"osmid": [655499757, 413054285], "oneway": true, "lanes": "2", "name": ["Washington Street", "Vesey Street"], "highway": "unclassified", "maxspeed": "25 mph", "access": "no", "reversed": false, "length": 200.11, "source": 42453395, "target": 42459493}, {"osmid": 770524299, "oneway": true, "lanes": "1", "name": "Barclay Street", "highway": "secondary", "maxspeed": "25 mph", "reversed": false, "length": 109.46900000000001, "source": 42453398, "target": 42459493}, {"osmid": [75359816, 250049336, 250049337, 250049338, 250049339], "name": "Harrison Street", "highway": "residential", "maxspeed": "25 mph", "oneway": false, "reversed": true, "length": 168.42700000000002, "tunnel": "building_passage", "source": 42453417, "target": 5812723035}, {"osmid": [1036714796, 1036714797], "oneway": true, "lanes": ["1", "3"], "name": "Church Street", "highway": "residential", "maxspeed": "25 mph", "reversed": false, "length": 76.431, "source": 42453777, "target": 4143851144}, {"osmid": [5672337, 1080873869], "bridge": "yes", "oneway": true, "lanes": "2", "highway": "motorway_link", "reversed": false, "length": 285.916, "source": 42453792, "target": 278642478}, {"osmid": [46224850, 46177171], "bridge": "yes", "oneway": true, "lanes": "1", "highway": "motorway_link", "maxspeed": "30 mph", "reversed": false, "length": 130.66, "source": 42453792, "target": 278608420}, {"osmid": 5672337, "bridge": "yes", "oneway": true, "lanes": "2", "highway": "motorway_link", "reversed": false, "length": 166.404, "source": 42453792, "target": 278608816}, {"osmid": 5672377, "oneway": true, "lanes": "3", "name": "Church Street", "highway": "secondary", "maxspeed": "25 mph", "reversed": false, "length": 63.842999999999996, "source": 42453934, "target": 8840333846}, {"osmid": 222299238, "oneway": true, "lanes": "1", "name": "Barclay Street", "highway": "secondary", "maxspeed": "25 mph", "reversed": false, "length": 135.066, "source": 42453952, "target": 42454401}, {"osmid": 46116329, "oneway": true, "lanes": "1", "name": "Barclay Street", "highway": "secondary", "maxspeed": "25 mph", "reversed": false, "length": 150.149, "source": 42453952, "target": 272195270}, {"osmid": 5672377, "oneway": true, "lanes": "3", "name": "Church Street", "highway": "secondary", "maxspeed": "25 mph", "reversed": false, "length": 83.59099999999998, "source": 42453952, "target": 8840333851}, {"osmid": 891074599, "oneway": true, "lanes": "1", "name": "Barclay Street", "highway": "secondary", "maxspeed": "25 mph", "reversed": false, "length": 59.989, "source": 42454401, "target": 272194254}, {"osmid": 1124499625, "oneway": true, "lanes": "2", "name": "West Broadway", "highway": "unclassified", "maxspeed": "25 mph", "reversed": false, "length": 17.284, "source": 42454401, "target": 10282972213}, {"osmid": [1135577205, 46160365], "oneway": true, "lanes": "1", "name": "Nassau Street", "highway": "residential", "maxspeed": "25 mph", "reversed": false, "length": 105.537, "source": 42456492, "target": 1538237434}, {"osmid": 770524299, "oneway": true, "lanes": "1", "name": "Barclay Street", "highway": "secondary", "maxspeed": "25 mph", "reversed": false, "length": 71.051, "source": 42459493, "target": 272194254}, {"osmid": [32922458, 1080978581, 25561967], "oneway": true, "lanes": "1", "highway": "motorway_link", "maxspeed": ["25 mph", "40 mph"], "reversed": false, "length": 319.484, "bridge": "yes", "source": 205019740, "target": 588455738}, {"osmid": 5672986, "lanes": "2", "name": "Robert F. Wagner Sr. Place", "highway": "secondary", "maxspeed": "25 mph", "oneway": false, "reversed": true, "length": 9.906, "source": 205025778, "target": 4158749895}, {"osmid": 19726366, "oneway": true, "lanes": "1", "name": "South Street", "highway": "secondary", "maxspeed": "25 mph", "reversed": false, "length": 123.52799999999999, "source": 205025778, "target": 1538237325}, {"osmid": [1053554760, 1053554762, 195743227], "oneway": true, "lanes": ["6", "4", "3"], "ref": "NY 9A", "name": "West Street", "highway": "trunk", "maxspeed": "30 mph", "reversed": false, "length": 303.62999999999994, "source": 246858433, "target": 373880031}, {"osmid": [46160106, 770524298, 839968915], "name": "Murray Street", "highway": "residential", "maxspeed": "25 mph", "oneway": false, "reversed": true, "length": 94.505, "lanes": "4", "source": 246858435, "target": 3588508439}, {"osmid": [222299273, 978431658], "oneway": true, "lanes": ["4", "3"], "ref": "NY 9A", "name": "West Street", "highway": "trunk", "maxspeed": "30 mph", "reversed": false, "length": 169.512, "source": 246858435, "target": 373880031}, {"osmid": [475867321, 420809425, 1021042405], "oneway": true, "lanes": ["6", "5", "4"], "ref": "NY 9A", "name": "West Street", "highway": "trunk", "maxspeed": "30 mph", "reversed": false, "length": 140.884, "source": 246858435, "target": 246858449}, {"osmid": [978439270, 420772654], "oneway": true, "lanes": ["4", "3"], "ref": "NY 9A", "name": "West Street", "highway": "trunk", "maxspeed": "30 mph", "reversed": false, "length": 83.052, "source": 246858448, "target": 246858449}, {"osmid": 462421592, "lanes": "2", "name": "Greenwich Street", "highway": "unclassified", "maxspeed": "25 mph", "oneway": false, "reversed": true, "length": 73.732, "source": 272194254, "target": 4143765783}, {"osmid": 388318981, "oneway": true, "lanes": "4", "name": "Broadway", "highway": "secondary", "maxspeed": "25 mph", "reversed": false, "length": 52.623, "source": 272195270, "target": 8262936580}, {"osmid": 587038049, "oneway": true, "lanes": "3", "name": "Broadway", "highway": "secondary", "maxspeed": "25 mph", "reversed": false, "length": 73.217, "source": 272195270, "target": 2821304138}, {"osmid": [1190239185, 194923759], "oneway": true, "lanes": "2", "name": "Park Row", "highway": "secondary", "maxspeed": "25 mph", "reversed": false, "length": 37.694, "source": 272195270, "target": 4143875757}, {"osmid": 196116979, "oneway": true, "lanes": "3", "name": "Broadway", "highway": "secondary", "maxspeed": "25 mph", "reversed": false, "length": 72.417, "source": 272195271, "target": 2821304136}, {"osmid": [25562090, 32922459], "oneway": true, "lanes": "1", "highway": "motorway_link", "reversed": false, "length": 132.32999999999998, "bridge": "yes", "source": 278608718, "target": 278609863}, {"osmid": [1049640883, 533472710], "bridge": "yes", "oneway": true, "lanes": ["2", "1"], "highway": "motorway_link", "reversed": false, "length": 422.20899999999995, "source": 278608718, "target": 278638234}, {"osmid": [32922457, 963975252, 420890093], "bridge": "yes", "oneway": true, "lanes": ["2", "1"], "highway": "motorway_link", "maxspeed": ["25 mph", "40 mph"], "reversed": false, "length": 187.476, "source": 278608816, "target": 587988061}, {"osmid": 1080978582, "oneway": true, "lanes": "1", "name": "Robert F. Wagner Sr. Place", "highway": "secondary", "maxspeed": "25 mph", "reversed": false, "length": 123.803, "source": 278609760, "target": 588455738}, {"osmid": 25562090, "oneway": true, "lanes": "1", "highway": "motorway_link", "reversed": false, "length": 57.547999999999995, "source": 278609863, "target": 278609934}, {"osmid": 25562079, "oneway": true, "lanes": "1", "highway": "motorway_link", "reversed": false, "length": 58.336, "source": 278609863, "target": 3884569924}, {"osmid": [32922464, 5669420], "oneway": true, "highway": "motorway_link", "reversed": false, "length": 223.98000000000002, "bridge": "yes", "source": 278609934, "target": 278642478}, {"osmid": [414744944, 630828599], "name": "Pearl Street", "highway": "primary", "maxspeed": "25 mph", "oneway": false, "reversed": false, "length": 57.783, "source": 278609934, "target": 3884569924}, {"osmid": [32922456, 25564255], "bridge": "yes", "oneway": true, "highway": "motorway_link", "maxspeed": "30 mph", "reversed": false, "length": 224.499, "source": 278638234, "target": 3884569924}, {"osmid": [25562077, 414746383], "bridge": "yes", "oneway": true, "lanes": "2", "highway": "motorway_link", "reversed": false, "length": 122.86800000000001, "source": 278638234, "target": 4158753824}, {"osmid": [46177164, 1080873869], "bridge": "yes", "oneway": true, "lanes": "2", "highway": "motorway_link", "reversed": false, "length": 186.37200000000004, "source": 278642478, "target": 486819531}, {"osmid": [122660460, 122660459, 5669636], "oneway": true, "lanes": ["2", "1"], "name": "Brooklyn Bridge", "highway": "trunk", "maxspeed": "30 mph", "reversed": false, "length": 163.235, "bridge": "yes", "source": 370705004, "target": 4158740807}, {"osmid": 507432922, "oneway": true, "lanes": "1", "name": "Centre Street", "highway": "secondary", "maxspeed": "25 mph", "reversed": false, "length": 85.073, "source": 370705004, "target": 2821304146}, {"osmid": [356140737, 1043517682], "oneway": true, "lanes": ["2", "1"], "name": "Centre Street", "highway": "secondary", "maxspeed": "25 mph", "reversed": false, "length": 94.19799999999998, "source": 370705004, "target": 4878831008}, {"osmid": [432550257, 808611020], "bridge": "yes", "oneway": true, "lanes": "3", "name": "Brooklyn Bridge", "highway": "trunk", "maxspeed": "30 mph", "reversed": false, "length": 336.894, "source": 486819531, "target": 4158752889}, {"osmid": 122660460, "bridge": "yes", "oneway": true, "lanes": "1", "name": "Brooklyn Bridge", "highway": "trunk", "maxspeed": "30 mph", "reversed": false, "length": 19.914, "source": 486819531, "target": 4158740807}, {"osmid": [122660461, 5669206], "bridge": "yes", "oneway": true, "lanes": "1", "highway": "trunk_link", "maxspeed": "30 mph", "reversed": false, "length": 183.708, "source": 486819535, "target": 4143876126}, {"osmid": [32922453, 533472709, 1111954748, 356140743], "bridge": "yes", "oneway": true, "lanes": ["1", "3"], "name": "Brooklyn Bridge", "highway": ["secondary_link", "trunk"], "maxspeed": ["25 mph", "30 mph"], "reversed": false, "length": 179.54, "source": 486819535, "target": 9121386334}, {"osmid": 46116316, "bridge": "yes", "oneway": true, "lanes": "2", "name": "Brooklyn Bridge", "highway": "trunk", "maxspeed": "30 mph", "reversed": false, "length": 97.384, "source": 486819535, "target": 4158753824}, {"osmid": 46116183, "oneway": true, "lanes": "4", "name": "Robert F. Wagner Sr. Place", "highway": "secondary", "maxspeed": "25 mph", "reversed": false, "length": 57.708, "source": 587988061, "target": 3884569931}, {"osmid": [966146166, 533472943], "oneway": true, "lanes": ["2", "1"], "name": "Robert F. Wagner Sr. Place", "highway": "secondary", "maxspeed": "25 mph", "reversed": false, "length": 154.243, "source": 587988061, "target": 4158749895}, {"osmid": 25562074, "oneway": true, "lanes": "1", "name": "Robert F. Wagner Sr. Place", "highway": "secondary", "maxspeed": "25 mph", "reversed": false, "length": 124.34, "source": 588455738, "target": 3884569924}, {"osmid": 5670189, "oneway": false, "name": "East Broadway", "highway": "secondary", "maxspeed": "25 mph", "reversed": true, "length": 14.383, "source": 588455742, "target": 1773060099}, {"osmid": 196116989, "oneway": true, "name": "Chatham Square", "highway": "primary", "maxspeed": "25 mph", "reversed": false, "length": 49.669, "source": 588455742, "target": 588455743}, {"osmid": 438901945, "name": "Oliver Street", "highway": "primary", "oneway": false, "reversed": true, "length": 14.985, "source": 588455743, "target": 1773055865}, {"osmid": 414751458, "name": "Oliver Street", "highway": "primary", "oneway": false, "reversed": false, "length": 26.015, "source": 588455743, "target": 4158807592}, {"osmid": [586350562, 453143511], "oneway": true, "lanes": ["2", "1"], "name": "Park Row", "highway": "residential", "maxspeed": "25 mph", "access": "no", "reversed": false, "length": 203.68500000000003, "source": 588455743, "target": 7476968854}, {"osmid": 46160083, "oneway": true, "lanes": "1", "highway": "secondary_link", "maxspeed": "25 mph", "reversed": false, "length": 71.689, "source": 588545728, "target": 4143875757}, {"osmid": 1158491835, "oneway": true, "lanes": "2", "name": "Park Row", "highway": "secondary", "maxspeed": "25 mph", "reversed": false, "length": 23.619, "source": 588545728, "target": 8262936586}, {"osmid": 46154330, "name": "Fulton Street", "highway": "residential", "maxspeed": "25 mph", "oneway": false, "reversed": false, "length": 73.72, "source": 673008453, "target": 4015192929}, {"osmid": [25564592, 526503345, 414749641], "oneway": true, "name": "Park Row", "highway": "unclassified", "maxspeed": "25 mph", "access": "no", "reversed": false, "length": 317.36800000000005, "tunnel": "yes", "lanes": "1", "source": 983501181, "target": 7476968854}, {"osmid": [122660458, 25564540, 959785458], "oneway": true, "lanes": ["2", "1"], "highway": "trunk_link", "maxspeed": "30 mph", "reversed": false, "length": 227.07100000000003, "bridge": "yes", "source": 1272562931, "target": 4158740807}, {"osmid": 46160098, "oneway": true, "name": "Spruce Street", "highway": "residential", "maxspeed": "25 mph", "reversed": false, "length": 13.781, "source": 1272562931, "target": 2821304145}, {"osmid": 847920086, "oneway": true, "lanes": "1", "name": "Ann Street", "highway": "residential", "maxspeed": "25 mph", "reversed": false, "length": 132.35000000000002, "source": 1538237248, "target": 1538237434}, {"osmid": 46116332, "oneway": true, "lanes": "1", "name": "Park Row", "highway": "residential", "maxspeed": "25 mph", "access": "no", "reversed": false, "length": 192.185, "source": 1773055865, "target": 7476968855}, {"osmid": 1135342273, "oneway": false, "lanes": "4", "name": "Worth Street", "highway": "residential", "maxspeed": "25 mph", "reversed": true, "length": 90.90899999999999, "source": 1773055865, "target": 7132405548}, {"osmid": 222299242, "oneway": true, "lanes": "3", "name": "Chatham Square", "highway": "primary", "maxspeed": "25 mph", "reversed": false, "length": 55.907, "source": 1773055865, "target": 1773060099}, {"osmid": 165775306, "oneway": true, "lanes": "3", "name": "Chatham Square", "highway": "primary", "maxspeed": "25 mph", "reversed": false, "length": 51.558, "source": 1773060097, "target": 1773060099}, {"osmid": [420355082, 496982789], "oneway": true, "lanes": "2", "name": "Bowery", "highway": "primary", "maxspeed": "25 mph", "reversed": false, "length": 74.88000000000001, "source": 1773060097, "target": 1773063787}, {"osmid": 850384623, "oneway": true, "name": "Division Street", "highway": "secondary", "reversed": false, "length": 15.508000000000001, "source": 1773060097, "target": 1773066054}, {"osmid": 196116978, "oneway": true, "lanes": "3", "name": "Broadway", "highway": "secondary", "maxspeed": "25 mph", "reversed": false, "length": 75.16199999999999, "source": 2821304136, "target": 2821304137}, {"osmid": 1061993519, "oneway": true, "lanes": "3", "name": "Broadway", "highway": "secondary", "maxspeed": "25 mph", "reversed": false, "length": 67.051, "source": 2821304137, "target": 2821304138}, {"osmid": [672746385, 413056164], "oneway": true, "lanes": "2", "name": "Park Row", "highway": "secondary", "maxspeed": "25 mph", "reversed": false, "length": 67.485, "source": 2821304143, "target": 4143875757}, {"osmid": 455501328, "oneway": true, "lanes": "3", "name": "Park Row", "highway": "secondary", "maxspeed": "25 mph", "reversed": false, "length": 89.08800000000001, "source": 2821304143, "target": 2821304145}, {"osmid": 420888147, "oneway": true, "lanes": "3", "name": "Park Row", "highway": "secondary", "maxspeed": "25 mph", "reversed": false, "length": 34.621, "source": 2821304145, "target": 2821304146}, {"osmid": 420888150, "oneway": true, "lanes": "2", "highway": "trunk_link", "maxspeed": "30 mph", "reversed": false, "length": 168.298, "source": 2821304146, "target": 4143876126}, {"osmid": [374421069, 1021525071], "oneway": true, "lanes": "1", "name": ["Cedar Street", "Washington Street"], "highway": "residential", "maxspeed": "25 mph", "reversed": false, "length": 151.775, "source": 3772840882, "target": 6417761624}, {"osmid": 496990645, "name": "Pearl Street", "highway": "primary", "maxspeed": "25 mph", "oneway": false, "reversed": false, "length": 17.302, "source": 3884569924, "target": 3884569931}, {"osmid": 1036714796, "oneway": true, "lanes": "1", "name": "Church Street", "highway": "residential", "maxspeed": "25 mph", "reversed": false, "length": 43.759, "source": 4143851142, "target": 4143851144}, {"osmid": [165774923, 586350564, 165774924], "oneway": true, "lanes": "1", "name": "Park Row", "highway": "unclassified", "maxspeed": "25 mph", "access": "no", "reversed": false, "length": 288.787, "tunnel": "yes", "source": 4143876126, "target": 7476968855}, {"osmid": 413727897, "oneway": true, "lanes": "1", "name": "Edgar Street", "highway": "residential", "maxspeed": "25 mph", "reversed": false, "length": 43.080000000000005, "source": 4149936235, "target": 4149936245}, {"osmid": 275016228, "oneway": false, "lanes": "4", "name": "Chambers Street", "highway": "unclassified", "maxspeed": "25 mph", "reversed": false, "length": 9.754, "source": 4878831008, "target": 9121386334}, {"osmid": 46116314, "oneway": true, "lanes": "2", "name": "Centre Street", "highway": "secondary", "maxspeed": "25 mph", "reversed": false, "length": 68.49199999999999, "source": 4878831008, "target": 9121386338}, {"osmid": 5670658, "oneway": true, "name": "Bayard Street", "highway": "residential", "maxspeed": "25 mph", "reversed": false, "length": 75.466, "source": 7132405535, "target": 7132405547}, {"osmid": 5672409, "oneway": true, "name": "Baxter Street", "highway": "residential", "maxspeed": "25 mph", "reversed": false, "length": 114.901, "source": 7132405537, "target": 7132405547}, {"osmid": 814841668, "name": "Pearl Street", "highway": "residential", "maxspeed": "25 mph", "oneway": false, "reversed": true, "length": 7.072, "source": 7476968854, "target": 7476968855}, {"osmid": 888759076, "oneway": true, "lanes": "1", "name": "Park Row", "highway": "secondary_link", "reversed": false, "length": 39.089, "source": 8262936580, "target": 8262936586}, {"osmid": 5672377, "oneway": true, "lanes": "3", "name": "Church Street", "highway": "secondary", "maxspeed": "25 mph", "reversed": false, "length": 64.898, "source": 8840333846, "target": 8840333851}]}