{"directed": false, "multigraph": false, "graph": {}, "nodes": [{"y": 37.7746045, "x": -122.4259102, "highway": "traffic_signals", "street_count": 4, "id": 65281164}, {"y": 37.7755395, "x": -122.4260983, "highway": "traffic_signals", "street_count": 4, "id": 65284974}, {"y": 37.7812848, "x": -122.4221964, "street_count": 3, "id": 65285109}, {"y": 37.784551, "x": -122.4228563, "highway": "traffic_signals", "street_count": 4, "id": 65287111}, {"y": 37.7854292, "x": -122.424719, "highway": "traffic_signals", "street_count": 4, "id": 65287128}, {"y": 37.7797961, "x": -122.4151521, "highway": "traffic_signals", "street_count": 3, "id": 65287201}, {"y": 37.7795846, "x": -122.4168136, "highway": "traffic_signals", "street_count": 3, "id": 65287204}, {"y": 37.7789593, "x": -122.4217245, "highway": "traffic_signals", "street_count": 3, "id": 65287209}, {"y": 37.7785401, "x": -122.4250171, "street_count": 3, "id": 65287213}, {"y": 37.7783324, "x": -122.426662, "highway": "traffic_signals", "street_count": 4, "id": 65287216}, {"y": 37.7728747, "x": -122.4203966, "street_count": 4, "id": 65288754}, {"y": 37.772375, "x": -122.4210424, "street_count": 3, "id": 65288759}, {"y": 37.7725274, "x": -122.4271742, "street_count": 4, "id": 65292690}, {"y": 37.7734668, "x": -122.4273638, "street_count": 4, "id": 65292692}, {"y": 37.7739324, "x": -122.4274578, "street_count": 4, "id": 65292693}, {"y": 37.7743958, "x": -122.4275514, "highway": "traffic_signals", "street_count": 4, "id": 65292695}, {"y": 37.7748632, "x": -122.4276457, "street_count": 4, "id": 65292697}, {"y": 37.7753305, "x": -122.42774, "highway": "traffic_signals", "street_count": 4, "id": 65292699}, {"y": 37.7757973, "x": -122.4278342, "street_count": 4, "id": 65292700}, {"y": 37.7762616, "x": -122.427928, "street_count": 4, "id": 65292701}, {"y": 37.7767271, "x": -122.428022, "street_count": 4, "id": 65292704}, {"y": 37.7771939, "x": -122.4281162, "street_count": 3, "id": 65292706}, {"y": 37.7758929, "x": -122.4151466, "street_count": 3, "id": 65297954}, {"y": 37.7746549, "x": -122.4135916, "street_count": 3, "id": 65297956}, {"y": 37.7810015, "x": -122.4131495, "highway": "traffic_signals", "street_count": 3, "id": 65303689}, {"y": 37.7747716, "x": -122.4208808, "street_count": 3, "id": 65304896}, {"y": 37.7745618, "x": -122.4225256, "street_count": 4, "id": 65304898}, {"y": 37.7743464, "x": -122.4242137, "street_count": 3, "id": 65304901}, {"y": 37.7741418, "x": -122.4258171, "street_count": 4, "id": 65304903}, {"y": 37.7738114, "x": -122.4284065, "street_count": 1, "id": 65304906}, {"y": 37.7762133, "x": -122.4116159, "highway": "traffic_signals", "street_count": 4, "id": 65306827}, {"y": 37.7749999, "x": -122.4131528, "highway": "traffic_signals", "street_count": 4, "id": 65306829}, {"y": 37.774516, "x": -122.413769, "street_count": 3, "id": 65306832}, {"y": 37.7743701, "x": -122.4139536, "street_count": 3, "id": 65306835}, {"y": 37.774043, "x": -122.414368, "highway": "traffic_signals", "street_count": 4, "id": 65306838}, {"y": 37.7730974, "x": -122.4155785, "highway": "traffic_signals", "street_count": 4, "id": 65306840}, {"y": 37.7724541, "x": -122.4163229, "street_count": 3, "id": 65306842}, {"y": 37.7756999, "x": -122.4164474, "street_count": 3, "id": 65306940}, {"y": 37.7752726, "x": -122.4169784, "street_count": 1, "id": 65306942}, {"y": 37.776714, "x": -122.4153262, "street_count": 3, "id": 65306956}, {"y": 37.7757638, "x": -122.4165267, "street_count": 3, "id": 65306958}, {"y": 37.7820804, "x": -122.4122382, "highway": "traffic_signals", "street_count": 4, "id": 65308264}, {"y": 37.7818704, "x": -122.4138822, "highway": "traffic_signals", "street_count": 4, "id": 65308268}, {"y": 37.7817657, "x": -122.4147017, "street_count": 3, "id": 65308270}, {"y": 37.7816602, "x": -122.4155274, "highway": "traffic_signals", "street_count": 4, "id": 65308272}, {"y": 37.7814508, "x": -122.4171732, "highway": "traffic_signals", "street_count": 4, "id": 65308278}, {"y": 37.7812425, "x": -122.4188105, "highway": "traffic_signals", "street_count": 4, "id": 65308283}, {"y": 37.781017, "x": -122.4205848, "highway": "traffic_signals", "street_count": 4, "id": 65308287}, {"y": 37.7808235, "x": -122.4221032, "highway": "traffic_signals", "street_count": 4, "id": 65308289}, {"y": 37.7754257, "x": -122.4194205, "street_count": 3, "id": 65310795}, {"y": 37.7752336, "x": -122.4209749, "highway": "traffic_signals", "street_count": 4, "id": 65310799}, {"y": 37.7748083, "x": -122.4243081, "street_count": 4, "id": 65310804}, {"y": 37.7731218, "x": -122.4144318, "street_count": 1, "id": 65312158}, {"y": 37.7726292, "x": -122.4149972, "street_count": 4, "id": 65312159}, {"y": 37.7730378, "x": -122.4187422, "highway": "traffic_signals", "street_count": 5, "id": 65315830}, {"y": 37.772303, "x": -122.419672, "street_count": 3, "id": 65315835}, {"y": 37.773773, "x": -122.4116275, "highway": "traffic_signals", "street_count": 4, "id": 65317568}, {"y": 37.773293, "x": -122.4122354, "street_count": 4, "id": 65317569}, {"y": 37.7728201, "x": -122.4128343, "highway": "traffic_signals", "street_count": 4, "id": 65317570}, {"y": 37.7731691, "x": -122.4207698, "street_count": 3, "id": 65317680}, {"y": 37.7855995, "x": -122.4146346, "highway": "traffic_signals", "street_count": 4, "id": 65317951}, {"y": 37.7853905, "x": -122.416281, "highway": "traffic_signals", "street_count": 4, "id": 65317954}, {"y": 37.7851818, "x": -122.4179243, "highway": "traffic_signals", "street_count": 4, "id": 65317956}, {"y": 37.7849729, "x": -122.4195701, "highway": "traffic_signals", "street_count": 4, "id": 65317957}, {"y": 37.7847494, "x": -122.4213272, "highway": "traffic_signals", "street_count": 4, "id": 65317959}, {"y": 37.7726665, "x": -122.4214242, "street_count": 4, "id": 65318338}, {"y": 37.77242, "x": -122.4217162, "street_count": 1, "id": 65318340}, {"y": 37.7727425, "x": -122.4255299, "street_count": 4, "id": 65318983}, {"y": 37.7732088, "x": -122.4256255, "street_count": 3, "id": 65318986}, {"y": 37.7736729, "x": -122.4257227, "street_count": 4, "id": 65318989}, {"y": 37.7760035, "x": -122.4261923, "street_count": 4, "id": 65318991}, {"y": 37.7764706, "x": -122.4262857, "street_count": 4, "id": 65318993}, {"y": 37.7769363, "x": -122.4263787, "street_count": 4, "id": 65318995}, {"y": 37.7774027, "x": -122.4264716, "street_count": 4, "id": 65318997}, {"y": 37.7778687, "x": -122.4265671, "street_count": 3, "id": 65318999}, {"y": 37.7792634, "x": -122.4268484, "street_count": 4, "id": 65319004}, {"y": 37.7825444, "x": -122.4275107, "street_count": 3, "id": 65319013}, {"y": 37.7829914, "x": -122.4276002, "street_count": 4, "id": 65319019}, {"y": 37.783926, "x": -122.4277887, "street_count": 3, "id": 65319021}, {"y": 37.7850444, "x": -122.4280145, "highway": "traffic_signals", "street_count": 4, "id": 65319023}, {"y": 37.7748526, "x": -122.4153843, "street_count": 3, "id": 65319555}, {"y": 37.7739012, "x": -122.4165917, "street_count": 4, "id": 65319565}, {"y": 37.7731402, "x": -122.4174744, "street_count": 3, "id": 65319567}, {"y": 37.7792164, "x": -122.4234665, "street_count": 3, "id": 65321017}, {"y": 37.777974, "x": -122.4181563, "street_count": 3, "id": 65324327}, {"y": 37.7777856, "x": -122.4197035, "street_count": 3, "id": 65324329}, {"y": 37.7775628, "x": -122.421445, "street_count": 3, "id": 65324337}, {"y": 37.7771452, "x": -122.4247381, "street_count": 4, "id": 65324341}, {"y": 37.7743254, "x": -122.4171256, "highway": "traffic_signals", "street_count": 5, "id": 65325009}, {"y": 37.7735327, "x": -122.4161272, "street_count": 4, "id": 65325013}, {"y": 37.7744848, "x": -122.4149212, "street_count": 3, "id": 65325208}, {"y": 37.7728161, "x": -122.4169304, "street_count": 4, "id": 65325211}, {"y": 37.7724596, "x": -122.4172534, "street_count": 1, "id": 65325213}, {"y": 37.7777508, "x": -122.4164247, "highway": "traffic_signals", "street_count": 4, "id": 65325363}, {"y": 37.7775161, "x": -122.4180638, "highway": "traffic_signals", "street_count": 4, "id": 65325366}, {"y": 37.7772914, "x": -122.4198155, "highway": "traffic_signals", "street_count": 4, "id": 65325369}, {"y": 37.7770933, "x": -122.421351, "highway": "traffic_signals", "street_count": 4, "id": 65325371}, {"y": 37.7773181, "x": -122.4148936, "street_count": 1, "id": 65326533}, {"y": 37.7767058, "x": -122.4141205, "street_count": 3, "id": 65326536}, {"y": 37.7802716, "x": -122.4186146, "highway": "traffic_signals", "street_count": 4, "id": 65327144}, {"y": 37.7821738, "x": -122.419005, "highway": "traffic_signals", "street_count": 4, "id": 65327150}, {"y": 37.7831061, "x": -122.4191918, "highway": "traffic_signals", "street_count": 4, "id": 65327151}, {"y": 37.7840364, "x": -122.4193813, "highway": "traffic_signals", "street_count": 4, "id": 65327154}, {"y": 37.7729445, "x": -122.4239308, "highway": "traffic_signals", "street_count": 4, "id": 65327903}, {"y": 37.7736273, "x": -122.4223162, "street_count": 4, "id": 65329071}, {"y": 37.7740963, "x": -122.4224133, "highway": "traffic_signals", "street_count": 4, "id": 65329076}, {"y": 37.7759583, "x": -122.4228096, "highway": "traffic_signals", "street_count": 4, "id": 65329079}, {"y": 37.7764217, "x": -122.4229027, "street_count": 4, "id": 65329081}, {"y": 37.7796841, "x": -122.4235632, "highway": "traffic_signals", "street_count": 4, "id": 65329089}, {"y": 37.782947, "x": -122.4242192, "highway": "traffic_signals", "street_count": 3, "id": 65329101}, {"y": 37.7834094, "x": -122.4243124, "highway": "traffic_signals", "street_count": 4, "id": 65329103}, {"y": 37.7848729, "x": -122.4128028, "highway": "traffic_signals", "street_count": 4, "id": 65333819}, {"y": 37.784664, "x": -122.4144458, "highway": "traffic_signals", "street_count": 4, "id": 65333826}, {"y": 37.7844547, "x": -122.4160916, "highway": "traffic_signals", "street_count": 4, "id": 65333831}, {"y": 37.7842457, "x": -122.4177356, "highway": "traffic_signals", "street_count": 4, "id": 65333834}, {"y": 37.7838112, "x": -122.4211432, "highway": "traffic_signals", "street_count": 4, "id": 65333837}, {"y": 37.7836174, "x": -122.4226652, "highway": "traffic_signals", "street_count": 4, "id": 65333839}, {"y": 37.7856832, "x": -122.4215126, "highway": "traffic_signals", "street_count": 4, "id": 65334139}, {"y": 37.7734125, "x": -122.4240247, "street_count": 3, "id": 65335648}, {"y": 37.785486, "x": -122.4230452, "highway": "traffic_signals", "street_count": 4, "id": 65338019}, {"y": 37.7850849, "x": -122.4264518, "street_count": 3, "id": 65338344}, {"y": 37.7762334, "x": -122.4147169, "highway": "traffic_signals", "street_count": 4, "id": 65339089}, {"y": 37.7756043, "x": -122.415511, "street_count": 3, "id": 65347696}, {"y": 37.7727899, "x": -122.4115952, "street_count": 1, "id": 65349622}, {"y": 37.7743016, "x": -122.4207867, "highway": "traffic_signals", "street_count": 3, "id": 65350736}, {"y": 37.7761674, "x": -122.4211652, "highway": "traffic_signals", "street_count": 4, "id": 65350740}, {"y": 37.7766304, "x": -122.4212581, "street_count": 3, "id": 65350743}, {"y": 37.7780292, "x": -122.4215383, "highway": "traffic_signals", "street_count": 4, "id": 65350745}, {"y": 37.779892, "x": -122.4219112, "highway": "traffic_signals", "street_count": 4, "id": 65350747}, {"y": 37.7817558, "x": -122.4222916, "highway": "traffic_signals", "street_count": 4, "id": 65350752}, {"y": 37.7826879, "x": -122.4224799, "highway": "traffic_signals", "street_count": 4, "id": 65350758}, {"y": 37.7850196, "x": -122.422951, "street_count": 3, "id": 65350760}, {"y": 37.7738766, "x": -122.4241178, "street_count": 4, "id": 65351420}, {"y": 37.7776111, "x": -122.4248309, "street_count": 4, "id": 65351431}, {"y": 37.7780777, "x": -122.424924, "street_count": 3, "id": 65351433}, {"y": 37.7752776, "x": -122.4159234, "highway": "traffic_signals", "street_count": 4, "id": 65351748}, {"y": 37.780933, "x": -122.4136932, "highway": "traffic_signals", "street_count": 3, "id": 65352325}, {"y": 37.7807264, "x": -122.4153391, "highway": "traffic_signals", "street_count": 4, "id": 65352330}, {"y": 37.7804986, "x": -122.4169901, "highway": "traffic_signals", "street_count": 4, "id": 65352337}, {"y": 37.7800808, "x": -122.4201696, "highway": "traffic_signals", "street_count": 4, "id": 65352339}, {"y": 37.7800782, "x": -122.4203796, "highway": "traffic_signals", "street_count": 4, "id": 65352344}, {"y": 37.7763662, "x": -122.4196128, "highway": "traffic_signals", "street_count": 4, "id": 65354072}, {"y": 37.7786767, "x": -122.4166194, "highway": "traffic_signals", "street_count": 4, "id": 65354417}, {"y": 37.7823844, "x": -122.41736, "highway": "traffic_signals", "street_count": 4, "id": 65354419}, {"y": 37.7833151, "x": -122.417548, "highway": "traffic_signals", "street_count": 4, "id": 65354421}, {"y": 37.772882, "x": -122.419835, "street_count": 1, "id": 65355481}, {"y": 37.7782356, "x": -122.4199975, "highway": "traffic_signals", "street_count": 4, "id": 65356392}, {"y": 37.781954, "x": -122.416889, "street_count": 1, "id": 65358113}, {"y": 37.782432, "x": -122.4169854, "street_count": 3, "id": 65358118}, {"y": 37.7788907, "x": -122.4149555, "street_count": 3, "id": 65360267}, {"y": 37.7825934, "x": -122.4157156, "highway": "traffic_signals", "street_count": 4, "id": 65360270}, {"y": 37.7835243, "x": -122.4159033, "highway": "traffic_signals", "street_count": 4, "id": 65360273}, {"y": 37.7828026, "x": -122.4140702, "highway": "traffic_signals", "street_count": 4, "id": 65362154}, {"y": 37.7837336, "x": -122.414258, "highway": "traffic_signals", "street_count": 4, "id": 65362158}, {"y": 37.7731799, "x": -122.4185725, "highway": "traffic_signals", "street_count": 5, "id": 65362987}, {"y": 37.7774549, "x": -122.4131749, "highway": "traffic_signals", "street_count": 4, "id": 65363166}, {"y": 37.7734806, "x": -122.4180455, "street_count": 3, "id": 65363174}, {"y": 37.7729612, "x": -122.4185329, "highway": "traffic_signals", "street_count": 4, "id": 65363176}, {"y": 37.7830115, "x": -122.4124265, "highway": "traffic_signals", "street_count": 4, "id": 65365830}, {"y": 37.7839425, "x": -122.4126147, "highway": "traffic_signals", "street_count": 4, "id": 65365832}, {"y": 37.7852131, "x": -122.4214265, "street_count": 3, "id": 65369279}, {"y": 37.7819502, "x": -122.4207593, "highway": "traffic_signals", "street_count": 4, "id": 65372918}, {"y": 37.7828825, "x": -122.4209508, "highway": "traffic_signals", "street_count": 4, "id": 65373722}, {"y": 37.7812955, "x": -122.4146092, "street_count": 1, "id": 65373970}, {"y": 37.7782851, "x": -122.4198076, "highway": "traffic_signals", "street_count": 4, "id": 258758038}, {"y": 37.7773172, "x": -122.419609, "highway": "traffic_signals", "street_count": 4, "id": 258758039}, {"y": 37.7763897, "x": -122.4194146, "highway": "traffic_signals", "street_count": 4, "id": 258758040}, {"y": 37.7847764, "x": -122.4211091, "highway": "traffic_signals", "street_count": 4, "id": 258758550}, {"y": 37.7857085, "x": -122.4212872, "highway": "traffic_signals", "street_count": 4, "id": 258758551}, {"y": 37.7829114, "x": -122.4207247, "highway": "traffic_signals", "street_count": 4, "id": 258758552}, {"y": 37.783842, "x": -122.4209082, "highway": "traffic_signals", "street_count": 4, "id": 258758553}, {"y": 37.7810458, "x": -122.4203517, "highway": "traffic_signals", "street_count": 4, "id": 258758554}, {"y": 37.7819733, "x": -122.4205488, "highway": "traffic_signals", "street_count": 4, "id": 258758555}, {"y": 37.7848852, "x": -122.4279822, "highway": "traffic_signals", "street_count": 4, "id": 258759674}, {"y": 37.7728419, "x": -122.4186311, "highway": "traffic_signals", "street_count": 4, "id": 260118044}, {"y": 37.7748208, "x": -122.4242103, "highway": "traffic_signals", "street_count": 4, "id": 267455444}, {"y": 37.7738888, "x": -122.4240219, "highway": "traffic_signals", "street_count": 3, "id": 267455446}, {"y": 37.772957, "x": -122.423832, "highway": "traffic_signals", "street_count": 4, "id": 267455448}, {"y": 37.7729706, "x": -122.423724, "highway": "traffic_signals", "street_count": 4, "id": 267455480}, {"y": 37.7739028, "x": -122.4239116, "highway": "traffic_signals", "street_count": 3, "id": 267455482}, {"y": 37.7852826, "x": -122.4246895, "highway": "traffic_signals", "street_count": 4, "id": 267456161}, {"y": 37.7792647, "x": -122.42308, "street_count": 1, "id": 267456289}, {"y": 37.7820615, "x": -122.4274127, "highway": "traffic_signals", "street_count": 4, "id": 276546818}, {"y": 37.782479, "x": -122.424125, "highway": "traffic_signals", "street_count": 4, "id": 276546819}, {"y": 37.7815469, "x": -122.4239348, "highway": "traffic_signals", "street_count": 4, "id": 276546820}, {"y": 37.7811296, "x": -122.4272248, "highway": "traffic_signals", "street_count": 4, "id": 276546821}, {"y": 37.7776774, "x": -122.4169584, "street_count": 3, "id": 295811049}, {"y": 37.7743852, "x": -122.4239095, "street_count": 3, "id": 298082883}, {"y": 37.7748472, "x": -122.4240024, "street_count": 4, "id": 298082885}, {"y": 37.7757823, "x": -122.4241904, "street_count": 4, "id": 298082887}, {"y": 37.7729829, "x": -122.4236266, "highway": "traffic_signals", "street_count": 4, "id": 298082943}, {"y": 37.7734511, "x": -122.4237212, "street_count": 3, "id": 298082944}, {"y": 37.7757628, "x": -122.4243439, "highway": "traffic_signals", "street_count": 4, "id": 307638472}, {"y": 37.7726167, "x": -122.4214855, "street_count": 4, "id": 448104973}, {"y": 37.7752741, "x": -122.4244018, "street_count": 3, "id": 601217513}, {"y": 37.7750597, "x": -122.4260018, "street_count": 4, "id": 601217544}, {"y": 37.7739151, "x": -122.423815, "street_count": 4, "id": 1018617264}, {"y": 37.7829621, "x": -122.4241011, "street_count": 1, "id": 1127285904}, {"y": 37.7755496, "x": -122.4186749, "street_count": 3, "id": 1723738832}, {"y": 37.7743388, "x": -122.4202383, "highway": "traffic_signals", "street_count": 4, "id": 1723738835}, {"y": 37.7723984, "x": -122.422636, "highway": "traffic_signals", "street_count": 5, "id": 1723738842}, {"y": 37.7730339, "x": -122.4218724, "highway": "traffic_signals", "street_count": 4, "id": 1723738852}, {"y": 37.7736501, "x": -122.4213355, "street_count": 3, "id": 1723738880}, {"y": 37.7804885, "x": -122.4125281, "highway": "traffic_signals", "street_count": 4, "id": 1723738966}, {"y": 37.7725989, "x": -122.42266, "highway": "traffic_signals", "street_count": 3, "id": 1723738980}, {"y": 37.772957, "x": -122.4222274, "highway": "traffic_signals", "street_count": 3, "id": 1723739068}, {"y": 37.7741283, "x": -122.4207337, "highway": "traffic_signals", "street_count": 4, "id": 1723739120}, {"y": 37.77502, "x": -122.4193403, "street_count": 4, "id": 1723739149}, {"y": 37.773721, "x": -122.4212458, "street_count": 3, "id": 1723739176}, {"y": 37.7729613, "x": -122.4219198, "highway": "traffic_signals", "street_count": 4, "id": 1723739183}, {"y": 37.7735371, "x": -122.4212375, "street_count": 3, "id": 1723739199}, {"y": 37.7787205, "x": -122.4147639, "highway": "traffic_signals", "street_count": 4, "id": 1723739366}, {"y": 37.7730868, "x": -122.4220699, "highway": "traffic_signals", "street_count": 5, "id": 1723739367}, {"y": 37.7751635, "x": -122.4191759, "street_count": 4, "id": 1723739386}, {"y": 37.7801962, "x": -122.4270365, "highway": "traffic_signals", "street_count": 4, "id": 2351399563}, {"y": 37.7815758, "x": -122.4273148, "street_count": 3, "id": 2496389906}, {"y": 37.7766783, "x": -122.4246457, "street_count": 3, "id": 2568380114}, {"y": 37.7757434, "x": -122.4244963, "street_count": 4, "id": 2568380120}, {"y": 37.7748348, "x": -122.4240999, "highway": "traffic_signals", "street_count": 4, "id": 2763295990}, {"y": 37.7724921, "x": -122.4188648, "street_count": 3, "id": 3386704350}, {"y": 37.7723987, "x": -122.4184981, "street_count": 3, "id": 3386704351}, {"y": 37.7854119, "x": -122.4244656, "street_count": 3, "id": 4013421806}, {"y": 37.7765059, "x": -122.4174506, "street_count": 4, "id": 4061762656}, {"y": 37.7775451, "x": -122.416362, "highway": "traffic_signals", "street_count": 3, "id": 4061762661}, {"y": 37.7805274, "x": -122.4125763, "highway": "traffic_signals", "street_count": 2, "id": 4061806118}, {"y": 37.7777858, "x": -122.4160829, "street_count": 1, "id": 4061806120}, {"y": 37.775306, "x": -122.4192068, "street_count": 3, "id": 4165593360}, {"y": 37.7784902, "x": -122.4182535, "highway": "traffic_signals", "street_count": 4, "id": 4720933147}, {"y": 37.7751793, "x": -122.4193725, "street_count": 4, "id": 4967499780}, {"y": 37.7765273, "x": -122.4175448, "street_count": 4, "id": 4998861436}, {"y": 37.7765532, "x": -122.4175125, "street_count": 4, "id": 4998861437}, {"y": 37.7774985, "x": -122.4163079, "highway": "traffic_signals", "street_count": 4, "id": 5012209349}, {"y": 37.7731664, "x": -122.4221646, "highway": "traffic_signals", "street_count": 4, "id": 5277057885}, {"y": 37.7731536, "x": -122.4222655, "highway": "traffic_signals", "street_count": 4, "id": 5277057886}, {"y": 37.7732411, "x": -122.42225, "highway": "crossing", "street_count": 3, "id": 5277057887}, {"y": 37.7732228, "x": -122.421895, "highway": "crossing", "street_count": 3, "id": 5277057888}, {"y": 37.7750233, "x": -122.4226178, "highway": "traffic_signals", "street_count": 4, "id": 5352469988}, {"y": 37.7768892, "x": -122.4229968, "highway": "traffic_signals", "street_count": 4, "id": 5352469999}, {"y": 37.777355, "x": -122.4230904, "street_count": 4, "id": 5352470000}, {"y": 37.7778191, "x": -122.4231817, "highway": "traffic_signals", "street_count": 4, "id": 5352470004}, {"y": 37.7787484, "x": -122.4233714, "highway": "traffic_signals", "street_count": 4, "id": 5352470007}, {"y": 37.7806142, "x": -122.4237488, "highway": "traffic_signals", "street_count": 4, "id": 5352470014}, {"y": 37.7810758, "x": -122.4238421, "street_count": 3, "id": 5352470018}, {"y": 37.7750925, "x": -122.4193577, "street_count": 4, "id": 5858516712}, {"y": 37.775225, "x": -122.4191906, "street_count": 4, "id": 5858516713}, {"y": 37.7804427, "x": -122.4125861, "highway": "traffic_signals", "street_count": 4, "id": 6386250944}, {"y": 37.7804814, "x": -122.4126354, "highway": "traffic_signals", "street_count": 1, "id": 6386250947}, {"y": 37.7801611, "x": -122.4121241, "street_count": 3, "id": 6386250949}, {"y": 37.7729943, "x": -122.4219563, "highway": "traffic_signals", "street_count": 4, "id": 6386806910}, {"y": 37.7733865, "x": -122.4214272, "street_count": 3, "id": 6454317981}, {"y": 37.7724532, "x": -122.4132978, "street_count": 3, "id": 9684849383}, {"y": 37.7727796, "x": -122.4127831, "street_count": 3, "id": 9684849385}, {"y": 37.7750974, "x": -122.4192541, "street_count": 4, "id": 9691587709}, {"y": 37.7751599, "x": -122.4192713, "street_count": 4, "id": 9691587710}, {"y": 37.7752408, "x": -122.4192928, "street_count": 4, "id": 9691587711}, {"y": 37.7763811, "x": -122.419481, "street_count": 4, "id": 9691587715}, {"y": 37.7773094, "x": -122.4196661, "street_count": 4, "id": 9691602619}, {"y": 37.7782664, "x": -122.419874, "street_count": 4, "id": 9691602623}, {"y": 37.780079, "x": -122.4202606, "street_count": 4, "id": 9691602628}, {"y": 37.7805275, "x": -122.420346, "street_count": 3, "id": 9691602630}, {"y": 37.7810384, "x": -122.4204282, "street_count": 4, "id": 9691602632}, {"y": 37.7819665, "x": -122.4206192, "street_count": 4, "id": 9691602635}, {"y": 37.7828968, "x": -122.420837, "street_count": 4, "id": 9691602638}, {"y": 37.7832826, "x": -122.4209085, "street_count": 3, "id": 9691602640}, {"y": 37.7838339, "x": -122.4209857, "street_count": 4, "id": 9691602642}, {"y": 37.7847642, "x": -122.4212116, "street_count": 5, "id": 9691602646}, {"y": 37.7856961, "x": -122.421393, "street_count": 5, "id": 9691602649}, {"y": 37.7838238, "x": -122.4210519, "street_count": 4, "id": 9691602755}, {"y": 37.7825537, "x": -122.4207803, "street_count": 3, "id": 9691602758}, {"y": 37.7819579, "x": -122.4206894, "street_count": 4, "id": 9691602764}, {"y": 37.7810278, "x": -122.420501, "street_count": 4, "id": 9691602767}, {"y": 37.779704, "x": -122.4201902, "street_count": 3, "id": 9691602770}, {"y": 37.7756741, "x": -122.4193874, "street_count": 3, "id": 9691602772}, {"y": 37.7782533, "x": -122.419926, "street_count": 4, "id": 9691602779}, {"y": 37.7772996, "x": -122.4197525, "street_count": 4, "id": 9691602783}, {"y": 37.7763724, "x": -122.4195534, "street_count": 4, "id": 9691602786}, {"y": 37.7733676, "x": -122.418718, "street_count": 3, "id": 9691602789}, {"y": 37.773516, "x": -122.4188738, "street_count": 3, "id": 9992295989}], "links": [{"osmid": 44670366, "name": "Laguna Street", "highway": "residential", "oneway": false, "reversed": true, "length": 51.252, "source": 65281164, "target": 601217544}, {"osmid": 44670366, "name": "Laguna Street", "highway": "residential", "oneway": false, "reversed": false, "length": 52.097, "source": 65281164, "target": 65304903}, {"osmid": 1075427349, "oneway": true, "lanes": "3", "name": "Oak Street", "highway": "primary", "maxspeed": "30 mph", "reversed": false, "length": 142.623, "source": 65281164, "target": 65310804}, {"osmid": 706551788, "oneway": true, "lanes": "3", "name": "Oak Street", "highway": "primary", "maxspeed": "30 mph", "reversed": false, "length": 146.103, "source": 65281164, "target": 65292695}, {"osmid": 44670366, "name": "Laguna Street", "highway": "residential", "oneway": false, "reversed": true, "length": 52.252, "source": 65284974, "target": 65318991}, {"osmid": 44670366, "name": "Laguna Street", "highway": "residential", "oneway": false, "reversed": false, "length": 54.021, "source": 65284974, "target": 601217544}, {"osmid": 204965468, "oneway": true, "lanes": "3", "name": "Fell Street", "highway": "primary", "maxspeed": "30 mph", "reversed": false, "length": 146.149, "source": 65284974, "target": 65292699}, {"osmid": 204965468, "oneway": true, "lanes": "3", "name": "Fell Street", "highway": "primary", "maxspeed": "30 mph", "reversed": false, "length": 142.61499999999998, "source": 65284974, "target": 2568380120}, {"osmid": 8922902, "oneway": true, "name": "Elm Street", "highway": "residential", "reversed": false, "length": 146.48499999999999, "source": 65285109, "target": 5352470018}, {"osmid": 225806029, "oneway": true, "lanes": "4", "name": "Franklin Street", "highway": "secondary", "maxspeed": "25 mph", "reversed": false, "length": 53.037, "source": 65285109, "target": 65350752}, {"osmid": 225806029, "oneway": true, "lanes": "4", "name": "Franklin Street", "highway": "secondary", "maxspeed": "25 mph", "reversed": false, "length": 51.944, "source": 65285109, "target": 65308289}, {"osmid": [24603704, 766798670], "oneway": true, "lanes": "2", "name": "O'Farrell Street", "highway": "primary", "reversed": false, "length": 136.176, "source": 65287111, "target": 65317959}, {"osmid": 761313525, "oneway": true, "lanes": "3", "name": "Franklin Street", "highway": "secondary", "maxspeed": "25 mph", "reversed": false, "length": 52.766000000000005, "source": 65287111, "target": 65350760}, {"osmid": 761313525, "oneway": true, "lanes": "3", "name": "Franklin Street", "highway": "secondary", "maxspeed": "25 mph", "reversed": false, "length": 105.163, "source": 65287111, "target": 65333839}, {"osmid": [483197411, 8915750, 1120053130, 513875408, 513875409], "oneway": true, "lanes": "3", "name": "Starr King Way", "highway": "primary", "reversed": false, "length": 188.96599999999998, "maxspeed": "25 mph", "source": 65287111, "target": 267456161}, {"osmid": 514491586, "oneway": true, "lanes": "3", "name": "Gough Street", "highway": "secondary", "maxspeed": "25 mph", "reversed": false, "length": 16.506, "source": 65287128, "target": 267456161}, {"osmid": [1050281169, 84654229], "oneway": true, "lanes": "3", "name": "Geary Boulevard", "highway": "primary", "maxspeed": "25 mph", "reversed": false, "length": 292.906, "source": 65287128, "target": 65319023}, {"osmid": 483197410, "oneway": true, "lanes": "3", "name": "Geary Boulevard", "highway": "primary", "maxspeed": "35 mph", "reversed": false, "length": 22.363999999999997, "source": 65287128, "target": 4013421806}, {"osmid": [254759933, 1083936405], "oneway": true, "lanes": "3", "name": "Hyde Street", "highway": "tertiary", "maxspeed": "20 mph", "reversed": false, "length": 102.32600000000001, "source": 65287201, "target": 65360267}, {"osmid": [563926240, 563926242, 33789581], "oneway": true, "name": "Fulton Street", "highway": "residential", "reversed": false, "length": 153.20600000000002, "source": 65287201, "target": 65287204}, {"osmid": [254759933, 1136702061], "oneway": true, "lanes": ["4", "3"], "name": "Hyde Street", "highway": "tertiary", "maxspeed": "20 mph", "reversed": false, "length": 104.742, "source": 65287201, "target": 65352330}, {"osmid": 26988030, "lanes": "3", "name": "Larkin Street", "highway": "secondary", "maxspeed": "20 mph", "oneway": false, "reversed": true, "length": 102.83300000000001, "source": 65287204, "target": 65352337}, {"osmid": 26988030, "lanes": "3", "name": "Larkin Street", "highway": "secondary", "maxspeed": "20 mph", "oneway": false, "reversed": false, "length": 102.388, "source": 65287204, "target": 65354417}, {"osmid": 8915796, "lanes": "2", "name": "Fulton Street", "highway": "tertiary", "oneway": false, "reversed": true, "length": 146.627, "source": 65287209, "target": 5352470007}, {"osmid": 154648296, "oneway": true, "lanes": "3", "name": "Franklin Street", "highway": "secondary", "maxspeed": "25 mph", "reversed": false, "length": 105.00200000000001, "source": 65287209, "target": 65350747}, {"osmid": 154648296, "oneway": true, "lanes": "3", "name": "Franklin Street", "highway": "secondary", "maxspeed": "25 mph", "reversed": false, "length": 104.71000000000001, "source": 65287209, "target": 65350745}, {"osmid": 8915796, "lanes": "2", "name": "Fulton Street", "highway": "tertiary", "oneway": false, "reversed": false, "length": 146.478, "source": 65287213, "target": 5352470007}, {"osmid": 27167935, "name": "Octavia Street", "highway": "residential", "oneway": false, "reversed": true, "length": 52.06400000000001, "source": 65287213, "target": 65351433}, {"osmid": 133781708, "name": "Fulton Street", "highway": "tertiary", "oneway": false, "reversed": false, "length": 146.399, "source": 65287213, "target": 65287216}, {"osmid": 133781732, "name": "Laguna Street", "highway": "residential", "oneway": false, "reversed": true, "length": 104.81199999999998, "source": 65287216, "target": 65319004}, {"osmid": 225853138, "name": "Laguna Street", "highway": "residential", "oneway": false, "reversed": false, "length": 52.231, "source": 65287216, "target": 65318999}, {"osmid": 8915986, "oneway": true, "name": "Colton Street", "highway": "residential", "reversed": false, "length": 79.431, "source": 65288754, "target": 65288759}, {"osmid": 1116503323, "name": "Brady Street", "highway": "residential", "oneway": false, "reversed": true, "length": 89.985, "source": 65288754, "target": 65315835}, {"osmid": [1116503322, 8920411, 8922342], "name": ["Colusa Place", "Colton Street", "Chase Court"], "highway": "residential", "oneway": false, "reversed": [false, true], "length": 126.562, "source": 65288754, "target": 65355481}, {"osmid": 1200750410, "name": "Brady Street", "highway": "residential", "oneway": false, "reversed": false, "length": 46.346, "source": 65288754, "target": 65317680}, {"osmid": 8918406, "oneway": true, "lanes": "1", "name": "Gough Street", "highway": "tertiary", "reversed": false, "length": 46.656, "source": 65288759, "target": 65318338}, {"osmid": 44670365, "name": "Haight Street", "highway": "residential", "oneway": false, "reversed": false, "length": 146.491, "source": 65292690, "target": 65318983}, {"osmid": 254759912, "name": "Buchanan Street", "highway": "residential", "oneway": false, "reversed": true, "length": 105.777, "source": 65292690, "target": 65292692}, {"osmid": 44670368, "oneway": false, "name": "Page Street", "highway": "residential", "access": "destination", "reversed": false, "length": 146.05, "source": 65292692, "target": 65318989}, {"osmid": 254759912, "name": "Buchanan Street", "highway": "residential", "oneway": false, "reversed": true, "length": 52.427, "source": 65292692, "target": 65292693}, {"osmid": 47161085, "oneway": true, "name": "Lily Street", "highway": "residential", "reversed": false, "length": 146.073, "source": 65292693, "target": 65304903}, {"osmid": 47161086, "name": "Lily Street", "highway": "residential", "oneway": false, "reversed": true, "length": 84.46199999999999, "source": 65292693, "target": 65304906}, {"osmid": 254759912, "name": "Buchanan Street", "highway": "residential", "oneway": false, "reversed": true, "length": 52.18000000000001, "source": 65292693, "target": 65292695}, {"osmid": 254759912, "name": "Buchanan Street", "highway": "residential", "oneway": false, "reversed": true, "length": 52.629, "source": 65292695, "target": 65292697}, {"osmid": 27553863, "oneway": true, "name": "Hickory Street", "highway": "residential", "reversed": false, "length": 146.384, "source": 65292697, "target": 601217544}, {"osmid": 254759912, "name": "Buchanan Street", "highway": "residential", "oneway": false, "reversed": true, "length": 52.620000000000005, "source": 65292697, "target": 65292699}, {"osmid": 254759912, "name": "Buchanan Street", "highway": "residential", "oneway": false, "reversed": true, "length": 52.564, "source": 65292699, "target": 65292700}, {"osmid": 47160824, "name": "Linden Street", "highway": "residential", "oneway": false, "reversed": false, "length": 146.117, "source": 65292700, "target": 65318991}, {"osmid": 254759912, "name": "Buchanan Street", "highway": "residential", "oneway": false, "reversed": true, "length": 52.282999999999994, "source": 65292700, "target": 65292701}, {"osmid": 225853136, "name": "Hayes Street", "highway": "residential", "oneway": false, "reversed": false, "length": 146.199, "source": 65292701, "target": 65318993}, {"osmid": 254759911, "name": "Buchanan Street", "highway": "residential", "oneway": false, "reversed": true, "length": 52.416000000000004, "source": 65292701, "target": 65292704}, {"osmid": 254759911, "name": "Buchanan Street", "highway": "residential", "oneway": false, "reversed": true, "length": 52.562, "source": 65292704, "target": 65292706}, {"osmid": 8917757, "oneway": true, "name": "Ivy Street", "highway": "residential", "reversed": false, "length": 146.289, "source": 65292704, "target": 65318995}, {"osmid": 468441207, "name": "Grove Street", "highway": "residential", "oneway": false, "reversed": true, "length": 146.394, "source": 65292706, "target": 65318997}, {"osmid": 1020490223, "lanes": "4", "name": "Mission Street", "highway": "secondary", "oneway": false, "reversed": true, "length": 45.338, "source": 65297954, "target": 65347696}, {"osmid": [8916498, 706531725], "oneway": true, "name": "Washburn Street", "highway": "residential", "reversed": false, "length": 193.982, "source": 65297954, "target": 65297956}, {"osmid": 88572874, "lanes": "4", "name": "Mission Street", "highway": "secondary", "oneway": false, "reversed": false, "length": 53.477000000000004, "source": 65297954, "target": 65339089}, {"osmid": 91181768, "oneway": true, "lanes": "3", "name": "Howard Street", "highway": "secondary", "maxspeed": "25 mph", "reversed": false, "length": 21.947, "source": 65297956, "target": 65306832}, {"osmid": 91181768, "oneway": true, "lanes": "3", "name": "Howard Street", "highway": "secondary", "maxspeed": "25 mph", "reversed": false, "length": 54.397, "source": 65297956, "target": 65306829}, {"osmid": 35973460, "oneway": false, "lanes": "3", "name": "Charles J. Brenham Place", "highway": "secondary", "reversed": false, "length": 72.92099999999999, "source": 65303689, "target": 4061806118}, {"osmid": [417087458, 263855294], "oneway": false, "lanes": "3", "name": "McAllister Street", "highway": "secondary", "reversed": true, "length": 48.386, "maxspeed": "20 mph", "source": 65303689, "target": 65352325}, {"osmid": [680955161, 254759942, 399193687], "lanes": "2", "name": ["Jones Street", "McAllister Street"], "highway": "tertiary", "maxspeed": "20 mph", "oneway": false, "reversed": false, "length": 201.43200000000002, "source": 65303689, "target": 65308264}, {"osmid": 154647382, "oneway": true, "lanes": "3", "name": "Franklin Street", "highway": "secondary", "maxspeed": "25 mph", "reversed": false, "length": 52.034, "source": 65304896, "target": 65310799}, {"osmid": 8916826, "oneway": true, "name": "Lily Street", "highway": "residential", "reversed": false, "length": 146.434, "source": 65304896, "target": 65304898}, {"osmid": 154647382, "oneway": true, "lanes": "3", "name": "Franklin Street", "highway": "secondary", "maxspeed": "25 mph", "reversed": false, "length": 52.912000000000006, "source": 65304896, "target": 65350736}, {"osmid": 398681181, "oneway": true, "lanes": "4", "name": "Gough Street", "highway": "secondary", "maxspeed": "25 mph", "reversed": false, "length": 52.695, "source": 65304898, "target": 65329076}, {"osmid": 8916826, "oneway": true, "name": "Lily Street", "highway": "residential", "reversed": false, "length": 123.209, "source": 65304898, "target": 298082883}, {"osmid": 398681181, "oneway": true, "lanes": "4", "name": "Gough Street", "highway": "secondary", "maxspeed": "25 mph", "reversed": false, "length": 51.952, "source": 65304898, "target": 5352469988}, {"osmid": 27167899, "oneway": true, "name": "Lily Street", "highway": "residential", "reversed": false, "length": 142.751, "source": 65304901, "target": 65304903}, {"osmid": 133781772, "oneway": true, "name": "Octavia Street", "highway": "residential", "maxspeed": "15 mph", "reversed": false, "length": 52.915, "source": 65304901, "target": 65351420}, {"osmid": 133781772, "oneway": true, "name": "Octavia Street", "highway": "residential", "maxspeed": "15 mph", "reversed": false, "length": 52.027, "source": 65304901, "target": 65310804}, {"osmid": 44670366, "name": "Laguna Street", "highway": "residential", "oneway": false, "reversed": false, "length": 52.795, "source": 65304903, "target": 65318989}, {"osmid": [417087368, 91181771], "oneway": true, "lanes": ["4", "3"], "name": "Howard Street", "highway": "secondary", "maxspeed": "25 mph", "reversed": false, "length": 190.923, "source": 65306827, "target": 65306829}, {"osmid": [417087312, 1112220490, 417087300, 1112220493], "oneway": true, "lanes": ["4", "3"], "name": "8th Street", "highway": "secondary", "maxspeed": "30 mph", "reversed": false, "length": 194.511, "source": 65306827, "target": 65363166}, {"osmid": 91181769, "oneway": true, "lanes": "4", "name": "9th Street", "highway": "secondary", "maxspeed": "25 mph", "reversed": false, "length": 194.192, "source": 65306829, "target": 65339089}, {"osmid": 706531723, "oneway": true, "lanes": "4", "name": "9th Street", "highway": "secondary", "maxspeed": "25 mph", "reversed": false, "length": 191.272, "source": 65306829, "target": 65317568}, {"osmid": 91181768, "oneway": true, "lanes": "3", "name": "Howard Street", "highway": "secondary", "maxspeed": "25 mph", "reversed": false, "length": 22.944, "source": 65306832, "target": 65306835}, {"osmid": 8919948, "name": "Dore Street", "highway": "residential", "oneway": false, "reversed": true, "length": 191.47500000000002, "source": 65306832, "target": 65317569}, {"osmid": 91181768, "oneway": true, "lanes": "3", "name": "Howard Street", "highway": "secondary", "maxspeed": "25 mph", "reversed": false, "length": 51.473, "source": 65306835, "target": 65306838}, {"osmid": [8919794, 706531724], "oneway": true, "name": "Grace Street", "highway": "residential", "reversed": false, "length": 193.83200000000002, "source": 65306835, "target": 65347696}, {"osmid": 27029265, "oneway": true, "lanes": "4", "name": "10th Street", "highway": "secondary", "maxspeed": "25 mph", "reversed": false, "length": 191.473, "source": 65306838, "target": 65317570}, {"osmid": [133781720, 1123738962, 1123738963], "oneway": true, "lanes": ["2", "4"], "name": "Howard Street", "highway": "secondary", "maxspeed": "25 mph", "reversed": false, "length": 149.584, "source": 65306838, "target": 65306840}, {"osmid": 27029264, "oneway": true, "lanes": "4", "name": "10th Street", "highway": "secondary", "maxspeed": "25 mph", "reversed": false, "length": 69.119, "source": 65306838, "target": 65325208}, {"osmid": 24335439, "lanes": "2", "name": "11th Street", "highway": "tertiary", "oneway": false, "reversed": true, "length": 68.328, "source": 65306840, "target": 65325013}, {"osmid": 24335440, "name": "11th Street", "highway": "tertiary", "oneway": false, "reversed": true, "length": 72.944, "source": 65306840, "target": 65312159}, {"osmid": [417087388, 417087379, 24310636], "lanes": "3", "name": "Howard Street", "highway": "secondary", "maxspeed": "25 mph", "oneway": false, "reversed": true, "length": 97.07999999999998, "source": 65306840, "target": 65306842}, {"osmid": 8921849, "oneway": true, "name": "Lafayette Street", "highway": "residential", "reversed": false, "length": 66.868, "source": 65306842, "target": 65325211}, {"osmid": 8916930, "lanes": "2", "name": "Jessie Street", "highway": "residential", "oneway": false, "reversed": true, "length": 66.6, "source": 65306940, "target": 65306942}, {"osmid": 933908414, "oneway": true, "lanes": "4", "name": "10th Street", "highway": "secondary", "maxspeed": "25 mph", "reversed": false, "length": 65.773, "source": 65306940, "target": 65351748}, {"osmid": 543843588, "oneway": true, "lanes": "4", "name": "10th Street", "highway": "secondary", "maxspeed": "25 mph", "reversed": false, "length": 9.953, "source": 65306940, "target": 65306958}, {"osmid": [619568403, 530038011, 88572943], "oneway": true, "lanes": "4", "name": "9th Street", "highway": "secondary", "maxspeed": "25 mph", "reversed": false, "length": 122.707, "source": 65306956, "target": 5012209349}, {"osmid": 8916932, "oneway": true, "name": "Jessie Street", "highway": "residential", "reversed": false, "length": 149.319, "source": 65306956, "target": 65306958}, {"osmid": 88572943, "oneway": true, "lanes": "4", "name": "9th Street", "highway": "secondary", "maxspeed": "25 mph", "reversed": false, "length": 75.654, "source": 65306956, "target": 65339089}, {"osmid": 543843588, "oneway": true, "lanes": "4", "name": "10th Street", "highway": "secondary", "maxspeed": "25 mph", "reversed": false, "length": 115.79400000000001, "source": 65306958, "target": 4061762656}, {"osmid": [921631726, 473325695], "oneway": true, "lanes": ["2", "3"], "name": "Golden Gate Avenue", "highway": "secondary", "maxspeed": "20 mph", "reversed": false, "length": 146.356, "source": 65308264, "target": 65308268}, {"osmid": 397151342, "oneway": true, "lanes": "2", "name": "Jones Street", "highway": "secondary", "maxspeed": "20 mph", "reversed": false, "length": 104.84799999999998, "source": 65308264, "target": 65365830}, {"osmid": 921631727, "oneway": true, "lanes": "2", "name": "Leavenworth Street", "highway": "secondary", "maxspeed": "20 mph", "reversed": false, "length": 104.964, "source": 65308268, "target": 65362154}, {"osmid": 473325694, "oneway": true, "lanes": "2", "name": "Golden Gate Avenue", "highway": "secondary", "maxspeed": "20 mph", "reversed": false, "length": 72.955, "source": 65308268, "target": 65308270}, {"osmid": 8920975, "oneway": true, "lanes": "2", "name": "Leavenworth Street", "highway": "secondary", "maxspeed": "20 mph", "reversed": false, "length": 105.54899999999999, "source": 65308268, "target": 65352325}, {"osmid": 8922396, "name": "Dale Place", "highway": "residential", "access": "no", "oneway": false, "reversed": false, "length": 52.912, "source": 65308270, "target": 65373970}, {"osmid": 473325694, "oneway": true, "lanes": "2", "name": "Golden Gate Avenue", "highway": "secondary", "maxspeed": "20 mph", "reversed": false, "length": 73.507, "source": 65308270, "target": 65308272}, {"osmid": 473325693, "oneway": true, "lanes": "3", "name": "Hyde Street", "highway": "tertiary", "maxspeed": "20 mph", "reversed": false, "length": 105.145, "source": 65308272, "target": 65352330}, {"osmid": [254759928, 473325692], "oneway": true, "lanes": "2", "name": "Golden Gate Avenue", "highway": "secondary", "maxspeed": "20 mph", "reversed": false, "length": 146.501, "source": 65308272, "target": 65308278}, {"osmid": 686250333, "oneway": true, "lanes": "3", "name": "Hyde Street", "highway": "tertiary", "maxspeed": "20 mph", "reversed": false, "length": 105.07700000000001, "source": 65308272, "target": 65360270}, {"osmid": 254759936, "oneway": true, "lanes": "3", "name": "Larkin Street", "highway": "secondary", "maxspeed": "20 mph", "reversed": false, "length": 105.101, "source": 65308278, "target": 65354419}, {"osmid": 446233235, "oneway": true, "lanes": "2", "name": "Golden Gate Avenue", "highway": "secondary", "maxspeed": "20 mph", "reversed": false, "length": 145.744, "source": 65308278, "target": 65308283}, {"osmid": [399138123, 27167302], "oneway": true, "lanes": "3", "name": "Larkin Street", "highway": "secondary", "maxspeed": "20 mph", "reversed": false, "length": 107.111, "source": 65308278, "target": 65352337}, {"osmid": 446233234, "lanes": "3", "name": "Polk Street", "highway": "tertiary", "maxspeed": "20 mph", "oneway": false, "reversed": true, "length": 104.978, "source": 65308283, "target": 65327150}, {"osmid": [706533480, 771483453, 8918039], "lanes": "3", "name": "Polk Street", "highway": "secondary", "maxspeed": "20 mph", "oneway": false, "reversed": false, "length": 109.55099999999999, "source": 65308283, "target": 65327144}, {"osmid": [446233233, 502795948], "oneway": true, "lanes": "3", "name": "Golden Gate Avenue", "highway": "secondary", "maxspeed": ["25 mph", "20 mph"], "reversed": false, "length": 137.201, "source": 65308283, "target": 258758554}, {"osmid": 1128354343, "oneway": true, "lanes": "3", "name": "Golden Gate Avenue", "highway": "secondary", "maxspeed": "25 mph", "reversed": false, "length": 7.462, "source": 65308287, "target": 9691602767}, {"osmid": 527829942, "oneway": true, "lanes": "2", "ref": "US 101", "name": "Van Ness Avenue", "highway": "trunk", "maxspeed": "25 mph", "reversed": false, "length": 106.0, "source": 65308287, "target": 65352344}, {"osmid": 225806032, "oneway": true, "lanes": "2", "name": "Golden Gate Avenue", "highway": "secondary", "maxspeed": "30 mph", "reversed": false, "length": 135.166, "source": 65308287, "target": 65308289}, {"osmid": 527829944, "oneway": true, "lanes": "3", "ref": "US 101", "name": "Van Ness Avenue", "highway": "trunk", "maxspeed": "25 mph", "reversed": false, "length": 104.904, "source": 65308287, "target": 65372918}, {"osmid": 233201264, "oneway": true, "lanes": "3", "name": "Franklin Street", "highway": "secondary", "maxspeed": "25 mph", "reversed": false, "length": 104.943, "source": 65308289, "target": 65350747}, {"osmid": 769126612, "oneway": true, "lanes": "3", "name": "Golden Gate Avenue", "highway": "secondary", "maxspeed": "30 mph", "reversed": false, "length": 146.483, "source": 65308289, "target": 5352470014}, {"osmid": [26988072, 417087498], "oneway": true, "name": "Oak Street", "highway": "unclassified", "reversed": false, "length": 138.27799999999996, "source": 65310795, "target": 65310799}, {"osmid": 417087653, "oneway": true, "lanes": "3", "ref": "US 101", "name": "Van Ness Avenue", "highway": "trunk", "maxspeed": "25 mph", "reversed": false, "length": 27.723, "source": 65310795, "target": 4967499780}, {"osmid": 417087664, "oneway": true, "lanes": "3", "ref": "US 101", "name": "Van Ness Avenue", "highway": "trunk", "maxspeed": "25 mph", "reversed": false, "length": 105.937, "source": 65310795, "target": 65354072}, {"osmid": [397102584, 397258285], "oneway": true, "lanes": "4", "name": "Franklin Street", "highway": "secondary", "maxspeed": "25 mph", "reversed": false, "length": 105.172, "source": 65310799, "target": 65350740}, {"osmid": [417087505, 397100591], "oneway": true, "lanes": "3", "name": "Oak Street", "highway": "secondary", "maxspeed": "30 mph", "reversed": false, "length": 146.277, "source": 65310799, "target": 5352469988}, {"osmid": 204964546, "oneway": true, "name": "Oak Street", "highway": "primary", "maxspeed": "30 mph", "reversed": false, "length": 8.707, "source": 65310804, "target": 267455444}, {"osmid": 87554936, "oneway": true, "lanes": "1", "name": "Octavia Street", "highway": "residential", "maxspeed": "15 mph", "reversed": false, "length": 52.445, "source": 65310804, "target": 601217513}, {"osmid": 8917174, "name": "Kissling Street", "highway": "residential", "oneway": false, "reversed": true, "length": 74.50500000000001, "source": 65312158, "target": 65312159}, {"osmid": 143666216, "oneway": true, "lanes": "3", "ref": "US 101", "name": "South Van Ness Avenue", "highway": "trunk", "maxspeed": "25 mph", "reversed": false, "length": 23.872, "source": 65315830, "target": 260118044}, {"osmid": 8917348, "oneway": true, "lanes": "3", "name": "Otis Street", "highway": "secondary", "reversed": false, "length": 115.563, "source": 65315830, "target": 65315835}, {"osmid": 34128766, "oneway": true, "lanes": "3", "name": "Mission Street", "highway": "secondary", "reversed": false, "length": 21.775, "source": 65315830, "target": 65362987}, {"osmid": 1054650007, "oneway": true, "lanes": "2", "name": "Van Ness Bus Rapid Transit", "highway": "busway", "access": "no", "reversed": false, "length": 36.916, "source": 65315830, "target": 9691602789}, {"osmid": 1112197444, "oneway": true, "lanes": "3", "ref": "US 101", "name": "South Van Ness Avenue", "highway": "trunk", "maxspeed": "25 mph", "reversed": false, "length": 54.45099999999999, "source": 65315830, "target": 9992295989}, {"osmid": 617268038, "oneway": true, "lanes": "3", "name": "Folsom Street", "highway": "secondary", "maxspeed": "25 mph", "reversed": false, "length": 75.52199999999999, "source": 65317568, "target": 65317569}, {"osmid": 111049101, "name": "Dore Street", "highway": "residential", "oneway": false, "reversed": true, "length": 79.346, "source": 65317569, "target": 65349622}, {"osmid": 617990568, "oneway": true, "lanes": "3", "name": "Folsom Street", "highway": "secondary", "maxspeed": "25 mph", "reversed": false, "length": 74.404, "source": 65317569, "target": 65317570}, {"osmid": 27029265, "oneway": true, "lanes": "4", "name": "10th Street", "highway": "secondary", "maxspeed": "25 mph", "reversed": false, "length": 6.366, "source": 65317570, "target": 9684849385}, {"osmid": [721725416, 617990573], "oneway": true, "lanes": "3", "name": "Folsom Street", "highway": "secondary", "maxspeed": "25 mph", "reversed": false, "length": 57.656, "source": 65317570, "target": 9684849383}, {"osmid": 154647380, "oneway": true, "name": "Brady Street", "highway": "residential", "reversed": false, "length": 58.005, "source": 65317680, "target": 1723739199}, {"osmid": 8917455, "oneway": true, "name": "Stevenson Street", "highway": "residential", "reversed": false, "length": 80.197, "source": 65317680, "target": 65318338}, {"osmid": 980893267, "oneway": true, "lanes": "2", "name": "O'Farrell Street", "highway": "secondary", "maxspeed": "20 mph", "reversed": false, "length": 146.537, "source": 65317951, "target": 65317954}, {"osmid": 417087411, "oneway": true, "lanes": "2", "name": "Leavenworth Street", "highway": "tertiary", "maxspeed": "20 mph", "reversed": false, "length": 105.33800000000001, "source": 65317951, "target": 65333826}, {"osmid": 989334074, "oneway": true, "lanes": "3", "name": "Hyde Street", "highway": "tertiary", "maxspeed": "20 mph", "reversed": false, "length": 105.379, "source": 65317954, "target": 65333831}, {"osmid": 980893267, "oneway": true, "lanes": "2", "name": "O'Farrell Street", "highway": "secondary", "maxspeed": "20 mph", "reversed": false, "length": 146.264, "source": 65317954, "target": 65317956}, {"osmid": [1057808747, 766798669], "oneway": true, "lanes": ["2", "3"], "name": "O'Farrell Street", "highway": "secondary", "maxspeed": "20 mph", "reversed": false, "length": 146.485, "source": 65317956, "target": 65317957}, {"osmid": 398675749, "oneway": true, "lanes": "3", "name": "Larkin Street", "highway": "secondary", "maxspeed": "20 mph", "reversed": false, "length": 105.403, "source": 65317956, "target": 65333834}, {"osmid": [781130063, 277451471], "lanes": "2", "name": "Polk Street", "highway": "tertiary", "maxspeed": "20 mph", "oneway": false, "reversed": false, "length": 105.45, "source": 65317957, "target": 65327154}, {"osmid": [144489137, 1057808746], "oneway": true, "lanes": ["2", "3"], "name": "O'Farrell Street", "highway": "secondary", "maxspeed": "20 mph", "reversed": false, "length": 137.001, "source": 65317957, "target": 258758550}, {"osmid": 502795547, "oneway": true, "lanes": "2", "name": "O'Farrell Street", "highway": "primary", "reversed": false, "length": 10.291, "source": 65317959, "target": 9691602646}, {"osmid": [766798665, 513870421], "oneway": true, "lanes": "3", "ref": "US 101", "name": "Van Ness Avenue", "highway": "trunk", "maxspeed": "25 mph", "reversed": false, "length": 105.581, "source": 65317959, "target": 65333837}, {"osmid": [766798667, 771447982], "oneway": true, "lanes": "2", "ref": "US 101", "name": "Van Ness Avenue", "highway": "trunk", "maxspeed": "25 mph", "reversed": false, "length": 52.3, "source": 65317959, "target": 65369279}, {"osmid": 38095913, "name": "Stevenson Street", "highway": "residential", "oneway": false, "reversed": true, "length": 7.726, "source": 65318338, "target": 448104973}, {"osmid": [417087348, 8918406], "oneway": true, "lanes": "1", "name": "Gough Street", "highway": "tertiary", "reversed": false, "length": 56.766000000000005, "source": 65318338, "target": 1723738852}, {"osmid": [979746753, 979746754], "name": "Stevenson Street", "highway": "residential", "oneway": false, "reversed": false, "length": 29.881999999999998, "source": 65318340, "target": 448104973}, {"osmid": 44670367, "name": "Laguna Street", "highway": "residential", "oneway": false, "reversed": true, "length": 52.527, "source": 65318983, "target": 65318986}, {"osmid": 521514785, "oneway": false, "name": "Haight Street", "highway": "residential", "reversed": false, "length": 142.334, "source": 65318983, "target": 65327903}, {"osmid": 44670367, "name": "Laguna Street", "highway": "residential", "oneway": false, "reversed": true, "length": 52.308, "source": 65318986, "target": 65318989}, {"osmid": 27167896, "oneway": true, "name": "Rose Street", "highway": "residential", "reversed": false, "length": 142.511, "source": 65318986, "target": 65335648}, {"osmid": 87554970, "oneway": true, "name": "Page Street", "highway": "residential", "access": "destination", "reversed": false, "length": 142.866, "source": 65318989, "target": 65351420}, {"osmid": [979877850, 27167933, 1127670405], "oneway": true, "name": ["Linden Street", "Octavia Street"], "highway": "residential", "reversed": false, "length": 194.941, "lanes": "1", "maxspeed": "15 mph", "source": 65318991, "target": 2568380120}, {"osmid": 44670366, "name": "Laguna Street", "highway": "residential", "oneway": false, "reversed": true, "length": 52.585, "source": 65318991, "target": 65318993}, {"osmid": 133781714, "name": "Hayes Street", "highway": "residential", "oneway": false, "reversed": false, "length": 145.97599999999997, "source": 65318993, "target": 2568380114}, {"osmid": 225853139, "name": "Laguna Street", "highway": "residential", "oneway": false, "reversed": true, "length": 52.425, "source": 65318993, "target": 65318995}, {"osmid": 225853139, "name": "Laguna Street", "highway": "residential", "oneway": false, "reversed": true, "length": 52.49999999999999, "source": 65318995, "target": 65318997}, {"osmid": 8917757, "oneway": true, "name": "Ivy Street", "highway": "residential", "reversed": false, "length": 146.04899999999998, "source": 65318995, "target": 65324341}, {"osmid": 225853131, "name": "Grove Street", "highway": "residential", "oneway": false, "reversed": true, "length": 146.047, "source": 65318997, "target": 65351431}, {"osmid": 225853138, "name": "Laguna Street", "highway": "residential", "oneway": false, "reversed": true, "length": 52.492, "source": 65318997, "target": 65318999}, {"osmid": 8920203, "oneway": true, "name": "Birch Street", "highway": "residential", "reversed": false, "length": 146.266, "source": 65318999, "target": 65351433}, {"osmid": 133781730, "name": "Laguna Street", "highway": "residential", "oneway": false, "reversed": true, "length": 105.03399999999999, "source": 65319004, "target": 2351399563}, {"osmid": 233201263, "name": "McAllister Street", "highway": "residential", "oneway": false, "reversed": false, "length": 292.489, "source": 65319004, "target": 65329089}, {"osmid": 133781730, "name": "Laguna Street", "highway": "residential", "oneway": false, "reversed": true, "length": 50.323, "source": 65319013, "target": 65319019}, {"osmid": 133781730, "name": "Laguna Street", "highway": "residential", "oneway": false, "reversed": false, "length": 54.382999999999996, "source": 65319013, "target": 276546818}, {"osmid": 27400637, "name": "Ellis Street", "highway": "residential", "oneway": false, "reversed": false, "length": 292.651, "source": 65319019, "target": 65329103}, {"osmid": 133781730, "name": "Laguna Street", "highway": "residential", "oneway": false, "reversed": true, "length": 105.235, "source": 65319019, "target": 65319021}, {"osmid": 8921114, "name": "Cleary Court", "highway": "residential", "oneway": false, "reversed": true, "length": 241.062, "source": 65319021, "target": 65338344}, {"osmid": 133781730, "name": "Laguna Street", "highway": "residential", "oneway": false, "reversed": true, "length": 108.00500000000001, "source": 65319021, "target": 258759674}, {"osmid": 84733289, "name": "Laguna Street", "highway": "residential", "oneway": false, "reversed": false, "length": 17.928, "source": 65319023, "target": 258759674}, {"osmid": 27029264, "oneway": true, "lanes": "4", "name": "10th Street", "highway": "secondary", "maxspeed": "25 mph", "reversed": false, "length": 57.7, "source": 65319555, "target": 65325208}, {"osmid": 8917500, "oneway": true, "name": "Minna Street", "highway": "residential", "reversed": false, "length": 149.86700000000002, "source": 65319555, "target": 65319565}, {"osmid": 27029264, "oneway": true, "lanes": "4", "name": "10th Street", "highway": "secondary", "maxspeed": "25 mph", "reversed": false, "length": 66.92, "source": 65319555, "target": 65351748}, {"osmid": 24335439, "lanes": "2", "name": "11th Street", "highway": "tertiary", "oneway": false, "reversed": false, "length": 57.842, "source": 65319565, "target": 65325013}, {"osmid": 8917500, "oneway": true, "name": "Minna Street", "highway": "residential", "reversed": false, "length": 114.827, "source": 65319565, "target": 65319567}, {"osmid": [766805264, 417087254, 24335439], "lanes": ["2", "3"], "name": "11th Street", "highway": "tertiary", "oneway": false, "reversed": true, "length": 66.535, "source": 65319565, "target": 65325009}, {"osmid": 8921849, "oneway": true, "name": "Lafayette Street", "highway": "residential", "reversed": false, "length": 59.874, "source": 65319567, "target": 65325211}, {"osmid": 8921849, "oneway": true, "name": "Lafayette Street", "highway": "residential", "reversed": false, "length": 62.867, "source": 65319567, "target": 65363174}, {"osmid": 8917590, "name": "Ash Street", "highway": "residential", "oneway": false, "reversed": true, "length": 34.39, "source": 65321017, "target": 267456289}, {"osmid": 225806033, "oneway": true, "lanes": "3", "name": "Gough Street", "highway": "secondary", "maxspeed": "25 mph", "reversed": false, "length": 52.706, "source": 65321017, "target": 5352470007}, {"osmid": 225806033, "oneway": true, "lanes": "3", "name": "Gough Street", "highway": "secondary", "maxspeed": "25 mph", "reversed": false, "length": 52.696, "source": 65321017, "target": 65329089}, {"osmid": 8917756, "oneway": true, "name": "Dr. Tom Waddell Place", "highway": "residential", "reversed": false, "length": 137.584, "source": 65324327, "target": 65324329}, {"osmid": 417087511, "oneway": true, "lanes": "2", "name": "Polk Street", "highway": "secondary", "maxspeed": "25 mph", "reversed": false, "length": 51.561, "source": 65324327, "target": 65325366}, {"osmid": 417087511, "oneway": true, "lanes": "2", "name": "Polk Street", "highway": "secondary", "maxspeed": "25 mph", "reversed": false, "length": 58.031000000000006, "source": 65324327, "target": 4720933147}, {"osmid": 527857425, "oneway": true, "lanes": "3", "ref": "US 101", "name": "Van Ness Avenue", "highway": "trunk", "maxspeed": "25 mph", "reversed": false, "length": 56.291, "source": 65324329, "target": 258758038}, {"osmid": 527857425, "oneway": true, "lanes": "3", "ref": "US 101", "name": "Van Ness Avenue", "highway": "trunk", "maxspeed": "25 mph", "reversed": false, "length": 52.749, "source": 65324329, "target": 258758039}, {"osmid": 8917757, "oneway": true, "name": "Ivy Street", "highway": "residential", "reversed": false, "length": 146.446, "source": 65324337, "target": 5352470000}, {"osmid": 154648296, "oneway": true, "lanes": "3", "name": "Franklin Street", "highway": "secondary", "maxspeed": "25 mph", "reversed": false, "length": 52.506, "source": 65324337, "target": 65350745}, {"osmid": 514535080, "oneway": true, "lanes": "3", "name": "Franklin Street", "highway": "secondary", "maxspeed": "25 mph", "reversed": false, "length": 52.856, "source": 65324337, "target": 65325371}, {"osmid": 133733591, "name": "Octavia Street", "highway": "residential", "oneway": false, "reversed": false, "length": 52.443999999999996, "source": 65324341, "target": 65351431}, {"osmid": 963985170, "name": "Octavia Street", "highway": "residential", "oneway": false, "reversed": true, "length": 52.548, "source": 65324341, "target": 2568380114}, {"osmid": 8917757, "oneway": true, "name": "Ivy Street", "highway": "residential", "reversed": false, "length": 146.68099999999998, "source": 65324341, "target": 5352470000}, {"osmid": [1030297701, 1030297702, 24335441, 766805266, 397118327], "oneway": true, "lanes": ["2", "5", "4", "3"], "name": "Mission Street", "highway": "secondary", "reversed": false, "length": 180.24200000000002, "source": 65325009, "target": 65362987}, {"osmid": [766805262, 27029263], "name": "Mission Street", "highway": "secondary", "oneway": false, "reversed": false, "length": 149.583, "source": 65325009, "target": 65351748}, {"osmid": [766805263, 417087260, 417087270, 8917791], "lanes": "2", "name": "11th Street", "highway": "tertiary", "oneway": false, "reversed": false, "length": 192.57399999999998, "source": 65325009, "target": 1723738832}, {"osmid": [766805265, 23959829], "oneway": true, "lanes": "2", "name": "Mission Street", "highway": "secondary", "reversed": false, "length": 124.39000000000001, "source": 65325009, "target": 65363174}, {"osmid": 47170567, "oneway": true, "name": "Natoma Street", "highway": "residential", "reversed": false, "length": 149.813, "source": 65325013, "target": 65325208}, {"osmid": 47170567, "oneway": true, "name": "Natoma Street", "highway": "residential", "reversed": false, "length": 106.457, "source": 65325013, "target": 65325211}, {"osmid": 25371463, "name": "Natoma Street", "highway": "residential", "oneway": false, "reversed": false, "length": 48.785, "source": 65325211, "target": 65325213}, {"osmid": 225847519, "oneway": true, "highway": "secondary_link", "reversed": false, "length": 47.613, "source": 65325363, "target": 295811049}, {"osmid": 225847523, "oneway": true, "lanes": "3", "name": "Larkin Street", "highway": "secondary", "reversed": false, "length": 104.368, "source": 65325363, "target": 65354417}, {"osmid": 8920338, "oneway": true, "lanes": "3", "name": "Larkin Street", "highway": "secondary", "reversed": false, "length": 23.554000000000002, "source": 65325363, "target": 4061762661}, {"osmid": 403880756, "oneway": true, "highway": "secondary_link", "reversed": false, "length": 30.292, "source": 65325363, "target": 4061806120}, {"osmid": 397115949, "oneway": true, "lanes": "4", "name": "Hayes Street", "highway": "secondary", "reversed": false, "length": 137.594, "source": 65325366, "target": 258758039}, {"osmid": [417242642, 399138119], "oneway": true, "lanes": "2", "name": "Polk Street", "highway": ["secondary", "tertiary"], "maxspeed": "25 mph", "reversed": false, "length": 126.262, "source": 65325366, "target": 4998861437}, {"osmid": [403877657, 933901537], "oneway": true, "lanes": ["2", "3"], "name": "Hayes Street", "highway": "secondary", "reversed": false, "length": 98.82700000000001, "source": 65325366, "target": 295811049}, {"osmid": 142972026, "oneway": false, "lanes": "4", "name": "Hayes Street", "highway": "secondary", "reversed": true, "length": 136.73899999999998, "source": 65325369, "target": 65325371}, {"osmid": 771491493, "oneway": true, "lanes": "2", "ref": "US 101", "name": "Van Ness Avenue", "highway": "trunk", "maxspeed": "25 mph", "reversed": false, "length": 104.427, "source": 65325369, "target": 65354072}, {"osmid": 527829938, "oneway": true, "lanes": "3", "ref": "US 101", "name": "Van Ness Avenue", "highway": "trunk", "maxspeed": "25 mph", "reversed": false, "length": 106.22699999999999, "source": 65325369, "target": 65356392}, {"osmid": 397115944, "oneway": true, "name": "Hayes Street", "highway": "secondary", "reversed": false, "length": 5.612, "source": 65325369, "target": 9691602783}, {"osmid": [154648297, 514535079], "lanes": "3", "name": "Hayes Street", "highway": "secondary", "oneway": false, "reversed": true, "length": 146.418, "source": 65325371, "target": 5352469999}, {"osmid": 225806030, "oneway": true, "lanes": "3", "name": "Franklin Street", "highway": "secondary", "maxspeed": "25 mph", "reversed": false, "length": 52.115, "source": 65325371, "target": 65350743}, {"osmid": 8917959, "name": "Laskie Street", "highway": "residential", "oneway": false, "reversed": true, "length": 96.18900000000001, "source": 65326533, "target": 65326536}, {"osmid": [417087485, 88572887], "name": "Mission Street", "highway": "secondary", "oneway": false, "reversed": true, "length": 74.208, "source": 65326536, "target": 65339089}, {"osmid": 88572887, "name": "Mission Street", "highway": "secondary", "oneway": false, "reversed": false, "length": 117.66499999999999, "source": 65326536, "target": 65363166}, {"osmid": [8922072, 706533481], "lanes": "3", "name": "Polk Street", "highway": "secondary", "maxspeed": "20 mph", "oneway": false, "reversed": true, "length": 200.63799999999998, "source": 65327144, "target": 4720933147}, {"osmid": [399144608, 408600297, 706533479], "lanes": "5", "name": "McAllister Street", "highway": "tertiary", "maxspeed": "20 mph", "oneway": false, "reversed": true, "length": 138.364, "source": 65327144, "target": 65352339}, {"osmid": [397144576, 417087467, 781828829, 133781759], "lanes": "4", "name": "McAllister Street", "highway": "tertiary", "maxspeed": "20 mph", "oneway": false, "reversed": false, "length": 145.153, "source": 65327144, "target": 65352337}, {"osmid": 397170089, "lanes": "2", "name": "Polk Street", "highway": "tertiary", "maxspeed": "20 mph", "oneway": false, "reversed": true, "length": 104.959, "source": 65327150, "target": 65327151}, {"osmid": 686250338, "oneway": true, "lanes": "3", "name": "Turk Street", "highway": "secondary", "maxspeed": "20 mph", "reversed": false, "length": 137.498, "source": 65327150, "target": 258758555}, {"osmid": [686250339, 254448252], "oneway": true, "lanes": "3", "name": "Turk Street", "highway": "secondary", "maxspeed": "20 mph", "reversed": false, "length": 146.45000000000002, "source": 65327150, "target": 65354419}, {"osmid": 225847513, "name": "Eddy Street", "highway": "residential", "maxspeed": "20 mph", "oneway": false, "reversed": true, "length": 146.317, "source": 65327151, "target": 65354421}, {"osmid": 225847532, "lanes": "2", "name": "Polk Street", "highway": "tertiary", "maxspeed": "20 mph", "oneway": false, "reversed": true, "length": 104.776, "source": 65327151, "target": 65327154}, {"osmid": [771447675, 86303758], "name": "Eddy Street", "highway": "residential", "maxspeed": "20 mph", "oneway": false, "reversed": false, "length": 136.441, "source": 65327151, "target": 258758552}, {"osmid": 254758120, "oneway": false, "name": "Ellis Street", "highway": "residential", "maxspeed": "20 mph", "reversed": false, "length": 146.485, "source": 65327154, "target": 65333834}, {"osmid": 502825982, "oneway": true, "lanes": "3", "name": "Ellis Street", "highway": "residential", "maxspeed": "20 mph", "reversed": false, "length": 135.91500000000002, "source": 65327154, "target": 258758553}, {"osmid": 86289461, "oneway": false, "name": "Haight Street", "highway": "residential", "reversed": false, "length": 8.794, "source": 65327903, "target": 267455448}, {"osmid": 133781781, "oneway": true, "name": "Octavia Street", "highway": "residential", "maxspeed": "15 mph", "reversed": false, "length": 52.690000000000005, "source": 65327903, "target": 65335648}, {"osmid": 802591082, "oneway": true, "lanes": "4", "name": "Gough Street", "highway": "secondary", "maxspeed": "25 mph", "reversed": false, "length": 43.336, "source": 65329071, "target": 5277057887}, {"osmid": 802591082, "oneway": true, "lanes": "4", "name": "Gough Street", "highway": "secondary", "maxspeed": "25 mph", "reversed": false, "length": 52.845, "source": 65329071, "target": 65329076}, {"osmid": 38095719, "oneway": true, "name": "Rose Street", "highway": "residential", "reversed": false, "length": 125.034, "source": 65329071, "target": 298082944}, {"osmid": 8919084, "oneway": true, "name": "Rose Street", "highway": "residential", "reversed": false, "length": 95.297, "source": 65329071, "target": 1723739176}, {"osmid": 32121427, "name": "Page Street", "highway": "residential", "oneway": false, "reversed": false, "length": 144.77700000000002, "source": 65329076, "target": 65350736}, {"osmid": 802591083, "name": "Page Street", "highway": "residential", "access": "yes", "oneway": false, "reversed": true, "length": 124.83600000000001, "source": 65329076, "target": 1018617264}, {"osmid": 8920306, "name": "Fell Street", "highway": "secondary", "oneway": false, "reversed": true, "length": 146.38400000000001, "source": 65329079, "target": 65350740}, {"osmid": [525545008, 26988066], "oneway": true, "lanes": "3", "name": "Fell Street", "highway": "secondary", "maxspeed": "30 mph", "reversed": false, "length": 122.927, "source": 65329079, "target": 298082887}, {"osmid": 398681181, "oneway": true, "lanes": "4", "name": "Gough Street", "highway": "secondary", "maxspeed": "25 mph", "reversed": false, "length": 105.327, "source": 65329079, "target": 5352469988}, {"osmid": 482492972, "oneway": true, "lanes": "4", "name": "Gough Street", "highway": "secondary", "maxspeed": "25 mph", "reversed": false, "length": 52.175, "source": 65329079, "target": 65329081}, {"osmid": 482492971, "oneway": true, "name": "Linden Street", "highway": "residential", "reversed": false, "length": 146.394, "source": 65329081, "target": 65350743}, {"osmid": [8922158, 215515750], "oneway": true, "lanes": "1", "name": ["Linden Street", "Octavia Street"], "highway": ["living_street", "unclassified"], "maxspeed": "15 mph", "reversed": false, "length": 175.309, "source": 65329081, "target": 298082887}, {"osmid": 397101373, "oneway": true, "lanes": "3", "name": "Gough Street", "highway": "secondary", "maxspeed": "25 mph", "reversed": false, "length": 52.638, "source": 65329081, "target": 5352469999}, {"osmid": 233201263, "name": "McAllister Street", "highway": "residential", "oneway": false, "reversed": false, "length": 147.017, "source": 65329089, "target": 65350747}, {"osmid": 225806033, "oneway": true, "lanes": "3", "name": "Gough Street", "highway": "secondary", "maxspeed": "25 mph", "reversed": false, "length": 104.701, "source": 65329089, "target": 5352470014}, {"osmid": 47109123, "name": "Willow Street", "highway": "residential", "oneway": false, "reversed": true, "length": 10.514, "source": 65329101, "target": 1127285904}, {"osmid": 84654235, "oneway": true, "lanes": "3", "name": "Gough Street", "highway": "secondary", "maxspeed": "25 mph", "reversed": false, "length": 52.693, "source": 65329101, "target": 276546819}, {"osmid": 84654235, "oneway": true, "lanes": "3", "name": "Gough Street", "highway": "secondary", "maxspeed": "25 mph", "reversed": false, "length": 52.066, "source": 65329101, "target": 65329103}, {"osmid": 547206420, "oneway": true, "lanes": "2", "name": "Ellis Street", "highway": "residential", "reversed": false, "length": 146.594, "source": 65329103, "target": 65333839}, {"osmid": 84654235, "oneway": true, "lanes": "3", "name": "Gough Street", "highway": "secondary", "maxspeed": "25 mph", "reversed": false, "length": 210.91100000000003, "source": 65329103, "target": 267456161}, {"osmid": 277480563, "oneway": true, "lanes": "3", "name": "Jones Street", "highway": "secondary", "maxspeed": "20 mph", "reversed": false, "length": 104.768, "source": 65333819, "target": 65365832}, {"osmid": 277480564, "oneway": false, "name": "Ellis Street", "highway": "residential", "maxspeed": "20 mph", "reversed": true, "length": 146.243, "source": 65333819, "target": 65333826}, {"osmid": 254758120, "oneway": false, "name": "Ellis Street", "highway": "residential", "maxspeed": "20 mph", "reversed": true, "length": 146.493, "source": 65333826, "target": 65333831}, {"osmid": 277480425, "oneway": true, "lanes": "2", "name": "Leavenworth Street", "highway": "tertiary", "maxspeed": "20 mph", "reversed": false, "length": 104.764, "source": 65333826, "target": 65362158}, {"osmid": 989334074, "oneway": true, "lanes": "3", "name": "Hyde Street", "highway": "tertiary", "maxspeed": "20 mph", "reversed": false, "length": 104.771, "source": 65333831, "target": 65360273}, {"osmid": 254758120, "oneway": false, "name": "Ellis Street", "highway": "residential", "maxspeed": "20 mph", "reversed": true, "length": 146.332, "source": 65333831, "target": 65333834}, {"osmid": 398675749, "oneway": true, "lanes": "3", "name": "Larkin Street", "highway": "secondary", "maxspeed": "20 mph", "reversed": false, "length": 104.78399999999999, "source": 65333834, "target": 65354421}, {"osmid": 277451475, "oneway": true, "lanes": "3", "name": "Ellis Street", "highway": "residential", "reversed": false, "length": 135.47899999999998, "source": 65333837, "target": 65333839}, {"osmid": 771447912, "oneway": true, "lanes": "3", "ref": "US 101", "name": "Van Ness Avenue", "highway": "trunk", "maxspeed": "25 mph", "reversed": false, "length": 104.66300000000001, "source": 65333837, "target": 65373722}, {"osmid": 527857411, "oneway": true, "name": "Ellis Street", "highway": "residential", "reversed": false, "length": 8.145, "source": 65333837, "target": 9691602755}, {"osmid": 1111544262, "oneway": true, "lanes": "5", "name": "Franklin Street", "highway": "secondary", "maxspeed": "25 mph", "reversed": false, "length": 104.631, "source": 65333839, "target": 65350758}, {"osmid": 771447982, "oneway": true, "lanes": "2", "ref": "US 101", "name": "Van Ness Avenue", "highway": "trunk", "maxspeed": "25 mph", "reversed": false, "length": 52.818, "source": 65334139, "target": 65369279}, {"osmid": [1111713266, 1111713267], "oneway": true, "lanes": ["4", "3"], "name": "Geary Boulevard", "highway": "primary", "maxspeed": "35 mph", "reversed": false, "length": 136.46, "source": 65334139, "target": 65338019}, {"osmid": 502795941, "oneway": true, "lanes": "3", "name": "Geary Boulevard", "highway": "primary", "maxspeed": "35 mph", "reversed": false, "length": 10.608, "source": 65334139, "target": 9691602649}, {"osmid": 133781781, "oneway": true, "name": "Octavia Street", "highway": "residential", "maxspeed": "15 mph", "reversed": false, "length": 52.25, "source": 65335648, "target": 65351420}, {"osmid": [398675753, 1111713269], "oneway": true, "lanes": ["4", "3"], "name": "Geary Boulevard", "highway": "primary", "maxspeed": "35 mph", "reversed": false, "length": 125.83600000000001, "source": 65338019, "target": 4013421806}, {"osmid": 761313525, "oneway": true, "lanes": "3", "name": "Franklin Street", "highway": "secondary", "maxspeed": "25 mph", "reversed": false, "length": 52.518, "source": 65338019, "target": 65350760}, {"osmid": 84733260, "oneway": true, "lanes": "4", "name": "Geary Boulevard", "highway": "primary", "maxspeed": "25 mph", "reversed": false, "length": 156.55899999999997, "source": 65338344, "target": 267456161}, {"osmid": [1052659297, 1052659298, 397105094, 417087343], "oneway": true, "lanes": ["4", "3"], "name": "Geary Boulevard", "highway": "primary", "maxspeed": "25 mph", "reversed": false, "length": 136.30999999999997, "source": 65338344, "target": 258759674}, {"osmid": 1020490223, "lanes": "4", "name": "Mission Street", "highway": "secondary", "oneway": false, "reversed": true, "length": 51.317, "source": 65347696, "target": 65351748}, {"osmid": 154647381, "oneway": false, "lanes": "3", "name": "Franklin Street", "highway": "secondary", "maxspeed": "25 mph", "reversed": false, "length": 19.825, "source": 65350736, "target": 1723739120}, {"osmid": 8920306, "name": "Fell Street", "highway": "secondary", "oneway": false, "reversed": true, "length": 138.21900000000002, "source": 65350740, "target": 65354072}, {"osmid": 225806030, "oneway": true, "lanes": "3", "name": "Franklin Street", "highway": "secondary", "maxspeed": "25 mph", "reversed": false, "length": 52.126999999999995, "source": 65350740, "target": 65350743}, {"osmid": 399138117, "name": "Grove Street", "highway": "residential", "oneway": false, "reversed": true, "length": 137.424, "source": 65350745, "target": 65356392}, {"osmid": 399138117, "name": "Grove Street", "highway": "residential", "oneway": false, "reversed": false, "length": 146.311, "source": 65350745, "target": 5352470004}, {"osmid": 502795549, "lanes": "2", "name": "McAllister Street", "highway": "tertiary", "oneway": false, "reversed": false, "length": 136.21200000000002, "source": 65350747, "target": 65352344}, {"osmid": 225806029, "oneway": true, "lanes": "4", "name": "Franklin Street", "highway": "secondary", "maxspeed": "25 mph", "reversed": false, "length": 104.958, "source": 65350752, "target": 65350758}, {"osmid": 408586862, "oneway": true, "lanes": "3", "name": "Turk Street", "highway": "secondary", "maxspeed": "30 mph", "reversed": false, "length": 146.266, "source": 65350752, "target": 276546820}, {"osmid": [225806049, 408586852], "oneway": true, "lanes": "3", "name": "Turk Street", "highway": "secondary", "maxspeed": "30 mph", "reversed": false, "length": 136.387, "source": 65350752, "target": 65372918}, {"osmid": 700653014, "name": "Eddy Street", "highway": "residential", "oneway": false, "reversed": false, "length": 146.429, "source": 65350758, "target": 276546819}, {"osmid": 1111544263, "name": "Eddy Street", "highway": "residential", "oneway": false, "reversed": true, "length": 136.111, "source": 65350758, "target": 65373722}, {"osmid": 8921653, "name": "Myrtle Street", "highway": "residential", "oneway": false, "reversed": false, "length": 135.689, "source": 65350760, "target": 65369279}, {"osmid": 86289469, "oneway": false, "name": "Page Street", "highway": "residential", "access": "destination", "reversed": false, "length": 8.537, "source": 65351420, "target": 267455446}, {"osmid": 27167935, "name": "Octavia Street", "highway": "residential", "oneway": false, "reversed": false, "length": 52.525, "source": 65351431, "target": 65351433}, {"osmid": 399138117, "name": "Grove Street", "highway": "residential", "oneway": false, "reversed": true, "length": 146.779, "source": 65351431, "target": 5352470004}, {"osmid": 397145034, "oneway": false, "lanes": "2", "name": "McAllister Street", "highway": "tertiary", "maxspeed": "20 mph", "reversed": true, "length": 146.466, "source": 65352325, "target": 65352330}, {"osmid": [408591454, 27167270], "lanes": "3", "name": "McAllister Street", "highway": "tertiary", "maxspeed": "20 mph", "oneway": false, "reversed": true, "length": 147.46300000000002, "source": 65352330, "target": 65352337}, {"osmid": 1128305793, "lanes": "2", "name": "McAllister Street", "highway": "tertiary", "oneway": false, "reversed": true, "length": 8.0, "source": 65352339, "target": 9691602628}, {"osmid": 502795946, "oneway": true, "lanes": "3", "ref": "US 101", "name": "Van Ness Avenue", "highway": "trunk", "maxspeed": "25 mph", "reversed": false, "length": 108.506, "source": 65352339, "target": 258758554}, {"osmid": 502795544, "oneway": true, "lanes": "3", "ref": "US 101", "name": "Van Ness Avenue", "highway": "trunk", "maxspeed": "25 mph", "reversed": false, "length": 202.20999999999998, "source": 65352339, "target": 258758038}, {"osmid": 285999735, "lanes": "2", "name": "McAllister Street", "highway": "tertiary", "oneway": false, "reversed": false, "length": 10.459, "source": 65352344, "target": 9691602628}, {"osmid": 527829940, "oneway": true, "lanes": "3", "ref": "US 101", "name": "Van Ness Avenue", "highway": "trunk", "maxspeed": "25 mph", "reversed": false, "length": 207.65, "source": 65352344, "target": 65356392}, {"osmid": 417087334, "oneway": true, "name": "Fell Street", "highway": "secondary", "reversed": false, "length": 5.266, "source": 65354072, "target": 9691602786}, {"osmid": 225853133, "lanes": "2", "name": "Grove Street", "highway": "residential", "maxspeed": "20 mph", "oneway": false, "reversed": true, "length": 148.554, "source": 65354417, "target": 65360267}, {"osmid": 225853134, "name": "Grove Street", "highway": "residential", "maxspeed": "20 mph", "oneway": false, "reversed": false, "length": 145.225, "source": 65354417, "target": 4720933147}, {"osmid": 254448248, "oneway": true, "lanes": "3", "name": "Larkin Street", "highway": "secondary", "maxspeed": "20 mph", "reversed": false, "length": 104.799, "source": 65354419, "target": 65354421}, {"osmid": 686250332, "oneway": true, "lanes": "2", "name": "Turk Street", "highway": "secondary", "maxspeed": "20 mph", "reversed": false, "length": 33.345, "source": 65354419, "target": 65358118}, {"osmid": 30832489, "oneway": false, "name": "Eddy Street", "highway": "residential", "maxspeed": "20 mph", "reversed": true, "length": 146.398, "source": 65354421, "target": 65360273}, {"osmid": 502795483, "name": "Grove Street", "highway": "residential", "oneway": false, "reversed": true, "length": 6.585, "source": 65356392, "target": 9691602779}, {"osmid": 8920608, "name": "Dodge Street", "highway": "residential", "oneway": false, "reversed": true, "length": 53.822, "source": 65358113, "target": 65358118}, {"osmid": 686250332, "oneway": true, "lanes": "2", "name": "Turk Street", "highway": "secondary", "maxspeed": "20 mph", "reversed": false, "length": 113.02799999999999, "source": 65358118, "target": 65360270}, {"osmid": [415491501, 530033991], "oneway": true, "lanes": "3", "name": "Hyde Street", "highway": ["secondary", "tertiary"], "maxspeed": "20 mph", "reversed": false, "length": 25.362000000000002, "source": 65360267, "target": 1723739366}, {"osmid": 225847522, "oneway": true, "lanes": "3", "name": "Hyde Street", "highway": "tertiary", "maxspeed": "20 mph", "reversed": false, "length": 104.818, "source": 65360270, "target": 65360273}, {"osmid": [686250331, 686250335], "oneway": true, "lanes": ["2", "3"], "name": "Turk Street", "highway": "secondary", "maxspeed": "20 mph", "reversed": false, "length": 146.45899999999997, "source": 65360270, "target": 65362154}, {"osmid": [225847514, 1193701323], "oneway": false, "lanes": "4", "name": "Eddy Street", "highway": "residential", "maxspeed": "20 mph", "reversed": true, "length": 146.451, "source": 65360273, "target": 65362158}, {"osmid": 686250330, "oneway": true, "lanes": "2", "name": "Leavenworth Street", "highway": "tertiary", "maxspeed": "20 mph", "reversed": false, "length": 104.83000000000001, "source": 65362154, "target": 65362158}, {"osmid": 686250328, "oneway": true, "lanes": "2", "name": "Turk Street", "highway": "secondary", "maxspeed": "20 mph", "reversed": false, "length": 146.306, "source": 65362154, "target": 65365830}, {"osmid": 712555565, "lanes": "2", "name": "Eddy Street", "highway": "residential", "maxspeed": "20 mph", "oneway": false, "reversed": true, "length": 146.27, "source": 65362158, "target": 65365832}, {"osmid": [513963921, 34128773], "oneway": true, "lanes": ["2", "3"], "ref": "US 101", "name": "South Van Ness Avenue", "highway": "trunk", "maxspeed": "25 mph", "reversed": false, "length": 226.992, "source": 65362987, "target": 1723739386}, {"osmid": 1054650006, "oneway": true, "lanes": "2", "name": "Van Ness Bus Rapid Transit", "highway": "busway", "access": "no", "reversed": false, "length": 24.692999999999998, "source": 65362987, "target": 9691602789}, {"osmid": 8919006, "oneway": true, "lanes": "3", "ref": "US 101", "name": "South Van Ness Avenue", "highway": "trunk", "maxspeed": "25 mph", "reversed": false, "length": 24.566, "source": 65362987, "target": 65363176}, {"osmid": [1071635370, 417087306, 8921141, 397119705, 415517886], "oneway": true, "lanes": ["4", "3"], "name": "8th Street", "highway": "secondary", "maxspeed": "30 mph", "reversed": false, "length": 198.263, "source": 65363166, "target": 1723739366}, {"osmid": 23959829, "oneway": true, "lanes": "2", "name": "Mission Street", "highway": "secondary", "reversed": false, "length": 71.911, "source": 65363174, "target": 65363176}, {"osmid": 143666210, "oneway": true, "lanes": "4", "ref": "US 101", "name": "Mission Street", "highway": "trunk", "maxspeed": "25 mph", "reversed": false, "length": 15.826, "source": 65363176, "target": 260118044}, {"osmid": 542267688, "oneway": true, "lanes": "2", "name": "Jones Street", "highway": "secondary", "maxspeed": "20 mph", "reversed": false, "length": 104.83600000000001, "source": 65365830, "target": 65365832}, {"osmid": 527829944, "oneway": true, "lanes": "3", "ref": "US 101", "name": "Van Ness Avenue", "highway": "trunk", "maxspeed": "25 mph", "reversed": false, "length": 105.035, "source": 65372918, "target": 65373722}, {"osmid": 502795944, "oneway": true, "lanes": "3", "name": "Turk Street", "highway": "secondary", "maxspeed": "25 mph", "reversed": false, "length": 6.202, "source": 65372918, "target": 9691602764}, {"osmid": 86303744, "name": "Eddy Street", "highway": "residential", "oneway": false, "reversed": true, "length": 10.127, "source": 65373722, "target": 9691602638}, {"osmid": 502795483, "name": "Grove Street", "highway": "residential", "oneway": false, "reversed": false, "length": 6.195, "source": 258758038, "target": 9691602623}, {"osmid": 468552082, "name": "Grove Street", "highway": "residential", "maxspeed": "20 mph", "oneway": false, "reversed": true, "length": 138.548, "source": 258758038, "target": 4720933147}, {"osmid": 397115944, "oneway": true, "name": "Hayes Street", "highway": "secondary", "reversed": false, "length": 5.093, "source": 258758039, "target": 9691602619}, {"osmid": 801301150, "oneway": true, "lanes": "3", "ref": "US 101", "name": "Van Ness Avenue", "highway": "trunk", "maxspeed": "25 mph", "reversed": false, "length": 104.544, "source": 258758039, "target": 258758040}, {"osmid": [776062432, 417238536, 417087322, 142972028, 417087327], "oneway": true, "lanes": "2", "name": "Fell Street", "highway": "secondary", "reversed": false, "length": 166.37699999999995, "source": 258758040, "target": 4998861436}, {"osmid": 397116935, "oneway": true, "lanes": "3", "ref": "US 101", "name": "Van Ness Avenue", "highway": "trunk", "maxspeed": "25 mph", "reversed": false, "length": 121.881, "source": 258758040, "target": 4165593360}, {"osmid": 417087334, "oneway": true, "name": "Fell Street", "highway": "secondary", "reversed": false, "length": 5.914, "source": 258758040, "target": 9691587715}, {"osmid": [766798668, 771410365], "oneway": true, "lanes": "2", "ref": "US 101", "name": "Van Ness Avenue", "highway": "trunk", "maxspeed": "25 mph", "reversed": false, "length": 104.85400000000001, "source": 258758550, "target": 258758551}, {"osmid": [527857410, 766798666], "oneway": true, "lanes": ["2", "3"], "ref": "US 101", "name": "Van Ness Avenue", "highway": "trunk", "maxspeed": "25 mph", "reversed": false, "length": 105.408, "source": 258758550, "target": 258758553}, {"osmid": 502795547, "oneway": true, "lanes": "2", "name": "O'Farrell Street", "highway": "primary", "reversed": false, "length": 9.109, "source": 258758550, "target": 9691602646}, {"osmid": 502795941, "oneway": true, "lanes": "3", "name": "Geary Boulevard", "highway": "primary", "maxspeed": "35 mph", "reversed": false, "length": 9.399, "source": 258758551, "target": 9691602649}, {"osmid": 86303744, "name": "Eddy Street", "highway": "residential", "oneway": false, "reversed": false, "length": 10.002, "source": 258758552, "target": 9691602638}, {"osmid": 527857414, "oneway": true, "lanes": "3", "ref": "US 101", "name": "Van Ness Avenue", "highway": "trunk", "maxspeed": "25 mph", "reversed": false, "length": 104.744, "source": 258758552, "target": 258758553}, {"osmid": 502795943, "oneway": true, "lanes": "3", "ref": "US 101", "name": "Van Ness Avenue", "highway": "trunk", "maxspeed": "25 mph", "reversed": false, "length": 105.47400000000002, "source": 258758552, "target": 258758555}, {"osmid": 527857411, "oneway": true, "name": "Ellis Street", "highway": "residential", "reversed": false, "length": 6.87, "source": 258758553, "target": 9691602642}, {"osmid": 502795946, "oneway": true, "lanes": "3", "ref": "US 101", "name": "Van Ness Avenue", "highway": "trunk", "maxspeed": "25 mph", "reversed": false, "length": 104.59400000000001, "source": 258758554, "target": 258758555}, {"osmid": 225806031, "oneway": true, "lanes": "3", "name": "Golden Gate Avenue", "highway": "secondary", "maxspeed": "25 mph", "reversed": false, "length": 6.773, "source": 258758554, "target": 9691602632}, {"osmid": 502795944, "oneway": true, "lanes": "3", "name": "Turk Street", "highway": "secondary", "maxspeed": "25 mph", "reversed": false, "length": 6.233, "source": 258758555, "target": 9691602635}, {"osmid": 417087550, "oneway": true, "lanes": "4", "ref": "US 101", "name": "South Van Ness Avenue", "highway": "trunk", "maxspeed": "25 mph", "reversed": false, "length": 50.65, "source": 260118044, "target": 3386704351}, {"osmid": 417087489, "oneway": true, "lanes": "5", "ref": "US 101", "name": "Mission Street", "highway": "trunk", "maxspeed": "25 mph", "reversed": false, "length": 43.986000000000004, "source": 260118044, "target": 3386704350}, {"osmid": 27167926, "oneway": true, "lanes": "2", "name": "Octavia Boulevard", "highway": "primary", "maxspeed": "30 mph", "reversed": false, "length": 104.948, "source": 267455444, "target": 267455446}, {"osmid": 87554955, "oneway": true, "lanes": "3", "name": "Oak Street", "highway": "secondary", "maxspeed": "30 mph", "reversed": false, "length": 9.827, "source": 267455444, "target": 2763295990}, {"osmid": 28015825, "oneway": true, "lanes": "2", "name": "Octavia Boulevard", "highway": "primary", "maxspeed": "30 mph", "reversed": false, "length": 106.789, "source": 267455444, "target": 307638472}, {"osmid": 86289471, "oneway": true, "lanes": "2", "name": "Octavia Boulevard", "highway": "primary", "maxspeed": "30 mph", "reversed": false, "length": 104.94800000000001, "source": 267455446, "target": 267455448}, {"osmid": 27398196, "oneway": true, "name": "Haight Street", "highway": "residential", "reversed": false, "length": 9.612, "source": 267455448, "target": 267455480}, {"osmid": 86289459, "oneway": true, "lanes": "2", "name": "Octavia Boulevard", "highway": "primary", "maxspeed": "30 mph", "reversed": false, "length": 104.95899999999999, "source": 267455480, "target": 267455482}, {"osmid": 87554975, "oneway": true, "name": "Haight Street", "highway": "residential", "reversed": false, "length": 8.669, "source": 267455480, "target": 298082943}, {"osmid": 87554978, "name": "Page Street", "highway": "residential", "access": "yes", "oneway": false, "reversed": false, "length": 8.6, "source": 267455482, "target": 1018617264}, {"osmid": 397100592, "oneway": true, "lanes": "2", "name": "Octavia Boulevard", "highway": "primary", "maxspeed": "30 mph", "reversed": false, "length": 104.947, "source": 267455482, "target": 2763295990}, {"osmid": 133781730, "name": "Laguna Street", "highway": "residential", "oneway": false, "reversed": false, "length": 54.688, "source": 276546818, "target": 2496389906}, {"osmid": 700653014, "name": "Eddy Street", "highway": "residential", "oneway": false, "reversed": true, "length": 292.64099999999996, "source": 276546818, "target": 276546819}, {"osmid": 84654235, "oneway": true, "lanes": "3", "name": "Gough Street", "highway": "secondary", "maxspeed": "25 mph", "reversed": false, "length": 104.98400000000001, "source": 276546819, "target": 276546820}, {"osmid": 225806033, "oneway": true, "lanes": "3", "name": "Gough Street", "highway": "secondary", "maxspeed": "25 mph", "reversed": false, "length": 53.013999999999996, "source": 276546820, "target": 5352470018}, {"osmid": 398681182, "oneway": true, "lanes": "2", "name": "Turk Street", "highway": "secondary", "maxspeed": "30 mph", "reversed": false, "length": 292.837, "source": 276546820, "target": 276546821}, {"osmid": 133781730, "name": "Laguna Street", "highway": "residential", "oneway": false, "reversed": true, "length": 50.242, "source": 276546821, "target": 2496389906}, {"osmid": 133781730, "name": "Laguna Street", "highway": "residential", "oneway": false, "reversed": false, "length": 105.10000000000001, "source": 276546821, "target": 2351399563}, {"osmid": 26988051, "oneway": true, "lanes": "2", "name": "Hayes Street", "highway": "secondary", "reversed": false, "length": 55.652, "source": 295811049, "target": 4061762661}, {"osmid": 133781767, "oneway": true, "lanes": "1", "name": "Octavia Street", "highway": "unclassified", "maxspeed": "15 mph", "reversed": false, "length": 52.017, "source": 298082883, "target": 298082885}, {"osmid": 133781767, "oneway": true, "lanes": "1", "name": "Octavia Street", "highway": "unclassified", "maxspeed": "15 mph", "reversed": false, "length": 52.929, "source": 298082883, "target": 1018617264}, {"osmid": 1075628521, "oneway": true, "lanes": "3", "name": "Oak Street", "highway": "secondary", "maxspeed": "30 mph", "reversed": false, "length": 123.259, "source": 298082885, "target": 5352469988}, {"osmid": 1075628522, "oneway": true, "lanes": "1", "name": "Octavia Street", "highway": "unclassified", "maxspeed": "15 mph", "reversed": false, "length": 105.28400000000002, "source": 298082885, "target": 298082887}, {"osmid": 1075628523, "oneway": true, "lanes": "3", "name": "Oak Street", "highway": "secondary", "maxspeed": "30 mph", "reversed": false, "length": 8.68, "source": 298082885, "target": 2763295990}, {"osmid": 283532928, "oneway": true, "lanes": "3", "name": "Fell Street", "highway": "secondary", "maxspeed": "30 mph", "reversed": false, "length": 13.664, "source": 298082887, "target": 307638472}, {"osmid": 133781775, "oneway": true, "name": "Octavia Street", "highway": "unclassified", "maxspeed": "15 mph", "reversed": false, "length": 52.721999999999994, "source": 298082943, "target": 298082944}, {"osmid": 546029200, "oneway": true, "lanes": "3", "name": "Haight Street", "highway": "residential", "reversed": false, "length": 121.12899999999999, "source": 298082943, "target": 5277057886}, {"osmid": 133781775, "oneway": true, "name": "Octavia Street", "highway": "unclassified", "maxspeed": "15 mph", "reversed": false, "length": 52.248999999999995, "source": 298082944, "target": 1018617264}, {"osmid": 61154525, "oneway": true, "lanes": "3", "name": "Fell Street", "highway": "primary", "maxspeed": "30 mph", "reversed": false, "length": 13.567, "source": 307638472, "target": 2568380120}, {"osmid": [983835542, 86289470], "oneway": true, "lanes": ["2", "3"], "name": "Octavia Boulevard", "highway": "primary", "maxspeed": "30 mph", "reversed": false, "length": 106.685, "source": 307638472, "target": 2763295990}, {"osmid": 38095939, "oneway": true, "lanes": "2", "name": "Gough Street", "highway": "secondary", "reversed": false, "length": 54.088, "source": 448104973, "target": 1723739183}, {"osmid": 47161038, "oneway": true, "name": "Hickory Street", "highway": "residential", "reversed": false, "length": 142.704, "source": 601217513, "target": 601217544}, {"osmid": 87554936, "oneway": true, "lanes": "1", "name": "Octavia Street", "highway": "residential", "maxspeed": "15 mph", "reversed": false, "length": 52.841, "source": 601217513, "target": 2568380120}, {"osmid": 543844602, "oneway": true, "name": "Market Street", "highway": "secondary", "reversed": false, "length": 151.293, "source": 1723738832, "target": 4061762656}, {"osmid": [224373752, 699771742], "oneway": true, "lanes": "1", "name": "Market Street", "highway": "secondary", "reversed": false, "length": 61.513, "source": 1723738832, "target": 1723739386}, {"osmid": 437874489, "name": "12th Street", "highway": "residential", "oneway": false, "reversed": false, "length": 157.742, "source": 1723738835, "target": 9992295989}, {"osmid": [228228520, 514906781], "oneway": true, "lanes": "1", "name": "Market Street", "highway": "primary", "maxspeed": "20 mph", "reversed": false, "length": 109.44, "source": 1723738835, "target": 1723739149}, {"osmid": [619979122, 682793453], "oneway": true, "name": "Market Street", "highway": "busway", "access": "no", "reversed": false, "length": 114.882, "source": 1723738835, "target": 5858516712}, {"osmid": [224197569, 417087426], "oneway": true, "lanes": "2", "name": "Market Street", "highway": "primary", "maxspeed": "20 mph", "reversed": false, "length": 125.301, "source": 1723738835, "target": 1723739199}, {"osmid": 204964839, "oneway": true, "name": "Market Street", "highway": "primary", "maxspeed": "20 mph", "reversed": false, "length": 89.156, "source": 1723738842, "target": 1723739183}, {"osmid": 682004791, "oneway": true, "lanes": "3", "name": "Market Street", "highway": "primary", "maxspeed": "20 mph", "reversed": false, "length": 90.715, "source": 1723738842, "target": 6386806910}, {"osmid": 133781788, "oneway": true, "name": "Valencia Street", "highway": "tertiary", "reversed": false, "length": 22.394, "source": 1723738842, "target": 1723738980}, {"osmid": [228339825, 417087433], "oneway": true, "lanes": "4", "name": "Market Street", "highway": "primary", "maxspeed": "20 mph", "reversed": false, "length": 55.394000000000005, "source": 1723738852, "target": 6454317981}, {"osmid": 361622905, "oneway": true, "lanes": "1", "name": "Market Street", "highway": "primary", "reversed": false, "length": 9.136, "source": 1723738852, "target": 1723739183}, {"osmid": 682004788, "oneway": true, "lanes": "1", "name": "Market Street", "highway": "primary", "reversed": false, "length": 8.589, "source": 1723738852, "target": 6386806910}, {"osmid": 682004789, "oneway": true, "lanes": "1", "name": "Market Street", "highway": "primary", "maxspeed": "10 mph", "reversed": false, "length": 68.393, "source": 1723738880, "target": 5277057888}, {"osmid": 682004790, "oneway": true, "lanes": "1", "name": "Market Street", "highway": "primary", "maxspeed": "20 mph", "reversed": false, "length": 90.84700000000001, "source": 1723738880, "target": 1723739367}, {"osmid": 767943720, "oneway": true, "lanes": "2", "name": "Market Street", "highway": "primary", "maxspeed": "20 mph", "reversed": false, "length": 11.149, "source": 1723738880, "target": 1723739176}, {"osmid": 225847526, "name": "Market Street", "highway": "busway", "access": "no", "oneway": false, "reversed": true, "length": 7.205, "source": 1723738966, "target": 6386250944}, {"osmid": 417269458, "oneway": true, "lanes": "3", "name": "Charles J. Brenham Place", "highway": "secondary", "reversed": false, "length": 6.055, "source": 1723738966, "target": 4061806118}, {"osmid": [493107465, 417087290, 681928621], "oneway": true, "lanes": "3", "name": "7th Street", "highway": "secondary", "maxspeed": "25 mph", "reversed": false, "length": 50.858, "source": 1723738966, "target": 6386250949}, {"osmid": [417087417, 415292674], "oneway": true, "lanes": ["2", "3"], "name": "Market Street", "highway": "primary", "maxspeed": "20 mph", "reversed": false, "length": 55.066, "source": 1723738980, "target": 1723739068}, {"osmid": 415292674, "oneway": true, "lanes": "2", "name": "Market Street", "highway": "primary", "maxspeed": "20 mph", "reversed": false, "length": 20.0, "source": 1723739068, "target": 1723739367}, {"osmid": 546029201, "oneway": true, "lanes": "2", "name": "Gough Street", "highway": "secondary", "maxspeed": "25 mph", "reversed": false, "length": 22.116, "source": 1723739068, "target": 5277057886}, {"osmid": 767943720, "oneway": true, "lanes": "2", "name": "Market Street", "highway": "primary", "maxspeed": "20 mph", "reversed": false, "length": 63.852, "source": 1723739120, "target": 1723739176}, {"osmid": [224197570, 1041359984, 619979121, 1041359986, 1215827892], "oneway": true, "lanes": ["2", "1", "3"], "name": "Market Street", "highway": "primary", "maxspeed": "20 mph", "reversed": false, "length": 167.27900000000002, "source": 1723739120, "target": 4967499780}, {"osmid": 688337288, "oneway": true, "lanes": "2", "name": "Market Street", "highway": "secondary", "reversed": false, "length": 107.863, "source": 1723739120, "target": 6454317981}, {"osmid": 212214143, "oneway": true, "lanes": "1", "name": "Market Street", "highway": "primary", "reversed": false, "length": 11.466, "source": 1723739149, "target": 9691587709}, {"osmid": 26943482, "oneway": true, "lanes": "2", "ref": "US 101", "name": "South Van Ness Avenue", "highway": "trunk", "maxspeed": "25 mph", "reversed": false, "length": 172.194, "source": 1723739149, "target": 9992295989}, {"osmid": 767944816, "oneway": true, "lanes": "4", "ref": "US 101", "name": "Van Ness Avenue", "highway": "trunk", "maxspeed": "25 mph", "reversed": false, "length": 8.206, "source": 1723739149, "target": 5858516712}, {"osmid": 682004787, "oneway": true, "lanes": "2", "name": "Gough Street", "highway": "secondary", "reversed": false, "length": 4.875, "source": 1723739183, "target": 6386806910}, {"osmid": 944144235, "oneway": true, "lanes": "2", "name": "Market Street", "highway": "primary", "maxspeed": "20 mph", "reversed": false, "length": 23.631, "source": 1723739199, "target": 6454317981}, {"osmid": 225847525, "name": "Market Street", "highway": "busway", "access": "no", "oneway": false, "reversed": true, "length": 192.03599999999997, "source": 1723739366, "target": 5012209349}, {"osmid": 1020282956, "name": "Market Street", "highway": "busway", "access": "no", "oneway": false, "reversed": false, "length": 270.74899999999997, "source": 1723739366, "target": 6386250944}, {"osmid": 154647384, "oneway": true, "lanes": "2", "name": "Gough Street", "highway": "secondary", "reversed": false, "length": 14.336, "source": 1723739367, "target": 6386806910}, {"osmid": 546029199, "oneway": true, "lanes": "2", "name": "Gough Street", "highway": "secondary", "reversed": false, "length": 12.149999999999999, "source": 1723739367, "target": 5277057885}, {"osmid": 619378850, "oneway": true, "lanes": "2", "name": "Market Street", "highway": "primary", "maxspeed": "20 mph", "reversed": false, "length": 21.564, "source": 1723739367, "target": 5277057888}, {"osmid": 84654228, "oneway": true, "lanes": "3", "ref": "US 101", "name": "Van Ness Avenue", "highway": "trunk", "maxspeed": "25 mph", "reversed": false, "length": 6.964, "source": 1723739386, "target": 5858516713}, {"osmid": 212214143, "oneway": true, "lanes": "1", "name": "Market Street", "highway": "primary", "reversed": false, "length": 10.063, "source": 1723739386, "target": 9691587709}, {"osmid": 769126612, "oneway": true, "lanes": "3", "name": "Golden Gate Avenue", "highway": "secondary", "maxspeed": "30 mph", "reversed": false, "length": 292.65299999999996, "source": 2351399563, "target": 5352470014}, {"osmid": [133781712, 26988058], "name": "Hayes Street", "highway": "residential", "oneway": false, "reversed": false, "length": 146.80499999999998, "source": 2568380114, "target": 5352469999}, {"osmid": 331588258, "oneway": true, "lanes": "1", "highway": "trunk_link", "reversed": false, "length": 35.922, "source": 3386704350, "target": 3386704351}, {"osmid": 417087327, "oneway": true, "name": "Fell Street", "highway": "secondary", "reversed": false, "length": 8.614, "source": 4061762656, "target": 4998861436}, {"osmid": 571967387, "oneway": true, "name": "Polk Street", "highway": "tertiary", "maxspeed": "25 mph", "reversed": false, "length": 7.568, "source": 4061762656, "target": 4998861437}, {"osmid": 571428733, "oneway": true, "name": "9th Street", "highway": "secondary", "reversed": false, "length": 7.0329999999999995, "source": 4061762661, "target": 5012209349}, {"osmid": 437969685, "oneway": true, "name": "Market Street", "highway": "secondary", "reversed": false, "length": 10.473, "source": 4165593360, "target": 9691587711}, {"osmid": 742388647, "oneway": true, "lanes": "3", "ref": "US 101", "name": "Van Ness Avenue", "highway": "trunk", "maxspeed": "25 mph", "reversed": false, "length": 9.119, "source": 4165593360, "target": 5858516713}, {"osmid": 507188657, "oneway": true, "lanes": "4", "ref": "US 101", "name": "Van Ness Avenue", "highway": "trunk", "maxspeed": "25 mph", "reversed": false, "length": 9.742, "source": 4967499780, "target": 5858516712}, {"osmid": 437969685, "oneway": true, "name": "Market Street", "highway": "secondary", "reversed": false, "length": 9.789, "source": 4967499780, "target": 9691587711}, {"osmid": 571967381, "name": "Market Street", "highway": "busway", "access": "no", "oneway": false, "reversed": false, "length": 4.044, "source": 4998861436, "target": 4998861437}, {"osmid": [619979097, 682793452, 571967381], "name": "Market Street", "highway": "busway", "access": "no", "oneway": false, "reversed": true, "length": 204.679, "source": 4998861436, "target": 5858516713}, {"osmid": 204963504, "name": "Market Street", "highway": "busway", "access": "no", "oneway": false, "reversed": false, "length": 149.18899999999996, "source": 4998861437, "target": 5012209349}, {"osmid": 546029198, "oneway": true, "name": "Haight Street", "highway": "residential", "reversed": false, "length": 8.982, "source": 5277057885, "target": 5277057886}, {"osmid": 154647383, "oneway": true, "lanes": "2", "name": "Gough Street", "highway": "secondary", "reversed": false, "length": 11.195, "source": 5277057885, "target": 5277057887}, {"osmid": 154647385, "oneway": true, "name": "Haight Street", "highway": "residential", "reversed": false, "length": 24.55, "source": 5277057885, "target": 5277057888}, {"osmid": 361622904, "oneway": true, "lanes": "2", "name": "Gough Street", "highway": "secondary", "maxspeed": "25 mph", "reversed": false, "length": 9.824, "source": 5277057886, "target": 5277057887}, {"osmid": 225806033, "oneway": true, "lanes": "3", "name": "Gough Street", "highway": "secondary", "maxspeed": "25 mph", "reversed": false, "length": 52.444, "source": 5352469999, "target": 5352470000}, {"osmid": 225806033, "oneway": true, "lanes": "3", "name": "Gough Street", "highway": "secondary", "maxspeed": "25 mph", "reversed": false, "length": 52.226, "source": 5352470000, "target": 5352470004}, {"osmid": 225806033, "oneway": true, "lanes": "3", "name": "Gough Street", "highway": "secondary", "maxspeed": "25 mph", "reversed": false, "length": 104.67, "source": 5352470004, "target": 5352470007}, {"osmid": 225806033, "oneway": true, "lanes": "3", "name": "Gough Street", "highway": "secondary", "maxspeed": "25 mph", "reversed": false, "length": 51.977999999999994, "source": 5352470014, "target": 5352470018}, {"osmid": 767944815, "oneway": true, "name": "Market Street", "highway": "busway", "access": "no", "reversed": false, "length": 10.669, "source": 5858516712, "target": 9691587710}, {"osmid": 767944815, "oneway": true, "name": "Market Street", "highway": "busway", "access": "no", "reversed": false, "length": 10.134, "source": 5858516713, "target": 9691587710}, {"osmid": 1020282955, "oneway": true, "name": "7th Street", "highway": "busway", "access": "no", "reversed": false, "length": 6.107, "source": 6386250944, "target": 6386250947}, {"osmid": [681928620, 1020282957], "oneway": true, "name": "7th Street", "highway": "busway", "access": "no", "reversed": false, "length": 51.79899999999999, "source": 6386250944, "target": 6386250949}, {"osmid": [1053860805, 1053860806], "oneway": true, "lanes": "1", "highway": "secondary_link", "reversed": false, "length": 59.5, "source": 9684849383, "target": 9684849385}, {"osmid": 1054650004, "oneway": false, "lanes": "2", "name": "Van Ness Bus Rapid Transit", "highway": "busway", "access": "no", "reversed": true, "length": 7.113, "source": 9691587709, "target": 9691587710}, {"osmid": 1054650004, "oneway": false, "lanes": "2", "name": "Van Ness Bus Rapid Transit", "highway": "busway", "access": "no", "reversed": false, "length": 198.121, "source": 9691587709, "target": 9691602789}, {"osmid": 1054650004, "oneway": false, "lanes": "2", "name": "Van Ness Bus Rapid Transit", "highway": "busway", "access": "no", "reversed": true, "length": 9.192, "source": 9691587710, "target": 9691587711}, {"osmid": 1054650004, "oneway": false, "lanes": "2", "name": "Van Ness Bus Rapid Transit", "highway": "busway", "access": "no", "reversed": true, "length": 48.892, "source": 9691587711, "target": 9691602772}, {"osmid": 1054649979, "oneway": true, "lanes": "2", "name": "Van Ness Bus Rapid Transit", "highway": "busway", "access": "no", "reversed": false, "length": 104.507, "source": 9691587715, "target": 9691602619}, {"osmid": 1054649979, "oneway": true, "lanes": "2", "name": "Van Ness Bus Rapid Transit", "highway": "busway", "access": "no", "reversed": false, "length": 79.41300000000001, "source": 9691587715, "target": 9691602772}, {"osmid": 417087334, "oneway": true, "name": "Fell Street", "highway": "secondary", "reversed": false, "length": 6.436, "source": 9691587715, "target": 9691602786}, {"osmid": 397115944, "oneway": true, "name": "Hayes Street", "highway": "secondary", "reversed": false, "length": 7.671, "source": 9691602619, "target": 9691602783}, {"osmid": 1054649979, "oneway": true, "lanes": "2", "name": "Van Ness Bus Rapid Transit", "highway": "busway", "access": "no", "reversed": false, "length": 108.005, "source": 9691602619, "target": 9691602623}, {"osmid": 502795483, "name": "Grove Street", "highway": "residential", "oneway": false, "reversed": false, "length": 4.797, "source": 9691602623, "target": 9691602779}, {"osmid": 1054649979, "oneway": true, "lanes": "2", "name": "Van Ness Bus Rapid Transit", "highway": "busway", "access": "no", "reversed": false, "length": 162.38400000000001, "source": 9691602623, "target": 9691602770}, {"osmid": 1054650003, "oneway": false, "lanes": "2", "name": "Van Ness Bus Rapid Transit", "highway": "busway", "access": "no", "reversed": true, "length": 50.434, "source": 9691602628, "target": 9691602630}, {"osmid": 1128305794, "oneway": false, "lanes": "2", "name": "Van Ness Bus Rapid Transit", "highway": "busway", "access": "no", "reversed": false, "length": 42.156, "source": 9691602628, "target": 9691602770}, {"osmid": 1054650001, "oneway": true, "lanes": "2", "name": "Van Ness Bus Rapid Transit", "highway": "busway", "access": "no", "reversed": false, "length": 57.53, "source": 9691602630, "target": 9691602632}, {"osmid": 1128354344, "oneway": true, "lanes": "2", "name": "Van Ness Bus Rapid Transit", "highway": "busway", "access": "no", "reversed": false, "length": 57.435, "source": 9691602630, "target": 9691602767}, {"osmid": 1054650001, "oneway": true, "lanes": "2", "name": "Van Ness Bus Rapid Transit", "highway": "busway", "access": "no", "reversed": false, "length": 104.558, "source": 9691602632, "target": 9691602635}, {"osmid": 225806031, "oneway": true, "lanes": "3", "name": "Golden Gate Avenue", "highway": "secondary", "maxspeed": "25 mph", "reversed": false, "length": 6.506, "source": 9691602632, "target": 9691602767}, {"osmid": 502795944, "oneway": true, "lanes": "3", "name": "Turk Street", "highway": "secondary", "maxspeed": "25 mph", "reversed": false, "length": 6.243, "source": 9691602635, "target": 9691602764}, {"osmid": 1054650001, "oneway": true, "lanes": "2", "name": "Van Ness Bus Rapid Transit", "highway": "busway", "access": "no", "reversed": false, "length": 66.99, "source": 9691602635, "target": 9691602758}, {"osmid": 1054650000, "oneway": false, "lanes": "2", "name": "Van Ness Bus Rapid Transit", "highway": "busway", "access": "no", "reversed": true, "length": 43.357, "source": 9691602638, "target": 9691602640}, {"osmid": 1054650000, "oneway": false, "lanes": "2", "name": "Van Ness Bus Rapid Transit", "highway": "busway", "access": "no", "reversed": false, "length": 38.479, "source": 9691602638, "target": 9691602758}, {"osmid": 1054649998, "oneway": true, "lanes": "2", "name": "Van Ness Bus Rapid Transit", "highway": "busway", "access": "no", "reversed": false, "length": 61.778999999999996, "source": 9691602640, "target": 9691602642}, {"osmid": 1054649999, "oneway": true, "lanes": "2", "name": "Van Ness Bus Rapid Transit", "highway": "busway", "access": "no", "reversed": false, "length": 61.641, "source": 9691602640, "target": 9691602755}, {"osmid": 527857411, "oneway": true, "name": "Ellis Street", "highway": "residential", "reversed": false, "length": 5.925, "source": 9691602642, "target": 9691602755}, {"osmid": 1054649998, "oneway": true, "lanes": "2", "name": "Van Ness Bus Rapid Transit", "highway": "busway", "access": "no", "reversed": false, "length": 105.68700000000001, "source": 9691602642, "target": 9691602646}, {"osmid": 1054649997, "oneway": false, "lanes": "2", "name": "Van Ness Bus Rapid Transit", "highway": "busway", "access": "no", "reversed": true, "length": 104.849, "source": 9691602646, "target": 9691602649}, {"osmid": 1054649999, "oneway": true, "lanes": "2", "name": "Van Ness Bus Rapid Transit", "highway": "busway", "access": "no", "reversed": false, "length": 105.68299999999999, "source": 9691602646, "target": 9691602755}, {"osmid": 1054650002, "oneway": true, "lanes": "2", "name": "Van Ness Bus Rapid Transit", "highway": "busway", "access": "no", "reversed": false, "length": 66.968, "source": 9691602758, "target": 9691602764}, {"osmid": 1054650002, "oneway": true, "lanes": "2", "name": "Van Ness Bus Rapid Transit", "highway": "busway", "access": "no", "reversed": false, "length": 104.74199999999999, "source": 9691602764, "target": 9691602767}, {"osmid": 1054650005, "oneway": true, "lanes": "2", "name": "Van Ness Bus Rapid Transit", "highway": "busway", "access": "no", "reversed": false, "length": 163.151, "source": 9691602770, "target": 9691602779}, {"osmid": 1054650005, "oneway": true, "lanes": "2", "name": "Van Ness Bus Rapid Transit", "highway": "busway", "access": "no", "reversed": false, "length": 79.14699999999999, "source": 9691602772, "target": 9691602786}, {"osmid": 1054650005, "oneway": true, "lanes": "2", "name": "Van Ness Bus Rapid Transit", "highway": "busway", "access": "no", "reversed": false, "length": 107.18, "source": 9691602779, "target": 9691602783}, {"osmid": 1054650005, "oneway": true, "lanes": "2", "name": "Van Ness Bus Rapid Transit", "highway": "busway", "access": "no", "reversed": false, "length": 104.604, "source": 9691602783, "target": 9691602786}]}