{"directed": false, "multigraph": false, "graph": {}, "nodes": [{"y": 43.6575299, "x": -79.3895942, "highway": "traffic_signals", "street_count": 3, "id": 20979760}, {"y": 43.657579, "x": -79.3893605, "highway": "traffic_signals", "street_count": 4, "id": 20979761}, {"y": 43.6598263, "x": -79.3905908, "highway": "traffic_signals", "street_count": 4, "id": 21436517}, {"y": 43.6598788, "x": -79.3903446, "highway": "traffic_signals", "street_count": 4, "id": 21436518}, {"y": 43.6581855, "x": -79.3863734, "highway": "traffic_signals", "street_count": 4, "id": 24959516}, {"y": 43.6565053, "x": -79.3771344, "highway": "traffic_signals", "street_count": 4, "id": 25628759}, {"y": 43.6468684, "x": -79.376943, "highway": "traffic_signals", "street_count": 4, "id": 25628764}, {"y": 43.6523553, "x": -79.3870695, "street_count": 3, "id": 26240367}, {"y": 43.6562972, "x": -79.37958, "highway": "traffic_signals", "street_count": 4, "id": 26240542}, {"y": 43.6562591, "x": -79.3783016, "street_count": 4, "id": 26240549}, {"y": 43.6488807, "x": -79.385519, "highway": "traffic_signals", "street_count": 5, "id": 26240563}, {"y": 43.6522782, "x": -79.3874072, "street_count": 3, "id": 26240572}, {"y": 43.6476639, "x": -79.3848141, "highway": "traffic_signals", "street_count": 4, "id": 26240577}, {"y": 43.6557335, "x": -79.3837342, "highway": "traffic_signals", "street_count": 4, "id": 29603222}, {"y": 43.6563366, "x": -79.380915, "highway": "traffic_signals", "street_count": 4, "id": 29603223}, {"y": 43.6518893, "x": -79.3817339, "highway": "traffic_signals", "street_count": 3, "id": 29603229}, {"y": 43.6585097, "x": -79.384862, "highway": "traffic_signals", "street_count": 4, "id": 29603262}, {"y": 43.6590973, "x": -79.3820984, "highway": "traffic_signals", "street_count": 4, "id": 29603320}, {"y": 43.6554206, "x": -79.3851985, "street_count": 4, "id": 29603436}, {"y": 43.6562716, "x": -79.3922563, "street_count": 3, "id": 29604716}, {"y": 43.6553048, "x": -79.3918483, "street_count": 3, "id": 29604750}, {"y": 43.6544866, "x": -79.3903124, "highway": "traffic_signals", "street_count": 4, "id": 29604800}, {"y": 43.6560348, "x": -79.3909599, "street_count": 3, "id": 29604801}, {"y": 43.656221, "x": -79.3895914, "street_count": 3, "id": 29604854}, {"y": 43.656362, "x": -79.3888057, "highway": "traffic_signals", "street_count": 4, "id": 29604856}, {"y": 43.6573135, "x": -79.3843675, "highway": "traffic_signals", "street_count": 4, "id": 29604858}, {"y": 43.6579002, "x": -79.3815813, "street_count": 3, "id": 29604862}, {"y": 43.656306, "x": -79.389096, "highway": "traffic_signals", "street_count": 4, "id": 29604863}, {"y": 43.6569819, "x": -79.3858428, "highway": "stop", "street_count": 4, "id": 29604864}, {"y": 43.6546832, "x": -79.3892034, "street_count": 4, "id": 29604890}, {"y": 43.6473907, "x": -79.3860772, "highway": "traffic_signals", "street_count": 4, "id": 29604900}, {"y": 43.6506611, "x": -79.3874365, "street_count": 4, "id": 29604906}, {"y": 43.650984, "x": -79.3926536, "street_count": 3, "id": 29604953}, {"y": 43.6508736, "x": -79.3926114, "street_count": 3, "id": 29604987}, {"y": 43.651782, "x": -79.3929856, "street_count": 3, "id": 29604993}, {"y": 43.6580431, "x": -79.3930174, "street_count": 3, "id": 29604998}, {"y": 43.6584003, "x": -79.391405, "street_count": 3, "id": 29604999}, {"y": 43.6586771, "x": -79.3900853, "street_count": 3, "id": 29605000}, {"y": 43.6554915, "x": -79.3884449, "street_count": 4, "id": 29605004}, {"y": 43.6557227, "x": -79.3873969, "highway": "stop", "street_count": 3, "id": 29605005}, {"y": 43.655948, "x": -79.3862986, "highway": "stop", "street_count": 3, "id": 29605006}, {"y": 43.6561213, "x": -79.3854844, "highway": "stop", "street_count": 4, "id": 29605007}, {"y": 43.6564315, "x": -79.3840075, "street_count": 4, "id": 29605008}, {"y": 43.6570136, "x": -79.3812019, "street_count": 3, "id": 29605009}, {"y": 43.6552481, "x": -79.3860007, "highway": "traffic_signals", "street_count": 4, "id": 29605012}, {"y": 43.6530675, "x": -79.3877432, "highway": "traffic_signals", "street_count": 3, "id": 29605016}, {"y": 43.6531369, "x": -79.3874157, "highway": "traffic_signals", "street_count": 4, "id": 29605017}, {"y": 43.6533578, "x": -79.3864203, "street_count": 3, "id": 29605018}, {"y": 43.6543493, "x": -79.3831731, "street_count": 3, "id": 29605019}, {"y": 43.6526773, "x": -79.3780648, "highway": "traffic_signals", "street_count": 3, "id": 29605043}, {"y": 43.653175, "x": -79.3757559, "highway": "traffic_signals", "street_count": 4, "id": 29605048}, {"y": 43.6479381, "x": -79.3835551, "highway": "traffic_signals", "street_count": 4, "id": 29605051}, {"y": 43.6486561, "x": -79.3802633, "highway": "traffic_signals", "street_count": 4, "id": 29605052}, {"y": 43.6491687, "x": -79.3778952, "highway": "traffic_signals", "street_count": 4, "id": 29605053}, {"y": 43.6469479, "x": -79.3881264, "street_count": 3, "id": 29605068}, {"y": 43.6494196, "x": -79.3767288, "street_count": 4, "id": 29605073}, {"y": 43.6495895, "x": -79.3759343, "street_count": 3, "id": 29605074}, {"y": 43.6473323, "x": -79.3796993, "highway": "traffic_signals", "street_count": 4, "id": 29687309}, {"y": 43.647847, "x": -79.3773465, "highway": "traffic_signals", "street_count": 4, "id": 29687510}, {"y": 43.6485317, "x": -79.3776314, "street_count": 4, "id": 29687514}, {"y": 43.6473153, "x": -79.39283, "highway": "traffic_signals", "street_count": 4, "id": 29687645}, {"y": 43.647585, "x": -79.3915493, "street_count": 4, "id": 29687646}, {"y": 43.6478582, "x": -79.3902564, "highway": "traffic_signals", "street_count": 4, "id": 29687647}, {"y": 43.6486472, "x": -79.3865899, "highway": "traffic_signals", "street_count": 4, "id": 29687649}, {"y": 43.6492007, "x": -79.3840769, "highway": "traffic_signals", "street_count": 4, "id": 29687652}, {"y": 43.649922, "x": -79.3807854, "highway": "traffic_signals", "street_count": 4, "id": 29687653}, {"y": 43.6504286, "x": -79.3784274, "highway": "traffic_signals", "street_count": 4, "id": 29687654}, {"y": 43.6506911, "x": -79.3772254, "highway": "traffic_signals", "street_count": 4, "id": 29687655}, {"y": 43.6511815, "x": -79.3749231, "highway": "traffic_signals", "street_count": 4, "id": 29687656}, {"y": 43.6519492, "x": -79.3777601, "highway": "traffic_signals", "street_count": 4, "id": 29687910}, {"y": 43.6524442, "x": -79.3754572, "highway": "traffic_signals", "street_count": 4, "id": 29687913}, {"y": 43.651693, "x": -79.378957, "highway": "traffic_signals", "street_count": 4, "id": 29687914}, {"y": 43.6511738, "x": -79.3813017, "highway": "traffic_signals", "street_count": 4, "id": 29687983}, {"y": 43.6501172, "x": -79.3861106, "street_count": 4, "id": 29687984}, {"y": 43.6500485, "x": -79.3864436, "street_count": 4, "id": 29687985}, {"y": 43.6499017, "x": -79.3871068, "highway": "traffic_signals", "street_count": 4, "id": 29687986}, {"y": 43.650878, "x": -79.3826374, "street_count": 3, "id": 29688108}, {"y": 43.6496354, "x": -79.3821157, "highway": "traffic_signals", "street_count": 3, "id": 29688113}, {"y": 43.6502959, "x": -79.3824041, "street_count": 3, "id": 29688115}, {"y": 43.6505684, "x": -79.3810496, "street_count": 4, "id": 29688116}, {"y": 43.6510544, "x": -79.3786887, "street_count": 3, "id": 29688117}, {"y": 43.6474604, "x": -79.3757534, "street_count": 4, "id": 29688195}, {"y": 43.6529252, "x": -79.3769181, "street_count": 3, "id": 29688214}, {"y": 43.65298, "x": -79.3766606, "street_count": 3, "id": 29688316}, {"y": 43.6522474, "x": -79.3763708, "street_count": 3, "id": 29688356}, {"y": 43.651315, "x": -79.3774891, "street_count": 3, "id": 29688400}, {"y": 43.6518121, "x": -79.375187, "street_count": 4, "id": 29688401}, {"y": 43.6540748, "x": -79.379956, "highway": "traffic_signals", "street_count": 3, "id": 29688406}, {"y": 43.6543343, "x": -79.3787584, "highway": "traffic_signals", "street_count": 4, "id": 29688407}, {"y": 43.6545848, "x": -79.3776028, "street_count": 4, "id": 29688408}, {"y": 43.654823, "x": -79.37644, "highway": "traffic_signals", "street_count": 4, "id": 29688409}, {"y": 43.6551462, "x": -79.3749594, "street_count": 4, "id": 29688440}, {"y": 43.659872, "x": -79.3785221, "highway": "traffic_signals", "street_count": 4, "id": 29688909}, {"y": 43.6601973, "x": -79.3770318, "street_count": 4, "id": 29689090}, {"y": 43.6568287, "x": -79.3756445, "street_count": 4, "id": 29689091}, {"y": 43.6550109, "x": -79.3871189, "street_count": 4, "id": 29689374}, {"y": 43.6540691, "x": -79.3845784, "highway": "crossing", "street_count": 2, "id": 29689403}, {"y": 43.6574058, "x": -79.3813623, "highway": "traffic_signals", "street_count": 3, "id": 29689427}, {"y": 43.6582057, "x": -79.3778382, "highway": "traffic_signals", "street_count": 4, "id": 29689435}, {"y": 43.6585323, "x": -79.3763451, "highway": "stop", "street_count": 3, "id": 29689436}, {"y": 43.6482719, "x": -79.3851746, "street_count": 4, "id": 29689521}, {"y": 43.6492616, "x": -79.3868413, "street_count": 3, "id": 29689630}, {"y": 43.6475694, "x": -79.3883857, "street_count": 4, "id": 29689631}, {"y": 43.6488135, "x": -79.3888912, "street_count": 4, "id": 29689664}, {"y": 43.6512061, "x": -79.3916284, "street_count": 3, "id": 29689691}, {"y": 43.647219, "x": -79.3899968, "street_count": 3, "id": 29689856}, {"y": 43.6488346, "x": -79.39204, "street_count": 3, "id": 29689896}, {"y": 43.6543099, "x": -79.391436, "highway": "traffic_signals", "street_count": 4, "id": 29696843}, {"y": 43.6524274, "x": -79.3906433, "street_count": 3, "id": 29696847}, {"y": 43.6501616, "x": -79.3896957, "highway": "traffic_signals", "street_count": 3, "id": 29696849}, {"y": 43.6502163, "x": -79.3894458, "street_count": 3, "id": 29696856}, {"y": 43.64965, "x": -79.3921149, "street_count": 3, "id": 29696858}, {"y": 43.6512075, "x": -79.3849099, "highway": "traffic_signals", "street_count": 3, "id": 29824488}, {"y": 43.6508031, "x": -79.3867757, "highway": "traffic_signals", "street_count": 4, "id": 32547297}, {"y": 43.6508759, "x": -79.3864385, "highway": "traffic_signals", "street_count": 4, "id": 32547299}, {"y": 43.6504, "x": -79.3885964, "highway": "traffic_signals", "street_count": 3, "id": 32547805}, {"y": 43.6522469, "x": -79.3915264, "street_count": 1, "id": 33072019}, {"y": 43.6494561, "x": -79.3891439, "highway": "traffic_signals", "street_count": 4, "id": 34520379}, {"y": 43.6504443, "x": -79.3845957, "highway": "traffic_signals", "street_count": 4, "id": 34520976}, {"y": 43.6480192, "x": -79.3863298, "street_count": 4, "id": 34598911}, {"y": 43.6489725, "x": -79.3788026, "street_count": 3, "id": 34599795}, {"y": 43.6481347, "x": -79.376045, "street_count": 4, "id": 34600105}, {"y": 43.6482059, "x": -79.3886478, "highway": "traffic_signals", "street_count": 4, "id": 34600545}, {"y": 43.6548264, "x": -79.3881498, "highway": "traffic_signals", "street_count": 4, "id": 34600564}, {"y": 43.6561619, "x": -79.3904207, "highway": "stop", "street_count": 3, "id": 34935422}, {"y": 43.6558093, "x": -79.3920588, "highway": "stop", "street_count": 3, "id": 34936037}, {"y": 43.6491089, "x": -79.3907692, "highway": "traffic_signals", "street_count": 4, "id": 35506002}, {"y": 43.6554283, "x": -79.3887388, "street_count": 3, "id": 36607360}, {"y": 43.6548125, "x": -79.3884748, "highway": "traffic_signals", "street_count": 4, "id": 42606444}, {"y": 43.6521881, "x": -79.3893337, "street_count": 3, "id": 42606702}, {"y": 43.6524284, "x": -79.3882443, "street_count": 3, "id": 42606707}, {"y": 43.6582588, "x": -79.3896571, "street_count": 3, "id": 42606787}, {"y": 43.6582088, "x": -79.3898871, "street_count": 3, "id": 42606791}, {"y": 43.6580943, "x": -79.3846917, "street_count": 4, "id": 49626773}, {"y": 43.6545585, "x": -79.3848206, "street_count": 3, "id": 52922240}, {"y": 43.6546952, "x": -79.3842028, "street_count": 1, "id": 52922360}, {"y": 43.6510283, "x": -79.387657, "street_count": 1, "id": 53542240}, {"y": 43.6520917, "x": -79.3881068, "street_count": 1, "id": 53542265}, {"y": 43.6475295, "x": -79.3854334, "street_count": 3, "id": 53542727}, {"y": 43.6484703, "x": -79.3905077, "street_count": 3, "id": 53544119}, {"y": 43.6515005, "x": -79.3902556, "street_count": 3, "id": 71851479}, {"y": 43.6592594, "x": -79.3900868, "street_count": 3, "id": 87486205}, {"y": 43.6592144, "x": -79.3903178, "street_count": 3, "id": 87486207}, {"y": 43.6558087, "x": -79.385354, "street_count": 2, "id": 118417191}, {"y": 43.658338, "x": -79.3772327, "street_count": 3, "id": 211893012}, {"y": 43.6566347, "x": -79.3765393, "street_count": 4, "id": 211893022}, {"y": 43.6549485, "x": -79.3758445, "street_count": 4, "id": 211893027}, {"y": 43.6585721, "x": -79.3824576, "street_count": 1, "id": 246692483}, {"y": 43.6586839, "x": -79.381916, "street_count": 3, "id": 246692484}, {"y": 43.6577635, "x": -79.3861874, "street_count": 3, "id": 246692508}, {"y": 43.6590761, "x": -79.3859723, "street_count": 3, "id": 246693663}, {"y": 43.6583343, "x": -79.3856719, "street_count": 3, "id": 246693686}, {"y": 43.6583252, "x": -79.3835784, "street_count": 1, "id": 246696320}, {"y": 43.6533002, "x": -79.3751699, "street_count": 3, "id": 247703269}, {"y": 43.6557204, "x": -79.3806501, "street_count": 3, "id": 253937384}, {"y": 43.6559964, "x": -79.3794448, "street_count": 3, "id": 253937395}, {"y": 43.6571236, "x": -79.3786554, "street_count": 2, "id": 253939672}, {"y": 43.6508556, "x": -79.3764484, "street_count": 3, "id": 254213720}, {"y": 43.6487666, "x": -79.3763991, "highway": "stop", "street_count": 4, "id": 261717936}, {"y": 43.6501398, "x": -79.3761593, "street_count": 3, "id": 261718260}, {"y": 43.6504705, "x": -79.3746266, "street_count": 3, "id": 261718261}, {"y": 43.6503539, "x": -79.3751669, "street_count": 3, "id": 261718266}, {"y": 43.650259, "x": -79.3756071, "street_count": 3, "id": 261718274}, {"y": 43.6597388, "x": -79.3823863, "street_count": 2, "id": 280889321}, {"y": 43.6509055, "x": -79.3793611, "street_count": 2, "id": 281662170}, {"y": 43.6468448, "x": -79.3769687, "street_count": 3, "id": 394497183}, {"y": 43.6468988, "x": -79.3851663, "street_count": 2, "id": 766943640}, {"y": 43.6569918, "x": -79.379881, "street_count": 1, "id": 878180300}, {"y": 43.6526265, "x": -79.3765186, "street_count": 2, "id": 966533338}, {"y": 43.6498681, "x": -79.3910833, "highway": "traffic_signals", "street_count": 4, "id": 1550992510}, {"y": 43.6485617, "x": -79.3838115, "street_count": 3, "id": 1551000507}, {"y": 43.652981, "x": -79.382636, "highway": "traffic_signals", "street_count": 3, "id": 1551002988}, {"y": 43.6592465, "x": -79.3851749, "street_count": 3, "id": 1553140355}, {"y": 43.6517374, "x": -79.3824571, "street_count": 3, "id": 1889248811}, {"y": 43.6522794, "x": -79.3823566, "street_count": 3, "id": 1889248857}, {"y": 43.6575581, "x": -79.3806472, "street_count": 1, "id": 4316556721}, {"y": 43.6540078, "x": -79.3814785, "street_count": 1, "id": 6431753659}, {"y": 43.6559279, "x": -79.3797534, "street_count": 2, "id": 6532307725}, {"y": 43.6570744, "x": -79.3767302, "street_count": 2, "id": 7477429111}, {"y": 43.6579578, "x": -79.3789954, "street_count": 3, "id": 8369441207}, {"y": 43.6579459, "x": -79.379053, "street_count": 1, "id": 11209519155}], "links": [{"osmid": 4212258, "lanes": "2", "name": "Gerrard Street West", "highway": "tertiary", "maxspeed": "40", "oneway": false, "reversed": true, "length": 19.577, "source": 20979760, "target": 20979761}, {"osmid": 5686884, "oneway": true, "lanes": "2", "name": "University Avenue", "highway": "secondary", "maxspeed": "40", "reversed": false, "length": 141.86999999999998, "source": 20979760, "target": 29604863}, {"osmid": 22891216, "oneway": true, "lanes": "2", "name": "University Avenue", "highway": "secondary", "maxspeed": "50", "reversed": false, "length": 79.09200000000001, "source": 20979760, "target": 42606791}, {"osmid": 4000043, "oneway": true, "lanes": "2", "name": "University Avenue", "highway": "secondary", "maxspeed": "50", "reversed": false, "length": 79.27000000000001, "source": 20979761, "target": 42606787}, {"osmid": 4212258, "lanes": "2", "name": "Gerrard Street West", "highway": "tertiary", "maxspeed": "40", "oneway": false, "reversed": true, "length": 249.60999999999999, "source": 20979761, "target": 24959516}, {"osmid": 24222086, "oneway": true, "lanes": "2", "name": "University Avenue", "highway": "secondary", "maxspeed": "40", "reversed": false, "length": 142.51, "source": 20979761, "target": 29604856}, {"osmid": 33002811, "name": "College Street", "highway": "secondary", "maxspeed": "40", "oneway": false, "reversed": true, "length": 20.65, "source": 21436517, "target": 21436518}, {"osmid": [22891216, 444741638], "oneway": true, "lanes": ["2", "3"], "name": "University Avenue", "highway": "secondary", "maxspeed": "50", "reversed": false, "length": 71.506, "source": 21436517, "target": 87486207}, {"osmid": 33002810, "oneway": true, "lanes": "3", "name": "University Avenue", "highway": "secondary", "maxspeed": "50", "reversed": false, "length": 71.933, "source": 21436518, "target": 87486205}, {"osmid": 10390227, "lanes": "2", "name": "Elizabeth Street", "highway": "unclassified", "oneway": false, "reversed": true, "length": 49.253, "source": 24959516, "target": 246692508}, {"osmid": 10390228, "lanes": "3", "name": "Gerrard Street West", "highway": "tertiary", "maxspeed": "40", "oneway": false, "reversed": true, "length": 58.808, "source": 24959516, "target": 246693686}, {"osmid": 248101310, "lanes": "4", "name": "Church Street", "highway": "tertiary", "maxspeed": "30", "oneway": false, "reversed": true, "length": 195.23199999999997, "source": 25628759, "target": 29688409}, {"osmid": 248489460, "lanes": "4", "name": "Dundas Street East", "highway": "secondary", "maxspeed": "40", "oneway": false, "reversed": true, "length": 49.991, "source": 25628759, "target": 211893022}, {"osmid": [446998088, 35159934, 446998087], "lanes": "4", "name": "Dundas Street East", "highway": "secondary", "maxspeed": "40", "oneway": false, "reversed": false, "length": 97.808, "source": 25628759, "target": 26240549}, {"osmid": 1208975720, "lanes": "4", "name": "Church Street", "highway": "tertiary", "maxspeed": "30", "oneway": false, "reversed": false, "length": 197.37400000000005, "source": 25628759, "target": 29689435}, {"osmid": 42332880, "lanes": "5", "name": "Front Street West", "highway": "secondary", "oneway": false, "reversed": false, "length": 3.341, "source": 25628764, "target": 394497183}, {"osmid": 24221148, "lanes": "4", "name": "Yonge Street", "highway": "primary", "maxspeed": "40", "oneway": false, "reversed": true, "length": 113.586, "source": 25628764, "target": 29687510}, {"osmid": 25714334, "oneway": true, "lanes": "3", "name": "Front Street East", "highway": "secondary", "maxspeed": "40", "reversed": false, "length": 116.424, "source": 25628764, "target": 29688195}, {"osmid": 6694659, "lanes": "2", "highway": "secondary_link", "oneway": false, "reversed": true, "length": 28.49, "source": 26240367, "target": 26240572}, {"osmid": 62058054, "oneway": true, "lanes": "1", "name": "University Avenue", "highway": "secondary", "maxspeed": "40", "reversed": false, "length": 91.264, "source": 26240367, "target": 29605017}, {"osmid": 35565361, "oneway": true, "lanes": "1", "name": "University Avenue", "highway": "secondary", "maxspeed": "40", "reversed": false, "length": 172.161, "source": 26240367, "target": 32547299}, {"osmid": 4321248, "lanes": "4", "name": "Dundas Street East", "highway": "secondary", "maxspeed": "40", "oneway": false, "reversed": false, "length": 111.82, "source": 26240542, "target": 29603223}, {"osmid": [446999755, 35159933, 446999759], "lanes": "4", "name": "Dundas Street East", "highway": "secondary", "maxspeed": "40", "oneway": false, "reversed": true, "length": 107.05799999999999, "source": 26240542, "target": 26240549}, {"osmid": 35159935, "lanes": "2", "name": "Victoria Street", "highway": "tertiary", "maxspeed": "30", "oneway": false, "reversed": false, "length": 35.191, "source": 26240542, "target": 253937395}, {"osmid": 35159936, "lanes": "2", "name": "Victoria Street", "highway": "living_street", "oneway": false, "reversed": true, "length": 80.943, "source": 26240542, "target": 878180300}, {"osmid": 4321249, "lanes": "2", "name": "Bond Street", "highway": "residential", "maxspeed": "30", "oneway": false, "reversed": true, "length": 194.477, "source": 26240549, "target": 29688408}, {"osmid": 4321249, "lanes": "2", "name": "Bond Street", "highway": "residential", "maxspeed": "30", "oneway": false, "reversed": false, "length": 100.262, "source": 26240549, "target": 253939672}, {"osmid": 25822593, "oneway": true, "lanes": "3", "name": "University Avenue", "highway": "secondary", "maxspeed": "40", "reversed": false, "length": 146.037, "source": 26240563, "target": 29687984}, {"osmid": 36355963, "lanes": "4", "name": "University Avenue", "highway": "secondary", "maxspeed": "40", "oneway": false, "reversed": true, "length": 73.15700000000001, "source": 26240563, "target": 29689521}, {"osmid": 314651045, "oneway": true, "lanes": "3", "name": "Adelaide Street West", "highway": "secondary", "maxspeed": "40", "reversed": false, "length": 121.364, "source": 26240563, "target": 29687652}, {"osmid": 1188204205, "oneway": true, "lanes": "3", "name": "Adelaide Street West", "highway": "secondary", "maxspeed": "40", "reversed": false, "length": 89.991, "source": 26240563, "target": 29687649}, {"osmid": 21674178, "oneway": true, "lanes": "3", "name": "University Avenue", "highway": "secondary", "maxspeed": "40", "reversed": false, "length": 150.309, "source": 26240563, "target": 29687985}, {"osmid": 62058056, "oneway": true, "lanes": "3", "name": "University Avenue", "highway": "secondary", "maxspeed": "40", "reversed": false, "length": 171.714, "source": 26240572, "target": 32547297}, {"osmid": 220917994, "oneway": true, "lanes": "3", "name": "University Avenue", "highway": "secondary", "maxspeed": "40", "reversed": false, "length": 91.835, "source": 26240572, "target": 29605016}, {"osmid": 34121615, "lanes": "4", "name": "King Street West", "highway": "secondary", "maxspeed": "40", "oneway": false, "reversed": true, "length": 105.789, "source": 26240577, "target": 29605051}, {"osmid": 458513995, "lanes": "4", "name": "King Street West", "highway": "secondary", "maxspeed": "40", "oneway": false, "reversed": false, "length": 52.022, "source": 26240577, "target": 53542727}, {"osmid": 542553252, "lanes": "4", "name": "University Avenue", "highway": "secondary", "maxspeed": "40", "oneway": false, "reversed": false, "length": 73.56600000000002, "source": 26240577, "target": 29689521}, {"osmid": [220918245, 237887998, 1186126655], "lanes": ["5", "4"], "name": "Bay Street", "highway": "secondary", "maxspeed": "40", "oneway": false, "reversed": [false, true], "length": 160.40599999999998, "source": 29603222, "target": 29605019}, {"osmid": 220918438, "lanes": "4", "name": "Dundas Street West", "highway": "secondary", "maxspeed": "40", "oneway": false, "reversed": false, "length": 122.833, "source": 29603222, "target": 29603436}, {"osmid": [24221130, 446971621], "lanes": "4", "name": "Bay Street", "highway": "secondary", "maxspeed": "40", "oneway": false, "reversed": false, "length": 80.677, "source": 29603222, "target": 29605008}, {"osmid": [446971622, 220918439], "lanes": "4", "name": "Dundas Street West", "highway": "secondary", "maxspeed": "40", "oneway": false, "reversed": true, "length": 236.51, "source": 29603222, "target": 29603223}, {"osmid": 30327576, "lanes": "4", "name": "Yonge Street", "highway": "primary", "maxspeed": "40", "oneway": false, "reversed": true, "length": 78.73700000000001, "source": 29603223, "target": 29605009}, {"osmid": 34545779, "lanes": "4", "name": "Yonge Street", "highway": "primary", "maxspeed": "40", "oneway": false, "reversed": false, "length": 71.757, "source": 29603223, "target": 253937384}, {"osmid": 35155371, "lanes": "4", "name": "Bay Street", "highway": "secondary", "maxspeed": "40", "oneway": false, "reversed": true, "length": 88.659, "source": 29603229, "target": 29687983}, {"osmid": 233396010, "lanes": "4", "name": "Bay Street", "highway": "secondary", "maxspeed": "40", "oneway": false, "reversed": false, "length": 70.736, "source": 29603229, "target": 1889248857}, {"osmid": 446784162, "lanes": "4", "name": "Queen Street West", "highway": "secondary", "oneway": false, "reversed": false, "length": 60.586999999999996, "source": 29603229, "target": 1889248811}, {"osmid": 30979256, "lanes": "4", "name": "Bay Street", "highway": "secondary", "maxspeed": "40", "oneway": false, "reversed": true, "length": 48.18, "source": 29603262, "target": 49626773}, {"osmid": 229439553, "lanes": "4", "name": "Bay Street", "highway": "secondary", "maxspeed": "40", "oneway": false, "reversed": false, "length": 85.709, "source": 29603262, "target": 1553140355}, {"osmid": 229439554, "lanes": "2", "name": "Gerrard Street West", "highway": "tertiary", "maxspeed": "40", "oneway": false, "reversed": false, "length": 68.018, "source": 29603262, "target": 246693686}, {"osmid": [229439555, 444707653, 888762238, 888762239], "lanes": "2", "name": "Gerrard Street West", "highway": "tertiary", "maxspeed": "40", "oneway": false, "reversed": true, "length": 231.73800000000003, "source": 29603262, "target": 29603320}, {"osmid": 4847551, "lanes": "4", "name": "Gerrard Street East", "highway": "tertiary", "maxspeed": "40", "oneway": false, "reversed": true, "length": 300.315, "source": 29603320, "target": 29688909}, {"osmid": 30327576, "lanes": "4", "name": "Yonge Street", "highway": "primary", "maxspeed": "40", "oneway": false, "reversed": false, "length": 48.257000000000005, "source": 29603320, "target": 246692484}, {"osmid": [30979310, 444707654], "lanes": "4", "name": "Yonge Street", "highway": "primary", "maxspeed": "40", "oneway": false, "reversed": true, "length": 75.0, "source": 29603320, "target": 280889321}, {"osmid": 5686883, "lanes": "4", "name": "Dundas Street West", "highway": "secondary", "maxspeed": "40", "oneway": false, "reversed": false, "length": 67.327, "source": 29603436, "target": 29605012}, {"osmid": [12906873, 689943772], "lanes": "2", "name": "Elizabeth Street", "highway": "unclassified", "oneway": false, "reversed": true, "length": 100.56700000000002, "maxspeed": "30", "source": 29603436, "target": 52922240}, {"osmid": [234364949, 12907381, 689943774], "oneway": true, "lanes": ["2", "1"], "name": "Elizabeth Street", "highway": "unclassified", "reversed": false, "length": 44.934, "source": 29603436, "target": 118417191}, {"osmid": 133596276, "lanes": "2", "name": "McCaul Street", "highway": "tertiary", "oneway": false, "reversed": true, "length": 53.805, "source": 29604716, "target": 34936037}, {"osmid": 133596276, "lanes": "2", "name": "McCaul Street", "highway": "tertiary", "oneway": false, "reversed": false, "length": 206.285, "source": 29604716, "target": 29604998}, {"osmid": 133596276, "lanes": "2", "name": "McCaul Street", "highway": "tertiary", "oneway": false, "reversed": false, "length": 58.599999999999994, "source": 29604750, "target": 34936037}, {"osmid": [222151620, 222151621, 1176470383], "lanes": "2", "name": "McCaul Street", "highway": "tertiary", "oneway": false, "reversed": true, "length": 115.50300000000001, "source": 29604750, "target": 29696843}, {"osmid": 4652040, "lanes": "2", "name": "St. Patrick Street", "highway": "residential", "oneway": false, "reversed": false, "length": 267.439, "source": 29604800, "target": 42606702}, {"osmid": 222151618, "oneway": false, "lanes": "4", "name": "Dundas Street West", "highway": "secondary", "maxspeed": "40", "reversed": true, "length": 92.45100000000001, "source": 29604800, "target": 29604890}, {"osmid": 222151618, "oneway": false, "lanes": "4", "name": "Dundas Street West", "highway": "secondary", "maxspeed": "40", "reversed": false, "length": 93.488, "source": 29604800, "target": 29696843}, {"osmid": [301674585, 5686881], "oneway": true, "lanes": ["2", "1"], "name": "St. Patrick Street", "highway": "residential", "reversed": false, "length": 179.866, "source": 29604800, "target": 29604801}, {"osmid": 4652041, "oneway": false, "lanes": "2", "name": "Elm Street", "highway": "tertiary", "reversed": true, "length": 45.623000000000005, "source": 29604801, "target": 34935422}, {"osmid": 4652041, "oneway": false, "lanes": "2", "name": "Elm Street", "highway": "tertiary", "reversed": false, "length": 91.89399999999999, "source": 29604801, "target": 34936037}, {"osmid": 4652041, "oneway": false, "lanes": "2", "name": "Elm Street", "highway": "tertiary", "reversed": true, "length": 40.96, "source": 29604854, "target": 29604863}, {"osmid": 4652041, "oneway": false, "lanes": "2", "name": "Elm Street", "highway": "tertiary", "reversed": false, "length": 68.144, "source": 29604854, "target": 34935422}, {"osmid": 5686879, "oneway": true, "lanes": "1", "name": "Simcoe Street", "highway": "residential", "maxspeed": "30", "reversed": false, "length": 185.887, "source": 29604854, "target": 29604890}, {"osmid": 61760485, "lanes": "2", "name": "Elm Street", "highway": "tertiary", "oneway": false, "reversed": false, "length": 24.17, "source": 29604856, "target": 29604863}, {"osmid": 5105841, "lanes": "2", "name": "Elm Street", "highway": "tertiary", "oneway": false, "reversed": true, "length": 248.129, "source": 29604856, "target": 29604864}, {"osmid": 61760483, "oneway": true, "lanes": "2", "name": "University Avenue", "highway": "secondary", "maxspeed": "40", "reversed": false, "length": 101.054, "source": 29604856, "target": 29605004}, {"osmid": 5105840, "lanes": "2", "name": "Elm Street", "highway": "tertiary", "oneway": false, "reversed": false, "length": 124.28, "source": 29604858, "target": 29604864}, {"osmid": 24221125, "lanes": "4", "name": "Bay Street", "highway": "secondary", "maxspeed": "40", "oneway": false, "reversed": true, "length": 102.261, "source": 29604858, "target": 29605008}, {"osmid": 30979258, "lanes": "4", "name": "Bay Street", "highway": "secondary", "maxspeed": "40", "oneway": false, "reversed": false, "length": 90.655, "source": 29604858, "target": 49626773}, {"osmid": [24221134, 458026975], "lanes": "2", "name": "Elm Street", "highway": "unclassified", "oneway": false, "reversed": true, "length": 233.634, "maxspeed": "30", "source": 29604858, "target": 29604862}, {"osmid": 30327576, "lanes": "4", "name": "Yonge Street", "highway": "primary", "maxspeed": "40", "oneway": false, "reversed": true, "length": 91.208, "source": 29604862, "target": 246692484}, {"osmid": 30327576, "lanes": "4", "name": "Yonge Street", "highway": "primary", "maxspeed": "40", "oneway": false, "reversed": false, "length": 57.729, "source": 29604862, "target": 29689427}, {"osmid": 61760484, "oneway": true, "lanes": "2", "name": "University Avenue", "highway": "secondary", "maxspeed": "40", "reversed": false, "length": 101.738, "source": 29604863, "target": 36607360}, {"osmid": 10390227, "lanes": "2", "name": "Elizabeth Street", "highway": "unclassified", "oneway": false, "reversed": false, "length": 91.224, "source": 29604864, "target": 246692508}, {"osmid": 24221132, "lanes": "2", "name": "Elizabeth Street", "highway": "unclassified", "maxspeed": "30", "oneway": false, "reversed": true, "length": 99.948, "source": 29604864, "target": 29605007}, {"osmid": 222151618, "oneway": false, "lanes": "4", "name": "Dundas Street West", "highway": "secondary", "maxspeed": "40", "reversed": true, "length": 60.575, "source": 29604890, "target": 42606444}, {"osmid": 5686882, "oneway": true, "lanes": "1", "name": "Simcoe Street", "highway": "residential", "reversed": false, "length": 262.33700000000005, "source": 29604890, "target": 42606707}, {"osmid": 34121613, "lanes": "4", "name": "King Street West", "highway": "secondary", "maxspeed": "40", "oneway": false, "reversed": false, "length": 172.07899999999998, "source": 29604900, "target": 29605068}, {"osmid": 34121614, "lanes": "4", "name": "King Street West", "highway": "secondary", "maxspeed": "40", "oneway": false, "reversed": true, "length": 54.051, "source": 29604900, "target": 53542727}, {"osmid": 34121616, "oneway": true, "lanes": "2", "name": "Simcoe Street", "highway": "tertiary", "maxspeed": "40", "reversed": false, "length": 72.78099999999999, "source": 29604900, "target": 34598911}, {"osmid": 4652045, "oneway": true, "lanes": "2", "name": "Simcoe Street", "highway": "tertiary", "reversed": false, "length": 88.515, "source": 29604906, "target": 29687986}, {"osmid": 6694657, "oneway": true, "lanes": "1", "name": "Simcoe Street", "highway": "living_street", "reversed": false, "length": 45.089999999999996, "source": 29604906, "target": 53542240}, {"osmid": 64370254, "lanes": "4", "name": "Queen Street West", "highway": "secondary", "maxspeed": "40", "oneway": false, "reversed": true, "length": 55.461, "source": 29604906, "target": 32547297}, {"osmid": 64370254, "lanes": "4", "name": "Queen Street West", "highway": "secondary", "maxspeed": "40", "oneway": false, "reversed": false, "length": 97.73400000000001, "source": 29604906, "target": 32547805}, {"osmid": 10070564, "lanes": "2", "name": "Beverley Street", "highway": "tertiary", "maxspeed": "30", "oneway": false, "reversed": true, "length": 12.737, "source": 29604953, "target": 29604987}, {"osmid": 4675957, "oneway": true, "lanes": "1", "name": "Stephanie Street", "highway": "residential", "maxspeed": "30", "reversed": false, "length": 86.10199999999999, "source": 29604953, "target": 29689691}, {"osmid": 10070564, "lanes": "2", "name": "Beverley Street", "highway": "tertiary", "maxspeed": "30", "oneway": false, "reversed": false, "length": 92.667, "source": 29604953, "target": 29604993}, {"osmid": [355796009, 355796010, 10070564], "lanes": ["2", "3"], "name": "Beverley Street", "highway": "tertiary", "maxspeed": "30", "oneway": false, "reversed": true, "length": 141.83, "source": 29604987, "target": 29696858}, {"osmid": 4652064, "oneway": true, "lanes": "1", "name": "Orde Street", "highway": "unclassified", "reversed": false, "length": 135.667, "source": 29604998, "target": 29604999}, {"osmid": 5686880, "oneway": true, "lanes": "1", "name": "Orde Street", "highway": "unclassified", "reversed": false, "length": 110.565, "source": 29604999, "target": 29605000}, {"osmid": 218186575, "lanes": "2", "name": "Murray Street", "highway": "residential", "oneway": false, "reversed": true, "length": 261.191, "source": 29604999, "target": 34935422}, {"osmid": 22891216, "oneway": true, "lanes": "2", "name": "University Avenue", "highway": "secondary", "maxspeed": "50", "reversed": false, "length": 54.459, "source": 29605000, "target": 42606791}, {"osmid": 22891216, "oneway": true, "lanes": "2", "name": "University Avenue", "highway": "secondary", "maxspeed": "50", "reversed": false, "length": 62.604, "source": 29605000, "target": 87486207}, {"osmid": 5213460, "lanes": "2", "name": "Edward Street", "highway": "unclassified", "oneway": false, "reversed": true, "length": 88.14500000000001, "source": 29605004, "target": 29605005}, {"osmid": 538037286, "lanes": "2", "name": "Edward Street", "highway": "unclassified", "oneway": false, "reversed": false, "length": 24.666, "source": 29605004, "target": 36607360}, {"osmid": 5686885, "oneway": true, "lanes": "3", "name": "University Avenue", "highway": "secondary", "maxspeed": "40", "reversed": false, "length": 77.68299999999999, "source": 29605004, "target": 34600564}, {"osmid": 5213460, "lanes": "2", "name": "Edward Street", "highway": "unclassified", "oneway": false, "reversed": true, "length": 91.843, "source": 29605005, "target": 29605006}, {"osmid": 969625974, "oneway": true, "lanes": "1", "name": "Centre Avenue", "highway": "residential", "reversed": false, "length": 82.282, "source": 29605005, "target": 29689374}, {"osmid": [4652070, 847811567], "lanes": "4", "name": "Chestnut Street", "highway": "residential", "oneway": false, "reversed": true, "length": 81.431, "source": 29605006, "target": 29605012}, {"osmid": 1187395322, "lanes": "2", "name": "Edward Street", "highway": "unclassified", "oneway": false, "reversed": true, "length": 68.278, "source": 29605006, "target": 29605007}, {"osmid": [689943872, 24221128], "lanes": "2", "name": "Edward Street", "highway": "unclassified", "oneway": false, "reversed": true, "length": 123.734, "source": 29605007, "target": 29605008}, {"osmid": 24221133, "lanes": "2", "name": "Elizabeth Street", "highway": "unclassified", "oneway": false, "reversed": true, "length": 36.31, "source": 29605007, "target": 118417191}, {"osmid": [586135989, 689943870], "lanes": "2", "name": "Edward Street", "highway": "unclassified", "maxspeed": ["30", "40"], "oneway": false, "reversed": true, "length": 234.82399999999996, "source": 29605008, "target": 29605009}, {"osmid": 30327576, "lanes": "4", "name": "Yonge Street", "highway": "primary", "maxspeed": "40", "oneway": false, "reversed": true, "length": 45.48, "source": 29605009, "target": 29689427}, {"osmid": [4652070, 4652071], "lanes": ["2", "4"], "name": ["Armoury Street", "Chestnut Street"], "highway": "residential", "oneway": false, "reversed": [false, true], "length": 263.22799999999995, "source": 29605012, "target": 29605018}, {"osmid": 5686883, "lanes": "4", "name": "Dundas Street West", "highway": "secondary", "maxspeed": "40", "oneway": false, "reversed": false, "length": 93.747, "source": 29605012, "target": 29689374}, {"osmid": 847811568, "lanes": "2", "name": "Armoury Street", "highway": "residential", "oneway": false, "reversed": true, "length": 27.455, "source": 29605016, "target": 29605017}, {"osmid": 5080129, "oneway": true, "lanes": "3", "name": "University Avenue", "highway": "secondary", "maxspeed": "40", "reversed": false, "length": 202.768, "source": 29605016, "target": 42606444}, {"osmid": 4652071, "lanes": "2", "name": "Armoury Street", "highway": "residential", "oneway": false, "reversed": true, "length": 83.77399999999999, "source": 29605017, "target": 29605018}, {"osmid": 223420013, "oneway": true, "lanes": "3", "name": "University Avenue", "highway": "secondary", "maxspeed": "40", "reversed": false, "length": 196.934, "source": 29605017, "target": 34600564}, {"osmid": 4674805, "lanes": "2", "name": "Centre Avenue", "highway": "residential", "maxspeed": "30", "oneway": false, "reversed": true, "length": 192.25599999999997, "source": 29605018, "target": 29689374}, {"osmid": [233396011, 237888210, 237888211, 237888004], "lanes": ["5", "4"], "name": "Bay Street", "highway": "secondary", "maxspeed": "40", "oneway": false, "reversed": [false, true], "length": 158.17499999999998, "source": 29605019, "target": 1551002988}, {"osmid": 4674854, "oneway": true, "lanes": "1", "name": "Hagerman Street", "highway": "unclassified", "maxspeed": "30", "reversed": false, "length": 117.747, "source": 29605019, "target": 29689403}, {"osmid": 25795349, "lanes": "2", "name": "Victoria Street", "highway": "tertiary", "maxspeed": "30", "oneway": false, "reversed": false, "length": 84.59199999999998, "source": 29605043, "target": 29687910}, {"osmid": [458503767, 33651799], "lanes": "4", "name": "Queen Street East", "highway": "secondary", "maxspeed": "40", "oneway": false, "reversed": true, "length": 96.28800000000003, "source": 29605043, "target": 29688214}, {"osmid": 458503768, "lanes": "2", "name": "Victoria Street", "highway": "tertiary", "maxspeed": "30", "oneway": false, "reversed": true, "length": 192.51700000000002, "source": 29605043, "target": 29688407}, {"osmid": 33651799, "lanes": "4", "name": "Queen Street East", "highway": "secondary", "maxspeed": "40", "oneway": false, "reversed": false, "length": 75.947, "source": 29605048, "target": 29688316}, {"osmid": 248101310, "lanes": "4", "name": "Church Street", "highway": "tertiary", "maxspeed": "30", "oneway": false, "reversed": false, "length": 191.33799999999997, "source": 29605048, "target": 29688409}, {"osmid": 1168168596, "lanes": "4", "name": "Queen Street East", "highway": "secondary", "maxspeed": "40", "oneway": false, "reversed": true, "length": 49.158, "source": 29605048, "target": 247703269}, {"osmid": 1168168597, "lanes": "4", "name": "Church Street", "highway": "tertiary", "maxspeed": "30", "oneway": false, "reversed": true, "length": 84.745, "source": 29605048, "target": 29687913}, {"osmid": [404138420, 34109830], "lanes": "4", "name": "King Street West", "highway": "secondary", "oneway": false, "reversed": true, "length": 276.63, "maxspeed": "40", "source": 29605051, "target": 29605052}, {"osmid": 404138421, "oneway": true, "lanes": "4", "name": "York Street", "highway": "tertiary", "maxspeed": "40", "reversed": false, "length": 72.34700000000001, "source": 29605051, "target": 1551000507}, {"osmid": 34109831, "lanes": "4", "name": "King Street West", "highway": "secondary", "oneway": false, "reversed": true, "length": 122.68, "source": 29605052, "target": 34599795}, {"osmid": 34109833, "lanes": "4", "name": "Bay Street", "highway": "secondary", "maxspeed": "40", "oneway": false, "reversed": false, "length": 146.897, "source": 29605052, "target": 29687653}, {"osmid": 34109834, "lanes": "4", "name": "Bay Street", "highway": "secondary", "maxspeed": "40", "oneway": false, "reversed": true, "length": 154.036, "source": 29605052, "target": 29687309}, {"osmid": 9423182, "lanes": "4", "name": "King Street East", "highway": "secondary", "maxspeed": "40", "oneway": false, "reversed": true, "length": 97.906, "source": 29605053, "target": 29605073}, {"osmid": 34109832, "lanes": "4", "name": "King Street West", "highway": "secondary", "maxspeed": "40", "oneway": false, "reversed": false, "length": 76.19800000000001, "source": 29605053, "target": 34599795}, {"osmid": 45155110, "lanes": "4", "name": "Yonge Street", "highway": "primary", "maxspeed": "40", "oneway": false, "reversed": false, "length": 73.943, "source": 29605053, "target": 29687514}, {"osmid": 45155111, "lanes": "4", "name": "Yonge Street", "highway": "primary", "maxspeed": "40", "oneway": false, "reversed": true, "length": 146.493, "source": 29605053, "target": 29687654}, {"osmid": 5085196, "lanes": "2", "name": "Ed Mirvish Way", "highway": "residential", "oneway": false, "reversed": true, "length": 72.191, "source": 29605068, "target": 29689631}, {"osmid": 62058564, "lanes": "4", "name": "King Street East", "highway": "secondary", "oneway": false, "reversed": true, "length": 66.657, "source": 29605073, "target": 29605074}, {"osmid": [62058555, 868914747, 868914748, 871754373], "oneway": true, "lanes": "1", "name": "Victoria Street", "highway": "residential", "reversed": false, "length": 147.031, "source": 29605073, "target": 29687655}, {"osmid": 25365934, "oneway": true, "lanes": "1", "name": "Victoria Street", "highway": "residential", "reversed": false, "length": 78.80300000000001, "source": 29605073, "target": 261717936}, {"osmid": [62058569, 365883396, 868914743], "lanes": "2", "name": "Toronto Street", "highway": "unclassified", "maxspeed": "30", "oneway": false, "reversed": false, "length": 63.816, "source": 29605074, "target": 261718260}, {"osmid": 133669149, "oneway": true, "lanes": "4", "name": "Wellington Street West", "highway": "tertiary", "maxspeed": "40", "reversed": false, "length": 197.774, "source": 29687309, "target": 29687510}, {"osmid": 551965788, "lanes": "4", "name": "Yonge Street", "highway": "primary", "maxspeed": "40", "oneway": false, "reversed": true, "length": 79.51199999999999, "source": 29687510, "target": 29687514}, {"osmid": 468563690, "oneway": true, "lanes": "3", "name": "Wellington Street East", "highway": "secondary", "maxspeed": "40", "reversed": false, "length": 109.49600000000001, "source": 29687510, "target": 34600105}, {"osmid": [4674578, 5085157], "lanes": "2", "name": ["Melinda Street", "Jordan Street"], "highway": ["residential", "unclassified"], "maxspeed": "30", "oneway": false, "reversed": true, "length": 144.54500000000002, "source": 29687514, "target": 34599795}, {"osmid": 25823261, "lanes": "2", "name": "Colborne Street", "highway": "residential", "maxspeed": "30", "oneway": false, "reversed": false, "length": 103.157, "source": 29687514, "target": 261717936}, {"osmid": 553562816, "oneway": true, "lanes": "3", "name": "Adelaide Street West", "highway": "secondary", "maxspeed": "40", "reversed": false, "length": 107.32400000000001, "source": 29687645, "target": 29687646}, {"osmid": 44522122, "oneway": true, "lanes": "1", "name": "Widmer Street", "highway": "residential", "reversed": false, "length": 144.48899999999998, "source": 29687646, "target": 29689896}, {"osmid": 553562816, "oneway": true, "lanes": "3", "name": "Adelaide Street West", "highway": "secondary", "maxspeed": "40", "reversed": false, "length": 108.374, "source": 29687646, "target": 29687647}, {"osmid": 5090442, "lanes": "2", "name": "John Street", "highway": "tertiary", "oneway": false, "reversed": true, "length": 74.083, "source": 29687647, "target": 29689856}, {"osmid": 5090442, "lanes": "2", "name": "John Street", "highway": "tertiary", "oneway": false, "reversed": false, "length": 71.00200000000001, "source": 29687647, "target": 53544119}, {"osmid": 553562816, "oneway": true, "lanes": "3", "name": "Adelaide Street West", "highway": "secondary", "maxspeed": "40", "reversed": false, "length": 135.08, "source": 29687647, "target": 34600545}, {"osmid": 553564807, "oneway": true, "lanes": "2", "name": "Simcoe Street", "highway": "tertiary", "maxspeed": "40", "reversed": false, "length": 72.90299999999999, "source": 29687649, "target": 34598911}, {"osmid": 292021138, "oneway": true, "lanes": "2", "name": "Simcoe Street", "highway": "tertiary", "maxspeed": "40", "reversed": false, "length": 71.252, "source": 29687649, "target": 29689630}, {"osmid": 553562816, "oneway": true, "lanes": "3", "name": "Adelaide Street West", "highway": "secondary", "maxspeed": "40", "reversed": false, "length": 172.69500000000002, "source": 29687649, "target": 34600545}, {"osmid": 217103554, "oneway": true, "lanes": "3", "name": "York Street", "highway": "tertiary", "maxspeed": "40", "reversed": false, "length": 144.44500000000002, "source": 29687652, "target": 34520976}, {"osmid": [670570761, 707964266, 1188204203, 707964267], "oneway": true, "lanes": "3", "name": "Adelaide Street West", "highway": "secondary", "maxspeed": "40", "reversed": false, "length": 165.03799999999998, "source": 29687652, "target": 29688113}, {"osmid": 141694066, "oneway": true, "lanes": "4", "name": "York Street", "highway": "tertiary", "maxspeed": "40", "reversed": false, "length": 74.194, "source": 29687652, "target": 1551000507}, {"osmid": 35155373, "lanes": "4", "name": "Bay Street", "highway": "secondary", "maxspeed": "40", "oneway": false, "reversed": false, "length": 74.95400000000001, "source": 29687653, "target": 29688116}, {"osmid": [707964264, 707964265, 45153939], "oneway": true, "lanes": "3", "name": "Adelaide Street West", "highway": "secondary", "maxspeed": "40", "reversed": false, "length": 197.905, "source": 29687653, "target": 29687654}, {"osmid": 670570761, "oneway": true, "lanes": "3", "name": "Adelaide Street West", "highway": "secondary", "maxspeed": "40", "reversed": false, "length": 111.677, "source": 29687653, "target": 29688113}, {"osmid": 446810239, "oneway": true, "lanes": "3", "name": "Adelaide Street East", "highway": "secondary", "maxspeed": "40", "reversed": false, "length": 101.023, "source": 29687654, "target": 29687655}, {"osmid": 542549034, "lanes": "4", "name": "Yonge Street", "highway": "primary", "maxspeed": "40", "oneway": false, "reversed": true, "length": 72.694, "source": 29687654, "target": 29688117}, {"osmid": 4674624, "oneway": true, "lanes": "3", "name": "Adelaide Street East", "highway": "secondary", "reversed": false, "length": 65.14, "source": 29687655, "target": 254213720}, {"osmid": 25795349, "lanes": "2", "name": "Victoria Street", "highway": "tertiary", "maxspeed": "30", "oneway": false, "reversed": true, "length": 72.54699999999998, "source": 29687655, "target": 29688400}, {"osmid": 553564811, "lanes": "4", "name": "Church Street", "highway": "tertiary", "maxspeed": "30", "oneway": false, "reversed": true, "length": 82.58, "source": 29687656, "target": 261718261}, {"osmid": 553564817, "lanes": "4", "name": "Church Street", "highway": "tertiary", "maxspeed": "30", "oneway": false, "reversed": false, "length": 73.266, "source": 29687656, "target": 29688401}, {"osmid": [4674624, 340934468], "oneway": true, "lanes": "3", "name": "Adelaide Street East", "highway": "secondary", "reversed": false, "length": 127.96000000000001, "maxspeed": "40", "source": 29687656, "target": 254213720}, {"osmid": 25795349, "lanes": "2", "name": "Victoria Street", "highway": "tertiary", "maxspeed": "30", "oneway": false, "reversed": false, "length": 73.81400000000001, "source": 29687910, "target": 29688400}, {"osmid": 553564813, "oneway": true, "lanes": "3", "name": "Richmond Street East", "highway": "secondary", "maxspeed": "40", "reversed": false, "length": 100.42399999999999, "source": 29687910, "target": 29687914}, {"osmid": 553564813, "oneway": true, "lanes": "3", "name": "Richmond Street East", "highway": "secondary", "maxspeed": "40", "reversed": false, "length": 116.59, "source": 29687910, "target": 29688356}, {"osmid": 553564813, "oneway": true, "lanes": "3", "name": "Richmond Street East", "highway": "secondary", "maxspeed": "40", "reversed": false, "length": 76.691, "source": 29687913, "target": 29688356}, {"osmid": 553564817, "lanes": "4", "name": "Church Street", "highway": "tertiary", "maxspeed": "30", "oneway": false, "reversed": true, "length": 73.57100000000001, "source": 29687913, "target": 29688401}, {"osmid": [33651795, 33651796, 33651797], "lanes": "4", "name": "Yonge Street", "highway": "primary", "maxspeed": "40", "oneway": false, "reversed": true, "length": 276.773, "source": 29687914, "target": 29688406}, {"osmid": 33651839, "lanes": "4", "name": "Yonge Street", "highway": "primary", "maxspeed": "40", "oneway": false, "reversed": false, "length": 74.218, "source": 29687914, "target": 29688117}, {"osmid": 33651840, "oneway": true, "lanes": "3", "name": "Richmond Street West", "highway": "secondary", "maxspeed": "40", "reversed": false, "length": 197.27999999999997, "source": 29687914, "target": 29687983}, {"osmid": 35155369, "oneway": true, "lanes": "3", "name": "Richmond Street West", "highway": "secondary", "maxspeed": "40", "reversed": false, "length": 112.386, "source": 29687983, "target": 29688108}, {"osmid": [435644179, 35155372], "lanes": "4", "name": "Bay Street", "highway": "secondary", "oneway": false, "reversed": true, "length": 70.307, "maxspeed": "40", "source": 29687983, "target": 29688116}, {"osmid": 21674222, "oneway": true, "lanes": "3", "name": "University Avenue", "highway": "secondary", "maxspeed": "40", "reversed": false, "length": 88.396, "source": 29687984, "target": 32547299}, {"osmid": 314651046, "oneway": true, "lanes": "3", "name": "Richmond Street West", "highway": "secondary", "maxspeed": "40", "reversed": false, "length": 27.862000000000002, "source": 29687984, "target": 29687985}, {"osmid": 538037287, "oneway": true, "lanes": "3", "name": "Richmond Street West", "highway": "secondary", "maxspeed": "40", "reversed": false, "length": 127.203, "source": 29687984, "target": 34520976}, {"osmid": 553564800, "oneway": true, "lanes": "3", "name": "Richmond Street West", "highway": "secondary", "maxspeed": "40", "reversed": false, "length": 55.8, "source": 29687985, "target": 29687986}, {"osmid": 35565362, "oneway": true, "lanes": "3", "name": "University Avenue", "highway": "secondary", "maxspeed": "40", "reversed": false, "length": 88.071, "source": 29687985, "target": 32547297}, {"osmid": 292021138, "oneway": true, "lanes": "2", "name": "Simcoe Street", "highway": "tertiary", "maxspeed": "40", "reversed": false, "length": 74.31299999999999, "source": 29687986, "target": 29689630}, {"osmid": 553564802, "oneway": true, "lanes": "3", "name": "Richmond Street West", "highway": "secondary", "maxspeed": "40", "reversed": false, "length": 171.227, "source": 29687986, "target": 34520379}, {"osmid": 4674632, "lanes": "2", "name": "Sheppard Street", "highway": "residential", "oneway": false, "reversed": true, "length": 67.396, "source": 29688108, "target": 29688115}, {"osmid": 35155370, "oneway": true, "lanes": "3", "name": "Richmond Street West", "highway": "secondary", "maxspeed": "40", "reversed": false, "length": 164.784, "source": 29688108, "target": 34520976}, {"osmid": 4674632, "lanes": "2", "name": "Sheppard Street", "highway": "residential", "oneway": false, "reversed": false, "length": 77.026, "source": 29688113, "target": 29688115}, {"osmid": 25822842, "oneway": true, "lanes": "1", "name": "Temperance Street", "highway": "residential", "reversed": false, "length": 113.584, "source": 29688115, "target": 29688116}, {"osmid": [25822809, 868914753], "oneway": true, "lanes": "1", "name": "Temperance Street", "highway": "residential", "maxspeed": "30", "reversed": false, "length": 141.59999999999997, "source": 29688116, "target": 281662170}, {"osmid": [868914752, 4674678], "oneway": false, "lanes": "2", "name": "Temperance Street", "highway": "residential", "maxspeed": "30", "reversed": true, "length": 56.58, "source": 29688117, "target": 281662170}, {"osmid": 468563688, "lanes": "2", "name": "Scott Street", "highway": "living_street", "oneway": false, "reversed": true, "length": 78.572, "source": 29688195, "target": 34600105}, {"osmid": 33651799, "lanes": "4", "name": "Queen Street East", "highway": "secondary", "maxspeed": "40", "oneway": false, "reversed": true, "length": 21.594, "source": 29688214, "target": 29688316}, {"osmid": 4321249, "lanes": "2", "name": "Bond Street", "highway": "residential", "maxspeed": "30", "oneway": false, "reversed": false, "length": 192.58700000000002, "source": 29688214, "target": 29688408}, {"osmid": 4674709, "oneway": true, "lanes": "1", "name": "Berti Street", "highway": "unclassified", "reversed": false, "length": 40.933, "source": 29688316, "target": 966533338}, {"osmid": 737178943, "oneway": false, "lanes": "2", "name": "Berti Street", "highway": "unclassified", "reversed": true, "length": 43.799, "source": 29688356, "target": 966533338}, {"osmid": 4674711, "lanes": "2", "name": "Lombard Street", "highway": "residential", "maxspeed": "30", "oneway": false, "reversed": true, "length": 193.294, "source": 29688400, "target": 29688401}, {"osmid": 24781234, "lanes": "2", "name": "Shuter Street", "highway": "tertiary", "maxspeed": "30", "oneway": false, "reversed": true, "length": 100.578, "source": 29688406, "target": 29688407}, {"osmid": [34545817, 34545818], "lanes": "4", "name": "Yonge Street", "highway": "primary", "maxspeed": "40", "oneway": false, "reversed": true, "length": 191.31400000000002, "source": 29688406, "target": 253937384}, {"osmid": 24781234, "lanes": "2", "name": "Shuter Street", "highway": "tertiary", "maxspeed": "30", "oneway": false, "reversed": true, "length": 97.05300000000001, "source": 29688407, "target": 29688408}, {"osmid": 35159935, "lanes": "2", "name": "Victoria Street", "highway": "tertiary", "maxspeed": "30", "oneway": false, "reversed": true, "length": 192.89100000000002, "source": 29688407, "target": 253937395}, {"osmid": [381084331, 381084333], "lanes": ["2", "3"], "name": "Shuter Street", "highway": "tertiary", "maxspeed": "40", "oneway": false, "reversed": true, "length": 97.228, "source": 29688408, "target": 29688409}, {"osmid": 381084334, "lanes": "3", "name": "Shuter Street", "highway": "tertiary", "maxspeed": "40", "oneway": false, "reversed": false, "length": 49.9, "source": 29688409, "target": 211893027}, {"osmid": 42965996, "lanes": "2", "name": "Mutual Street", "highway": "residential", "maxspeed": "40", "oneway": false, "reversed": false, "length": 195.052, "source": 29688440, "target": 29689091}, {"osmid": 133595611, "lanes": "2", "name": "Shuter Street", "highway": "tertiary", "maxspeed": "40", "oneway": false, "reversed": false, "length": 74.524, "source": 29688440, "target": 211893027}, {"osmid": 4847551, "lanes": "4", "name": "Gerrard Street East", "highway": "tertiary", "maxspeed": "40", "oneway": false, "reversed": true, "length": 125.224, "source": 29688909, "target": 29689090}, {"osmid": [1208975720, 1208975721, 45473333], "lanes": "4", "name": "Church Street", "highway": "tertiary", "maxspeed": "30", "oneway": false, "reversed": true, "length": 193.28, "source": 29688909, "target": 29689435}, {"osmid": 4674785, "lanes": "2", "name": "Mutual Street", "highway": "residential", "maxspeed": "40", "oneway": false, "reversed": true, "length": 193.21400000000003, "source": 29689090, "target": 29689436}, {"osmid": 547634984, "lanes": "4", "name": "Dundas Street East", "highway": "secondary", "maxspeed": "40", "oneway": false, "reversed": false, "length": 75.148, "source": 29689091, "target": 211893022}, {"osmid": 30979426, "lanes": "2", "name": "Mutual Street", "highway": "residential", "maxspeed": "40", "oneway": false, "reversed": false, "length": 197.64199999999997, "source": 29689091, "target": 29689436}, {"osmid": 5686883, "lanes": "4", "name": "Dundas Street West", "highway": "secondary", "maxspeed": "40", "oneway": false, "reversed": false, "length": 85.713, "source": 29689374, "target": 34600564}, {"osmid": 689943772, "lanes": "2", "name": "Elizabeth Street", "highway": "unclassified", "maxspeed": "30", "oneway": false, "reversed": false, "length": 58.278, "source": 29689403, "target": 52922240}, {"osmid": 900926531, "lanes": "2", "name": "Gould Street", "highway": "residential", "oneway": false, "reversed": true, "length": 59.96900000000001, "source": 29689427, "target": 4316556721}, {"osmid": 312669014, "lanes": "2", "name": "Gould Street", "highway": "residential", "maxspeed": "40", "oneway": false, "reversed": true, "length": 50.886, "source": 29689435, "target": 211893012}, {"osmid": 312669017, "oneway": true, "lanes": "1", "name": "Gould Street", "highway": "residential", "maxspeed": "30", "reversed": false, "length": 97.089, "source": 29689435, "target": 8369441207}, {"osmid": 312669014, "lanes": "2", "name": "Gould Street", "highway": "residential", "maxspeed": "40", "oneway": false, "reversed": false, "length": 74.601, "source": 29689436, "target": 211893012}, {"osmid": 133658685, "oneway": true, "lanes": "1", "name": "Pearl Street", "highway": "residential", "reversed": false, "length": 97.10300000000001, "source": 29689521, "target": 34598911}, {"osmid": 542553251, "oneway": true, "lanes": "1", "name": "Pearl Street", "highway": "residential", "reversed": false, "length": 114.31099999999998, "source": 29689521, "target": 1551000507}, {"osmid": 991014010, "lanes": "2", "name": "Nelson Street", "highway": "residential", "oneway": false, "reversed": false, "length": 172.303, "source": 29689630, "target": 29689664}, {"osmid": 33243155, "lanes": "2", "name": "Duncan Street", "highway": "residential", "maxspeed": "30", "oneway": false, "reversed": true, "length": 73.851, "source": 29689631, "target": 34600545}, {"osmid": 991014235, "oneway": true, "lanes": "1", "name": "Pearl Street", "highway": "residential", "maxspeed": "30", "reversed": false, "length": 135.363, "source": 29689631, "target": 29689856}, {"osmid": 133658685, "oneway": true, "lanes": "1", "name": "Pearl Street", "highway": "residential", "reversed": false, "length": 172.813, "source": 29689631, "target": 34598911}, {"osmid": 4674874, "lanes": "2", "name": "Nelson Street", "highway": "residential", "maxspeed": "30", "oneway": false, "reversed": false, "length": 135.55100000000002, "source": 29689664, "target": 53544119}, {"osmid": 33243155, "lanes": "2", "name": "Duncan Street", "highway": "residential", "maxspeed": "30", "oneway": false, "reversed": true, "length": 74.30300000000001, "source": 29689664, "target": 34520379}, {"osmid": 33243155, "lanes": "2", "name": "Duncan Street", "highway": "residential", "maxspeed": "30", "oneway": false, "reversed": false, "length": 70.344, "source": 29689664, "target": 34600545}, {"osmid": 5090416, "lanes": "2", "name": "John Street", "highway": "residential", "maxspeed": "30", "oneway": false, "reversed": true, "length": 155.10999999999999, "source": 29689691, "target": 1550992510}, {"osmid": 43887242, "oneway": true, "lanes": "1", "name": "Stephanie Street", "highway": "residential", "maxspeed": "40", "reversed": false, "length": 115.19800000000001, "source": 29689691, "target": 71851479}, {"osmid": 745505114, "oneway": true, "lanes": "3", "name": "Richmond Street West", "highway": "secondary", "maxspeed": "40", "reversed": false, "length": 106.699, "source": 29689896, "target": 35506002}, {"osmid": 222151622, "lanes": "2", "name": "McCaul Street", "highway": "tertiary", "maxspeed": "30", "oneway": false, "reversed": true, "length": 218.841, "source": 29696843, "target": 29696847}, {"osmid": 5686860, "lanes": "2", "name": "Grange Road", "highway": "residential", "maxspeed": "30", "oneway": false, "reversed": false, "length": 73.83299999999998, "source": 29696847, "target": 33072019}, {"osmid": 222151622, "lanes": "2", "name": "McCaul Street", "highway": "tertiary", "maxspeed": "30", "oneway": false, "reversed": true, "length": 107.68299999999999, "source": 29696847, "target": 71851479}, {"osmid": 64370253, "lanes": "4", "name": "Queen Street West", "highway": "secondary", "oneway": false, "reversed": true, "length": 21.006999999999998, "source": 29696849, "target": 29696856}, {"osmid": 141693460, "lanes": "4", "name": "Queen Street West", "highway": "secondary", "maxspeed": "40", "oneway": false, "reversed": true, "length": 116.31500000000001, "source": 29696849, "target": 1550992510}, {"osmid": 222151622, "lanes": "2", "name": "McCaul Street", "highway": "tertiary", "maxspeed": "30", "oneway": false, "reversed": false, "length": 155.546, "source": 29696849, "target": 71851479}, {"osmid": 33243155, "lanes": "2", "name": "Duncan Street", "highway": "residential", "maxspeed": "30", "oneway": false, "reversed": false, "length": 87.962, "source": 29696856, "target": 34520379}, {"osmid": 64370254, "lanes": "4", "name": "Queen Street West", "highway": "secondary", "maxspeed": "40", "oneway": false, "reversed": true, "length": 71.33, "source": 29696856, "target": 32547805}, {"osmid": 141693460, "lanes": "4", "name": "Queen Street West", "highway": "secondary", "maxspeed": "40", "oneway": false, "reversed": false, "length": 86.471, "source": 29696858, "target": 1550992510}, {"osmid": 62058057, "lanes": "4", "name": "Queen Street West", "highway": "secondary", "oneway": false, "reversed": false, "length": 128.394, "source": 29824488, "target": 32547299}, {"osmid": 110118921, "oneway": false, "lanes": "3", "name": "York Street", "highway": "tertiary", "maxspeed": "40", "reversed": false, "length": 88.54999999999998, "source": 29824488, "target": 34520976}, {"osmid": [446810242, 446810243], "lanes": "4", "name": "Queen Street West", "highway": "secondary", "oneway": false, "reversed": true, "length": 205.952, "maxspeed": "40", "source": 29824488, "target": 1889248811}, {"osmid": 62058055, "lanes": "4", "name": "Queen Street West", "highway": "secondary", "oneway": false, "reversed": true, "length": 28.311999999999998, "source": 32547297, "target": 32547299}, {"osmid": 5686878, "lanes": "2", "name": "St. Patrick Street", "highway": "residential", "oneway": false, "reversed": true, "length": 207.488, "source": 32547805, "target": 42606702}, {"osmid": 553564802, "oneway": true, "lanes": "3", "name": "Richmond Street West", "highway": "secondary", "maxspeed": "40", "reversed": false, "length": 136.35399999999998, "source": 34520379, "target": 35506002}, {"osmid": 468563692, "lanes": "2", "name": "Scott Street", "highway": "residential", "maxspeed": "30", "oneway": false, "reversed": true, "length": 77.092, "source": 34600105, "target": 261717936}, {"osmid": 220917993, "lanes": "4", "name": "Dundas Street West", "highway": "secondary", "maxspeed": "40", "oneway": false, "reversed": false, "length": 26.193, "source": 34600564, "target": 42606444}, {"osmid": 5090442, "lanes": "2", "name": "John Street", "highway": "tertiary", "oneway": false, "reversed": true, "length": 74.05999999999999, "source": 35506002, "target": 53544119}, {"osmid": 5090442, "lanes": "2", "name": "John Street", "highway": "tertiary", "oneway": false, "reversed": false, "length": 88.12200000000001, "source": 35506002, "target": 1550992510}, {"osmid": 61760482, "oneway": true, "lanes": "3", "name": "University Avenue", "highway": "secondary", "maxspeed": "40", "reversed": false, "length": 71.69399999999999, "source": 36607360, "target": 42606444}, {"osmid": 5686877, "oneway": true, "name": "Michael Sweet Avenue", "highway": "residential", "maxspeed": "30", "reversed": false, "length": 91.63000000000001, "source": 42606702, "target": 42606707}, {"osmid": 6694649, "lanes": "2", "name": "Simcoe Street", "highway": "residential", "oneway": false, "reversed": true, "length": 39.042, "source": 42606707, "target": 53542265}, {"osmid": 4000043, "oneway": true, "lanes": "2", "name": "University Avenue", "highway": "secondary", "maxspeed": "50", "reversed": false, "length": 116.51400000000001, "source": 42606787, "target": 87486205}, {"osmid": 6127816, "lanes": "2", "highway": "secondary_link", "oneway": false, "reversed": true, "length": 19.320999999999998, "source": 42606787, "target": 42606791}, {"osmid": 6038443, "lanes": "2", "name": "Walton Street", "highway": "residential", "oneway": false, "reversed": false, "length": 93.172, "source": 49626773, "target": 246696320}, {"osmid": 30979233, "oneway": true, "lanes": "1", "name": "Walton Street", "highway": "residential", "reversed": false, "length": 125.82199999999999, "source": 49626773, "target": 246692508}, {"osmid": 6299077, "lanes": "2", "name": "Foster Place", "highway": "residential", "oneway": false, "reversed": true, "length": 51.975, "source": 52922240, "target": 52922360}, {"osmid": 61430499, "oneway": true, "lanes": "1", "name": "Emily Street", "highway": "residential", "reversed": false, "length": 73.35, "source": 53542727, "target": 766943640}, {"osmid": 10336627, "lanes": "2", "highway": "secondary_link", "oneway": false, "reversed": true, "length": 19.244999999999997, "source": 87486205, "target": 87486207}, {"osmid": 20062381, "oneway": true, "lanes": "1", "name": "Dalhousie Street", "highway": "residential", "maxspeed": "30", "reversed": false, "length": 146.208, "source": 211893012, "target": 7477429111}, {"osmid": 23448052, "lanes": "2", "name": "Dalhousie Street", "highway": "residential", "maxspeed": "30", "oneway": false, "reversed": true, "length": 195.68399999999997, "source": 211893022, "target": 211893027}, {"osmid": 799520626, "oneway": false, "lanes": "2", "name": "Dalhousie Street", "highway": "residential", "maxspeed": "30", "reversed": true, "length": 51.26499999999999, "source": 211893022, "target": 7477429111}, {"osmid": 34551570, "lanes": "2", "name": "Dalhousie Street", "highway": "residential", "maxspeed": "30", "oneway": false, "reversed": true, "length": 191.172, "source": 211893027, "target": 247703269}, {"osmid": 22913838, "lanes": "2", "name": "Walton Street", "highway": "residential", "oneway": false, "reversed": true, "length": 45.319, "source": 246692483, "target": 246692484}, {"osmid": 5686892, "lanes": "2", "name": "La Plante Avenue", "highway": "residential", "oneway": false, "reversed": false, "length": 85.977, "source": 246693663, "target": 246693686}, {"osmid": 141900529, "lanes": "2", "name": "Hayter Street", "highway": "residential", "maxspeed": "30", "oneway": false, "reversed": false, "length": 66.889, "source": 246693663, "target": 1553140355}, {"osmid": 23447979, "oneway": true, "lanes": "1", "name": "Dundas Square", "highway": "unclassified", "maxspeed": "30", "reversed": false, "length": 75.744, "source": 253937384, "target": 6532307725}, {"osmid": 695649274, "oneway": false, "lanes": "2", "name": "Dundas Square", "highway": "unclassified", "reversed": false, "length": 25.973, "source": 253937395, "target": 6532307725}, {"osmid": 737177261, "oneway": true, "lanes": "1", "name": "Bond Street", "highway": "residential", "maxspeed": "30", "reversed": false, "length": 96.711, "source": 253939672, "target": 8369441207}, {"osmid": 23474916, "lanes": "2", "name": "Toronto Street", "highway": "unclassified", "oneway": false, "reversed": true, "length": 82.92299999999999, "source": 254213720, "target": 261718260}, {"osmid": [24162504, 868914742], "lanes": "2", "name": "Court Street", "highway": "residential", "oneway": false, "reversed": true, "length": 46.364, "maxspeed": "30", "source": 261718260, "target": 261718274}, {"osmid": 24162504, "lanes": "2", "name": "Court Street", "highway": "residential", "maxspeed": "30", "oneway": false, "reversed": false, "length": 45.363, "source": 261718261, "target": 261718266}, {"osmid": 24162504, "lanes": "2", "name": "Court Street", "highway": "residential", "maxspeed": "30", "oneway": false, "reversed": false, "length": 36.956, "source": 261718266, "target": 261718274}, {"osmid": [686198241, 4674878], "oneway": false, "lanes": "2", "name": ["Albert Street", "James Street"], "highway": "unclassified", "reversed": [false, true], "length": 206.158, "source": 1551002988, "target": 6431753659}, {"osmid": 237888211, "oneway": false, "lanes": "4", "name": "Bay Street", "highway": "secondary", "maxspeed": "40", "reversed": true, "length": 81.188, "source": 1551002988, "target": 1889248857}, {"osmid": 25822678, "oneway": true, "lanes": "1", "highway": "secondary_link", "maxspeed": "40", "reversed": false, "length": 62.411, "source": 1889248811, "target": 1889248857}, {"osmid": 312669017, "oneway": true, "lanes": "1", "name": "Gould Street", "highway": "residential", "maxspeed": "30", "reversed": false, "length": 4.819, "source": 8369441207, "target": 11209519155}]}