{"directed": false, "multigraph": false, "graph": {}, "nodes": [{"y": 38.8954395, "x": -77.0449248, "highway": "traffic_signals", "street_count": 4, "id": 49722994}, {"y": 38.8904832, "x": -77.0278986, "street_count": 3, "id": 49729874}, {"y": 38.8920923, "x": -77.0281349, "highway": "traffic_signals", "street_count": 5, "id": 49732286}, {"y": 38.8883181, "x": -77.0397579, "street_count": 3, "id": 49734087}, {"y": 38.8946307, "x": -77.0319581, "street_count": 3, "id": 49745618}, {"y": 38.89736, "x": -77.0319541, "highway": "traffic_signals", "street_count": 4, "id": 49745628}, {"y": 38.8983234, "x": -77.0319545, "highway": "traffic_signals", "street_count": 4, "id": 49745629}, {"y": 38.8994359, "x": -77.0319504, "highway": "traffic_signals", "street_count": 4, "id": 49745631}, {"y": 38.9002234, "x": -77.0319567, "highway": "traffic_signals", "street_count": 4, "id": 49745632}, {"y": 38.9013356, "x": -77.0319507, "highway": "traffic_signals", "street_count": 4, "id": 49745636}, {"y": 38.8921072, "x": -77.0407039, "street_count": 3, "id": 49748775}, {"y": 38.8921077, "x": -77.0434704, "highway": "traffic_signals", "street_count": 3, "id": 49748779}, {"y": 38.8921069, "x": -77.0449355, "highway": "traffic_signals", "street_count": 3, "id": 49748781}, {"y": 38.9002232, "x": -77.0379737, "highway": "traffic_signals", "street_count": 4, "id": 49749106}, {"y": 38.8935512, "x": -77.0394724, "street_count": 3, "id": 49750819}, {"y": 38.8935366, "x": -77.041746, "highway": "traffic_signals", "street_count": 4, "id": 49750826}, {"y": 38.893516, "x": -77.0449289, "street_count": 4, "id": 49750843}, {"y": 38.8946255, "x": -77.0308039, "street_count": 3, "id": 49756474}, {"y": 38.8983221, "x": -77.0281094, "highway": "traffic_signals", "street_count": 4, "id": 49762207}, {"y": 38.8983213, "x": -77.029622, "highway": "traffic_signals", "street_count": 4, "id": 49762210}, {"y": 38.8983204, "x": -77.0336257, "highway": "traffic_signals", "street_count": 3, "id": 49762221}, {"y": 38.8983238, "x": -77.0394603, "street_count": 3, "id": 49762225}, {"y": 38.898327, "x": -77.0417155, "highway": "traffic_signals", "street_count": 4, "id": 49762238}, {"y": 38.8983324, "x": -77.0434712, "highway": "traffic_signals", "street_count": 4, "id": 49762243}, {"y": 38.8983313, "x": -77.0449083, "highway": "traffic_signals", "street_count": 4, "id": 49762251}, {"y": 38.8964126, "x": -77.0336193, "highway": "traffic_signals", "street_count": 3, "id": 49764249}, {"y": 38.8973575, "x": -77.0336236, "highway": "traffic_signals", "street_count": 3, "id": 49764251}, {"y": 38.9002326, "x": -77.0336382, "highway": "traffic_signals", "street_count": 4, "id": 49764271}, {"y": 38.901338, "x": -77.034593, "highway": "traffic_signals", "street_count": 4, "id": 49764296}, {"y": 38.8943441, "x": -77.0394729, "street_count": 3, "id": 49767123}, {"y": 38.8943484, "x": -77.0417278, "street_count": 3, "id": 49767131}, {"y": 38.9013327, "x": -77.038522, "highway": "traffic_signals", "street_count": 4, "id": 49770640}, {"y": 38.8964164, "x": -77.0394673, "highway": "traffic_signals", "street_count": 3, "id": 49770755}, {"y": 38.8973611, "x": -77.0394649, "highway": "traffic_signals", "street_count": 3, "id": 49770764}, {"y": 38.9002251, "x": -77.0394543, "highway": "traffic_signals", "street_count": 4, "id": 49770782}, {"y": 38.9013289, "x": -77.0394467, "highway": "traffic_signals", "street_count": 4, "id": 49770789}, {"y": 38.9002313, "x": -77.0351116, "highway": "traffic_signals", "street_count": 3, "id": 49774425}, {"y": 38.8995822, "x": -77.04347, "street_count": 4, "id": 49777677}, {"y": 38.8995784, "x": -77.0449085, "highway": "traffic_signals", "street_count": 4, "id": 49777682}, {"y": 38.8998214, "x": -77.0281061, "highway": "traffic_signals", "street_count": 4, "id": 49777815}, {"y": 38.89982, "x": -77.0296245, "highway": "traffic_signals", "street_count": 5, "id": 49777820}, {"y": 38.9002209, "x": -77.0365872, "highway": "traffic_signals", "street_count": 3, "id": 49777843}, {"y": 38.9002289, "x": -77.0417016, "highway": "traffic_signals", "street_count": 4, "id": 49777853}, {"y": 38.8959887, "x": -77.0417107, "highway": "traffic_signals", "street_count": 4, "id": 49782040}, {"y": 38.8954044, "x": -77.0417128, "highway": "traffic_signals", "street_count": 4, "id": 49782130}, {"y": 38.8954084, "x": -77.0434713, "highway": "traffic_signals", "street_count": 4, "id": 49782141}, {"y": 38.8961361, "x": -77.0296145, "highway": "traffic_signals", "street_count": 4, "id": 49782277}, {"y": 38.8888613, "x": -77.0330001, "highway": "traffic_signals", "street_count": 3, "id": 49793007}, {"y": 38.8964172, "x": -77.0400945, "street_count": 3, "id": 49793337}, {"y": 38.9013368, "x": -77.0281024, "highway": "traffic_signals", "street_count": 4, "id": 49793723}, {"y": 38.9013363, "x": -77.0296245, "highway": "traffic_signals", "street_count": 4, "id": 49793729}, {"y": 38.9013329, "x": -77.036586, "highway": "traffic_signals", "street_count": 4, "id": 49793759}, {"y": 38.9013296, "x": -77.0417007, "highway": "traffic_signals", "street_count": 4, "id": 49793773}, {"y": 38.9013296, "x": -77.0434632, "highway": "traffic_signals", "street_count": 4, "id": 49793777}, {"y": 38.8973612, "x": -77.0449164, "highway": "traffic_signals", "street_count": 4, "id": 49797543}, {"y": 38.8973554, "x": -77.0281115, "highway": "traffic_signals", "street_count": 4, "id": 49799633}, {"y": 38.897358, "x": -77.0296209, "highway": "traffic_signals", "street_count": 4, "id": 49799643}, {"y": 38.8973603, "x": -77.0417106, "highway": "traffic_signals", "street_count": 4, "id": 49799808}, {"y": 38.8973623, "x": -77.0434716, "highway": "traffic_signals", "street_count": 4, "id": 49799817}, {"y": 38.9002776, "x": -77.0296235, "highway": "traffic_signals", "street_count": 4, "id": 49813347}, {"y": 38.8995974, "x": -77.0417067, "highway": "traffic_signals", "street_count": 5, "id": 49827624}, {"y": 38.89013, "x": -77.033031, "highway": "traffic_signals", "street_count": 3, "id": 49843643}, {"y": 38.9008049, "x": -77.0281039, "highway": "traffic_signals", "street_count": 4, "id": 49853878}, {"y": 38.8920989, "x": -77.0319604, "highway": "traffic_signals", "street_count": 4, "id": 520072065}, {"y": 38.8895045, "x": -77.0280457, "street_count": 3, "id": 622720245}, {"y": 38.8959561, "x": -77.0449203, "highway": "traffic_signals", "street_count": 5, "id": 633923743}, {"y": 38.8883301, "x": -77.0392277, "street_count": 3, "id": 638210736}, {"y": 38.893793, "x": -77.0440842, "highway": "traffic_signals", "street_count": 4, "id": 641127601}, {"y": 38.8945845, "x": -77.045169, "highway": "traffic_signals", "street_count": 4, "id": 641127613}, {"y": 38.8921074, "x": -77.0417381, "highway": "traffic_signals", "street_count": 3, "id": 647584811}, {"y": 38.8904792, "x": -77.0281881, "street_count": 3, "id": 650017955}, {"y": 38.8988057, "x": -77.0336269, "highway": "traffic_signals", "street_count": 4, "id": 876615335}, {"y": 38.8993563, "x": -77.0319494, "highway": "traffic_signals", "street_count": 4, "id": 876615362}, {"y": 38.9006705, "x": -77.0281043, "highway": "traffic_signals", "street_count": 4, "id": 876615374}, {"y": 38.9013286, "x": -77.0449054, "highway": "traffic_signals", "street_count": 4, "id": 1381204541}, {"y": 38.9002133, "x": -77.0434674, "highway": "traffic_signals", "street_count": 5, "id": 1381212154}, {"y": 38.8988162, "x": -77.0394602, "highway": "traffic_signals", "street_count": 3, "id": 1381216023}, {"y": 38.9007127, "x": -77.0449048, "highway": "traffic_signals", "street_count": 4, "id": 1381307998}, {"y": 38.9013403, "x": -77.0336368, "highway": "traffic_signals", "street_count": 4, "id": 1381307999}, {"y": 38.8921049, "x": -77.0394769, "highway": "traffic_signals", "street_count": 4, "id": 2504794158}, {"y": 38.8921021, "x": -77.0336389, "highway": "traffic_signals", "street_count": 4, "id": 2504806041}, {"y": 38.8998586, "x": -77.0379333, "street_count": 1, "id": 2633774615}, {"y": 38.8969245, "x": -77.0394639, "street_count": 3, "id": 2999157115}, {"y": 38.8938294, "x": -77.0441559, "highway": "traffic_signals", "street_count": 4, "id": 3008009375}, {"y": 38.8961388, "x": -77.0281072, "highway": "traffic_signals", "street_count": 4, "id": 3016605388}, {"y": 38.8951148, "x": -77.0281145, "highway": "traffic_signals", "street_count": 4, "id": 3016605397}, {"y": 38.894953, "x": -77.0281253, "highway": "traffic_signals", "street_count": 4, "id": 3016605409}, {"y": 38.900042, "x": -77.0302875, "highway": "traffic_signals", "street_count": 4, "id": 3027616040}, {"y": 38.8999947, "x": -77.0304128, "highway": "traffic_signals", "street_count": 4, "id": 3027616043}, {"y": 38.9002142, "x": -77.0311709, "street_count": 3, "id": 3027616047}, {"y": 38.8999215, "x": -77.0303246, "highway": "traffic_signals", "street_count": 4, "id": 3027616061}, {"y": 38.8953783, "x": -77.0296453, "street_count": 3, "id": 3027616084}, {"y": 38.8955186, "x": -77.0296234, "street_count": 4, "id": 3027616106}, {"y": 38.8999758, "x": -77.0301841, "highway": "traffic_signals", "street_count": 4, "id": 3027616118}, {"y": 38.9001565, "x": -77.0296239, "highway": "traffic_signals", "street_count": 4, "id": 3027616128}, {"y": 38.8954518, "x": -77.0307082, "street_count": 4, "id": 3027731623}, {"y": 38.8954493, "x": -77.030788, "street_count": 4, "id": 3027738436}, {"y": 38.895595, "x": -77.0307364, "street_count": 4, "id": 3027738437}, {"y": 38.8955764, "x": -77.0319511, "highway": "traffic_signals", "street_count": 4, "id": 3027822526}, {"y": 38.8954598, "x": -77.0319501, "highway": "traffic_signals", "street_count": 4, "id": 3027822532}, {"y": 38.8961343, "x": -77.0319537, "highway": "traffic_signals", "street_count": 4, "id": 3027832454}, {"y": 38.8954092, "x": -77.0394705, "highway": "traffic_signals", "street_count": 3, "id": 4001201376}, {"y": 38.8959891, "x": -77.0434683, "highway": "traffic_signals", "street_count": 4, "id": 4001470337}, {"y": 38.8938767, "x": -77.043998, "highway": "traffic_signals", "street_count": 3, "id": 4015360172}, {"y": 38.8939194, "x": -77.044076, "highway": "traffic_signals", "street_count": 3, "id": 4015360173}, {"y": 38.8904213, "x": -77.0319543, "highway": "traffic_signals", "street_count": 4, "id": 4303519741}, {"y": 38.8954543, "x": -77.0336224, "highway": "traffic_signals", "street_count": 3, "id": 8245233135}, {"y": 38.8955549, "x": -77.0336226, "highway": "traffic_signals", "street_count": 3, "id": 8245233140}, {"y": 38.888926, "x": -77.0394797, "highway": "traffic_signals", "street_count": 3, "id": 8325310264}, {"y": 38.8886709, "x": -77.0281861, "street_count": 3, "id": 8427531415}, {"y": 38.8886221, "x": -77.0319598, "highway": "traffic_signals", "street_count": 4, "id": 8427543420}, {"y": 38.9002214, "x": -77.0365058, "highway": "traffic_signals", "street_count": 3, "id": 9983605755}, {"y": 38.9013335, "x": -77.0365035, "street_count": 4, "id": 9983605758}, {"y": 38.8934826, "x": -77.0434856, "street_count": 4, "id": 11260344012}, {"y": 38.893606, "x": -77.0434783, "street_count": 4, "id": 11260344015}, {"y": 38.8935016, "x": -77.0432631, "street_count": 3, "id": 11260344016}, {"y": 38.8926281, "x": -77.0417582, "street_count": 5, "id": 11260344021}], "links": [{"osmid": 6056366, "oneway": true, "lanes": "4", "name": "E Street Northwest", "highway": "primary", "reversed": false, "length": 126.169, "source": 49722994, "target": 49782141}, {"osmid": 1182507724, "oneway": true, "lanes": "3", "name": "20th Street Northwest", "highway": "secondary", "reversed": false, "length": 57.447, "source": 49722994, "target": 633923743}, {"osmid": 6057417, "oneway": true, "lanes": "3", "name": "20th Street Northwest", "highway": "secondary", "reversed": false, "length": 101.052, "source": 49722994, "target": 641127613}, {"osmid": 296591633, "oneway": true, "lanes": "2", "name": "Madison Drive Northwest", "highway": "tertiary", "maxspeed": "15 mph", "reversed": false, "length": 25.06, "source": 49729874, "target": 650017955}, {"osmid": [1212569776, 1111506521, 24238018], "lanes": ["5", "4"], "name": "12th Street Northwest", "highway": "secondary", "oneway": false, "reversed": true, "length": 318.10400000000004, "source": 49732286, "target": 3016605409}, {"osmid": [397315034, 397315035], "lanes": "8", "ref": "US 1;US 50", "name": "Constitution Avenue Northwest", "highway": "trunk", "maxspeed": "25 mph", "oneway": false, "reversed": false, "length": 331.08500000000004, "source": 49732286, "target": 520072065}, {"osmid": 397317311, "oneway": true, "lanes": "1", "name": "12th Street Northwest", "highway": "tertiary", "reversed": false, "length": 179.967, "source": 49732286, "target": 650017955}, {"osmid": [49085142, 121980342], "tunnel": "yes", "oneway": true, "lanes": "3", "name": "12th Street Expressway", "highway": "motorway", "reversed": false, "length": 288.9429999999999, "source": 49732286, "target": 622720245}, {"osmid": 6052181, "oneway": true, "lanes": "1", "highway": "primary_link", "maxspeed": "25 mph", "reversed": false, "length": 51.476, "source": 49734087, "target": 638210736}, {"osmid": [397277248, 450559714], "oneway": true, "lanes": "2", "name": "17th Street Southwest", "highway": "primary", "reversed": false, "length": 72.155, "maxspeed": "25 mph", "source": 49734087, "target": 8325310264}, {"osmid": 397316203, "lanes": "6", "name": "14th Street Northwest", "highway": "primary", "oneway": false, "reversed": true, "length": 92.195, "source": 49745618, "target": 3027822532}, {"osmid": [535718850, 45838763, 535718852], "lanes": "7", "name": "14th Street Northwest", "highway": "primary", "oneway": false, "reversed": false, "length": 281.533, "source": 49745618, "target": 520072065}, {"osmid": 6055389, "oneway": true, "name": "D Street Northwest", "highway": "residential", "reversed": false, "length": 99.891, "source": 49745618, "target": 49756474}, {"osmid": 347003328, "lanes": "4", "name": "F Street Northwest", "highway": "secondary", "oneway": false, "reversed": true, "length": 144.481, "source": 49745628, "target": 49764251}, {"osmid": 347003330, "lanes": "4", "name": "F Street Northwest", "highway": "secondary", "oneway": false, "reversed": true, "length": 201.921, "source": 49745628, "target": 49799643}, {"osmid": [397316176, 397316171, 397316180], "lanes": ["6", "7"], "name": "14th Street Northwest", "highway": "primary", "oneway": false, "reversed": false, "length": 136.296, "source": 49745628, "target": 3027832454}, {"osmid": [397316186, 397316195], "lanes": ["6", "7"], "name": "14th Street Northwest", "highway": "primary", "oneway": false, "reversed": true, "length": 107.134, "source": 49745628, "target": 49745629}, {"osmid": 397316204, "lanes": "7", "name": "14th Street Northwest", "highway": "primary", "oneway": false, "reversed": true, "length": 114.85399999999998, "source": 49745629, "target": 876615362}, {"osmid": 421290235, "lanes": "2", "name": "G Street Northwest", "highway": "tertiary", "oneway": false, "reversed": true, "length": 144.62800000000001, "source": 49745629, "target": 49762221}, {"osmid": 509466050, "lanes": "2", "name": "G Street Northwest", "highway": "tertiary", "oneway": false, "reversed": false, "length": 201.865, "source": 49745629, "target": 49762210}, {"osmid": 421258869, "lanes": "6", "name": "14th Street Northwest", "highway": "primary", "oneway": false, "reversed": false, "length": 8.852, "source": 49745631, "target": 876615362}, {"osmid": 347003327, "lanes": "6", "name": "14th Street Northwest", "highway": "primary", "oneway": false, "reversed": true, "length": 87.568, "source": 49745631, "target": 49745632}, {"osmid": 421258870, "oneway": true, "lanes": "2", "name": "New York Avenue Northwest", "highway": "secondary", "reversed": false, "length": 161.945, "source": 49745631, "target": 876615335}, {"osmid": 987879162, "oneway": true, "lanes": "2", "name": "New York Avenue Northwest", "highway": "primary", "reversed": false, "length": 146.857, "source": 49745631, "target": 3027616043}, {"osmid": 298848145, "oneway": true, "lanes": "3", "name": "H Street Northwest", "highway": "primary", "reversed": false, "length": 68.009, "source": 49745632, "target": 3027616047}, {"osmid": [468433796, 1111954219, 1212569772, 397327121, 397327124], "lanes": ["6", "7"], "name": "14th Street Northwest", "highway": "primary", "oneway": false, "reversed": true, "length": 123.673, "source": 49745632, "target": 49745636}, {"osmid": [1048676964, 345709542], "oneway": true, "lanes": ["5", "4"], "name": "H Street Northwest", "highway": "secondary", "reversed": false, "length": 145.559, "source": 49745632, "target": 49764271}, {"osmid": 347003229, "oneway": true, "lanes": "4", "name": "I Street Northwest", "highway": "secondary", "reversed": false, "length": 145.929, "source": 49745636, "target": 1381307999}, {"osmid": [1111700604, 1111700605, 347003228], "oneway": true, "lanes": ["5", "4"], "name": "I Street Northwest", "highway": "secondary", "reversed": false, "length": 201.297, "source": 49745636, "target": 49793729}, {"osmid": 6062397, "oneway": true, "lanes": "2", "name": "Virginia Avenue Northwest", "highway": "primary", "reversed": false, "length": 108.21899999999998, "source": 49748775, "target": 11260344021}, {"osmid": [468434116, 423608853], "lanes": "8", "ref": "US 50", "name": "Constitution Avenue Northwest", "highway": "trunk", "maxspeed": "25 mph", "oneway": false, "reversed": true, "length": 106.19300000000001, "source": 49748775, "target": 2504794158}, {"osmid": [1008299672, 423607087], "lanes": ["7", "8"], "ref": "US 50", "name": "Constitution Avenue Northwest", "highway": "trunk", "maxspeed": "25 mph", "oneway": false, "reversed": false, "length": 89.507, "source": 49748775, "target": 647584811}, {"osmid": 397355102, "lanes": "8", "ref": "US 50", "name": "Constitution Avenue Northwest", "highway": "trunk", "maxspeed": "25 mph", "oneway": false, "reversed": false, "length": 126.79899999999999, "source": 49748779, "target": 49748781}, {"osmid": [920636360, 509640269, 397355101], "lanes": "8", "ref": "US 50", "name": "Constitution Avenue Northwest", "highway": "trunk", "maxspeed": "25 mph", "oneway": false, "reversed": true, "length": 149.925, "source": 49748779, "target": 647584811}, {"osmid": [583695032, 6058077, 397321711], "oneway": true, "lanes": "5", "name": "19th Street Northwest", "highway": "primary", "reversed": false, "length": 152.90300000000002, "source": 49748779, "target": 11260344012}, {"osmid": 6057421, "lanes": "2", "name": "20th Street Northwest", "highway": "tertiary", "oneway": false, "reversed": false, "length": 156.687, "source": 49748781, "target": 49750843}, {"osmid": 6058793, "lanes": "4", "name": "Connecticut Avenue Northwest", "highway": "tertiary", "oneway": false, "reversed": false, "length": 133.203, "source": 49749106, "target": 49770640}, {"osmid": 296786737, "name": "Jackson Place Northwest", "highway": "living_street", "oneway": false, "reversed": false, "length": 41.049, "source": 49749106, "target": 2633774615}, {"osmid": [1049842802, 1049842803, 1049842804, 589539534], "oneway": true, "lanes": ["2", "4", "3"], "name": "H Street Northwest", "highway": "secondary", "reversed": false, "length": 119.99000000000001, "source": 49749106, "target": 49777843}, {"osmid": 590581668, "oneway": true, "lanes": "4", "name": "H Street Northwest", "highway": "secondary", "reversed": false, "length": 128.131, "source": 49749106, "target": 49770782}, {"osmid": 6054252, "oneway": true, "lanes": "1", "name": "C Street Northwest", "highway": "tertiary", "reversed": false, "length": 196.845, "source": 49750819, "target": 49750826}, {"osmid": 923370378, "lanes": "4", "name": "17th Street Northwest", "highway": "primary", "oneway": false, "reversed": true, "length": 88.166, "source": 49750819, "target": 49767123}, {"osmid": [923370378, 6055551], "lanes": "4", "name": "17th Street Northwest", "highway": "primary", "oneway": false, "reversed": false, "length": 160.824, "source": 49750819, "target": 2504794158}, {"osmid": 130889684, "oneway": true, "lanes": "4", "name": "C Street Northwest", "highway": "secondary", "reversed": false, "length": 131.486, "source": 49750826, "target": 11260344016}, {"osmid": 1049303874, "oneway": true, "lanes": "4", "name": "18th Street Northwest", "highway": "secondary", "reversed": false, "length": 90.321, "source": 49750826, "target": 49767131}, {"osmid": 6063274, "oneway": true, "lanes": "4", "name": "18th Street Northwest", "highway": "secondary", "reversed": false, "length": 101.053, "source": 49750826, "target": 11260344021}, {"osmid": 6054254, "oneway": true, "lanes": "1", "name": "C Street Northwest", "highway": "tertiary", "reversed": false, "length": 82.59, "source": 49750843, "target": 641127601}, {"osmid": 296971737, "oneway": true, "lanes": "1", "name": "C Street Northwest", "highway": "tertiary", "reversed": false, "length": 76.92399999999999, "source": 49750843, "target": 3008009375}, {"osmid": 298825115, "oneway": true, "lanes": "1", "name": "13\u00bdth Street Northwest", "highway": "residential", "reversed": false, "length": 101.85799999999999, "source": 49756474, "target": 3027731623}, {"osmid": 535780677, "oneway": true, "lanes": "1", "name": "13\u00bdth Street Northwest", "highway": "residential", "reversed": false, "length": 91.61500000000001, "source": 49756474, "target": 3027738436}, {"osmid": 70948801, "oneway": true, "lanes": "3", "name": "12th Street Northwest", "highway": "secondary", "reversed": false, "length": 166.71500000000003, "source": 49762207, "target": 49777815}, {"osmid": 589539523, "lanes": "2", "name": "G Street Northwest", "highway": "tertiary", "oneway": false, "reversed": true, "length": 130.90300000000002, "source": 49762207, "target": 49762210}, {"osmid": 589539521, "oneway": true, "lanes": "3", "name": "12th Street Northwest", "highway": "secondary", "reversed": false, "length": 107.492, "source": 49762207, "target": 49799633}, {"osmid": [1080272032, 397316522, 397316523], "lanes": "5", "name": "13th Street Northwest", "highway": "secondary", "oneway": false, "reversed": false, "length": 107.11500000000001, "source": 49762210, "target": 49799643}, {"osmid": [397316524, 130889749], "lanes": "7", "name": "13th Street Northwest", "highway": "secondary", "oneway": false, "reversed": false, "length": 166.65300000000002, "source": 49762210, "target": 49777820}, {"osmid": 397303090, "lanes": "5", "name": "15th Street Northwest", "highway": "secondary", "oneway": false, "reversed": false, "length": 53.964, "source": 49762221, "target": 876615335}, {"osmid": 397303092, "lanes": "5", "name": "15th Street Northwest", "highway": "secondary", "oneway": false, "reversed": true, "length": 107.07199999999999, "source": 49762221, "target": 49764251}, {"osmid": 543712321, "oneway": true, "lanes": "1", "name": "G Street Northwest", "highway": "tertiary", "reversed": false, "length": 195.167, "source": 49762225, "target": 49762238}, {"osmid": 1204177089, "lanes": "5", "name": "17th Street Northwest", "highway": "primary", "oneway": false, "reversed": true, "length": 54.754000000000005, "source": 49762225, "target": 1381216023}, {"osmid": [1204177089, 537114618], "lanes": "5", "name": "17th Street Northwest", "highway": "primary", "oneway": false, "reversed": false, "length": 107.053, "source": 49762225, "target": 49770764}, {"osmid": 130889757, "oneway": true, "lanes": "3", "name": "18th Street Northwest", "highway": "secondary", "reversed": false, "length": 141.266, "source": 49762238, "target": 49827624}, {"osmid": 1033847612, "oneway": true, "lanes": "2", "name": "G Street Northwest", "highway": "tertiary", "reversed": false, "length": 151.939, "source": 49762238, "target": 49762243}, {"osmid": 130889756, "oneway": true, "lanes": "4", "name": "18th Street Northwest", "highway": "secondary", "reversed": false, "length": 107.493, "source": 49762238, "target": 49799808}, {"osmid": 436136930, "oneway": true, "lanes": "4", "name": "19th Street Northwest", "highway": "secondary", "maxspeed": "25 mph", "reversed": false, "length": 107.86999999999999, "source": 49762243, "target": 49799817}, {"osmid": 1033847614, "oneway": true, "lanes": "1", "name": "G Street Northwest", "highway": "tertiary", "reversed": false, "length": 124.366, "source": 49762243, "target": 49762251}, {"osmid": 1033847613, "oneway": true, "lanes": "4", "name": "19th Street Northwest", "highway": "secondary", "maxspeed": "25 mph", "reversed": false, "length": 138.971, "source": 49762243, "target": 49777677}, {"osmid": 921887474, "oneway": true, "lanes": "2", "name": "20th Street Northwest", "highway": "tertiary", "reversed": false, "length": 138.675, "source": 49762251, "target": 49777682}, {"osmid": [130908289, 1180767010], "oneway": true, "lanes": "3", "name": "20th Street Northwest", "highway": "tertiary", "reversed": false, "length": 107.874, "source": 49762251, "target": 49797543}, {"osmid": 126303362, "lanes": "5", "name": "15th Street Northwest", "highway": "secondary", "oneway": false, "reversed": true, "length": 95.37299999999999, "source": 49764249, "target": 8245233140}, {"osmid": 130802371, "lanes": "5", "name": "15th Street Northwest", "highway": "secondary", "oneway": false, "reversed": false, "length": 105.071, "source": 49764249, "target": 49764251}, {"osmid": [47471725, 468450567], "oneway": true, "lanes": "2", "name": "Pennsylvania Avenue Northwest", "highway": "tertiary", "reversed": false, "length": 149.06199999999998, "source": 49764249, "target": 3027832454}, {"osmid": [1051042931, 130802372], "oneway": true, "lanes": "4", "name": "15th Street Northwest", "highway": "secondary", "reversed": false, "length": 123.175, "source": 49764271, "target": 1381307999}, {"osmid": 175873836, "lanes": "5", "name": "15th Street Northwest", "highway": "secondary", "oneway": false, "reversed": true, "length": 158.695, "source": 49764271, "target": 876615335}, {"osmid": 126303354, "oneway": true, "lanes": "5", "name": "H Street Northwest", "highway": "secondary", "reversed": false, "length": 127.50600000000001, "source": 49764271, "target": 49774425}, {"osmid": 6061944, "lanes": "2", "name": "Vermont Avenue Northwest", "highway": "tertiary", "oneway": false, "reversed": false, "length": 132.243, "source": 49764296, "target": 49774425}, {"osmid": [1051018092, 1051018093, 345633934], "oneway": true, "lanes": ["4", "3"], "name": "I Street Northwest", "highway": "secondary", "reversed": false, "length": 165.329, "source": 49764296, "target": 9983605758}, {"osmid": 589551073, "oneway": true, "lanes": "4", "name": "I Street Northwest", "highway": "secondary", "reversed": false, "length": 82.751, "source": 49764296, "target": 1381307999}, {"osmid": 6055383, "name": "D Street Northwest", "highway": "residential", "oneway": false, "reversed": false, "length": 195.14800000000002, "source": 49767123, "target": 49767131}, {"osmid": 923370378, "lanes": "4", "name": "17th Street Northwest", "highway": "primary", "oneway": false, "reversed": true, "length": 118.43499999999999, "source": 49767123, "target": 4001201376}, {"osmid": 130889755, "oneway": true, "lanes": "4", "name": "18th Street Northwest", "highway": "secondary", "reversed": false, "length": 117.43499999999999, "source": 49767131, "target": 49782130}, {"osmid": [468434121, 589533502], "oneway": true, "lanes": "4", "name": "I Street Northwest", "highway": "secondary", "reversed": false, "length": 80.026, "source": 49770640, "target": 49770789}, {"osmid": 589539535, "oneway": true, "lanes": "3", "name": "I Street Northwest", "highway": "secondary", "reversed": false, "length": 167.533, "source": 49770640, "target": 49793759}, {"osmid": 26707982, "oneway": true, "lanes": "3", "name": "New York Avenue Northwest", "highway": "primary", "reversed": false, "length": 54.298, "source": 49770755, "target": 49793337}, {"osmid": [923370378, 468434115], "lanes": ["5", "4"], "name": "17th Street Northwest", "highway": "primary", "oneway": false, "reversed": false, "length": 111.999, "source": 49770755, "target": 4001201376}, {"osmid": 537114618, "lanes": "5", "name": "17th Street Northwest", "highway": "primary", "oneway": false, "reversed": true, "length": 56.499, "source": 49770755, "target": 2999157115}, {"osmid": 537114618, "lanes": "5", "name": "17th Street Northwest", "highway": "primary", "oneway": false, "reversed": false, "length": 48.548, "source": 49770764, "target": 2999157115}, {"osmid": 543712269, "oneway": true, "lanes": "2", "name": "F Street Northwest", "highway": "tertiary", "reversed": false, "length": 194.34199999999998, "source": 49770764, "target": 49799808}, {"osmid": [469165488, 469165486, 469165487], "lanes": ["6", "7"], "name": "17th Street Northwest", "highway": "primary", "oneway": false, "reversed": false, "length": 122.73799999999999, "source": 49770782, "target": 49770789}, {"osmid": [469165489, 469165490], "lanes": "6", "name": "17th Street Northwest", "highway": "primary", "oneway": false, "reversed": false, "length": 156.667, "source": 49770782, "target": 1381216023}, {"osmid": 589539536, "oneway": true, "lanes": "4", "name": "H Street Northwest", "highway": "secondary", "reversed": false, "length": 194.477, "source": 49770782, "target": 49777853}, {"osmid": 468434122, "oneway": true, "lanes": "3", "name": "I Street Northwest", "highway": "secondary", "reversed": false, "length": 195.053, "source": 49770789, "target": 49793773}, {"osmid": 1049287312, "oneway": true, "lanes": "4", "name": "H Street Northwest", "highway": "secondary", "reversed": false, "length": 120.655, "source": 49774425, "target": 9983605755}, {"osmid": 50797097, "oneway": true, "name": "H Street Northwest", "highway": "tertiary", "access": "permissive", "reversed": false, "length": 152.622, "source": 49777677, "target": 49827624}, {"osmid": 496467787, "name": "H Street Northwest", "highway": "tertiary", "oneway": false, "reversed": false, "length": 124.48499999999999, "source": 49777677, "target": 49777682}, {"osmid": 696806631, "oneway": true, "lanes": "4", "name": "19th Street Northwest", "highway": "secondary", "maxspeed": "25 mph", "reversed": false, "length": 70.176, "source": 49777677, "target": 1381212154}, {"osmid": [496467785, 1123834782], "oneway": true, "lanes": "2", "name": "20th Street Northwest", "highway": "tertiary", "reversed": false, "length": 126.132, "source": 49777682, "target": 1381307998}, {"osmid": 50260020, "lanes": "6", "name": "H Street Northwest", "highway": "primary", "oneway": false, "reversed": false, "length": 131.399, "source": 49777815, "target": 49777820}, {"osmid": 70948801, "oneway": true, "lanes": "3", "name": "12th Street Northwest", "highway": "secondary", "reversed": false, "length": 94.41600000000001, "source": 49777815, "target": 876615374}, {"osmid": 50260019, "oneway": true, "lanes": "2", "name": "H Street Northwest", "highway": "primary", "reversed": false, "length": 52.404, "source": 49777820, "target": 3027616118}, {"osmid": 130927087, "lanes": "7", "name": "13th Street Northwest", "highway": "secondary", "oneway": false, "reversed": true, "length": 37.417, "source": 49777820, "target": 3027616128}, {"osmid": 508158272, "oneway": true, "lanes": "2", "name": "H Street Northwest", "highway": "primary", "reversed": false, "length": 65.57400000000001, "source": 49777820, "target": 3027616061}, {"osmid": 1049287312, "oneway": true, "lanes": "4", "name": "H Street Northwest", "highway": "secondary", "reversed": false, "length": 7.044, "source": 49777843, "target": 9983605755}, {"osmid": 469165492, "oneway": true, "lanes": "1", "name": "Black Lives Matter Plaza Northwest", "highway": "secondary", "maxspeed": "15 mph", "reversed": false, "length": 123.649, "source": 49777843, "target": 49793759}, {"osmid": 589533584, "oneway": true, "lanes": "3", "name": "18th Street Northwest", "highway": "secondary", "reversed": false, "length": 122.39300000000001, "source": 49777853, "target": 49793773}, {"osmid": 698748857, "oneway": true, "lanes": "3", "name": "18th Street Northwest", "highway": "secondary", "reversed": false, "length": 70.226, "source": 49777853, "target": 49827624}, {"osmid": [6056069, 589533583], "oneway": true, "lanes": ["4", "3"], "name": "H Street Northwest", "highway": "secondary", "reversed": false, "length": 152.819, "source": 49777853, "target": 1381212154}, {"osmid": 6056363, "oneway": true, "lanes": "4", "name": "E Street Northwest", "highway": "primary", "reversed": false, "length": 152.108, "source": 49782040, "target": 4001470337}, {"osmid": 130889756, "oneway": true, "lanes": "4", "name": "18th Street Northwest", "highway": "secondary", "reversed": false, "length": 152.516, "source": 49782040, "target": 49799808}, {"osmid": 130889756, "oneway": true, "lanes": "4", "name": "18th Street Northwest", "highway": "secondary", "reversed": false, "length": 64.972, "source": 49782040, "target": 49782130}, {"osmid": 130285133, "oneway": true, "lanes": "4", "name": "New York Avenue Northwest", "highway": "primary", "reversed": false, "length": 148.116, "source": 49782040, "target": 49793337}, {"osmid": [469154546, 130285119], "oneway": true, "lanes": "3", "name": "E Street Northwest", "highway": "primary", "reversed": false, "length": 194.07899999999998, "source": 49782130, "target": 4001201376}, {"osmid": [6056366, 397355103], "oneway": true, "lanes": "4", "name": "E Street Northwest", "highway": "primary", "reversed": false, "length": 152.187, "source": 49782130, "target": 49782141}, {"osmid": 131463018, "oneway": true, "lanes": "5", "name": "19th Street Northwest", "highway": "secondary", "reversed": false, "length": 200.42000000000002, "source": 49782141, "target": 11260344015}, {"osmid": 130889760, "oneway": true, "lanes": "5", "name": "19th Street Northwest", "highway": "secondary", "reversed": false, "length": 64.57300000000001, "source": 49782141, "target": 4001470337}, {"osmid": [6056371, 397318413, 397318415], "lanes": "3", "name": "E Street Northwest", "highway": "tertiary", "oneway": false, "reversed": false, "length": 130.46800000000002, "source": 49782277, "target": 3016605388}, {"osmid": 29961164, "oneway": true, "lanes": "2", "name": "Pennsylvania Avenue Northwest", "highway": "tertiary", "reversed": false, "length": 202.52700000000002, "source": 49782277, "target": 3027832454}, {"osmid": 298814317, "lanes": "4", "name": "13th Street Northwest", "highway": "secondary", "oneway": false, "reversed": true, "length": 135.878, "source": 49782277, "target": 49799643}, {"osmid": 421734517, "oneway": false, "lanes": "6", "name": "13th Street Northwest", "highway": "secondary", "reversed": false, "length": 68.684, "source": 49782277, "target": 3027616106}, {"osmid": [6059970, 1121171303], "oneway": true, "lanes": "2", "name": "Jefferson Drive Southwest", "highway": "tertiary", "maxspeed": "15 mph", "reversed": false, "length": 94.361, "source": 49793007, "target": 8427543420}, {"osmid": [543716108, 509726980], "lanes": "3", "name": ["15th Street Northwest", "15th Street Southwest"], "highway": "secondary", "maxspeed": "25 mph", "oneway": false, "reversed": false, "length": 143.975, "source": 49793007, "target": 49843643}, {"osmid": [6062881, 985067151], "oneway": true, "lanes": ["2", "1"], "highway": "primary_link", "reversed": false, "length": 85.422, "source": 49793337, "target": 2999157115}, {"osmid": 126303355, "oneway": true, "lanes": "4", "name": "I Street Northwest", "highway": "secondary", "reversed": false, "length": 131.716, "source": 49793723, "target": 49793729}, {"osmid": 439875858, "oneway": true, "lanes": "2", "name": "12th Street Northwest", "highway": "secondary", "reversed": false, "length": 59.14399999999999, "source": 49793723, "target": 49853878}, {"osmid": [468433792, 468433793, 354079210], "lanes": ["6", "7"], "name": "13th Street Northwest", "highway": "secondary", "oneway": false, "reversed": false, "length": 117.724, "source": 49793729, "target": 49813347}, {"osmid": 1051018093, "oneway": true, "lanes": "4", "name": "I Street Northwest", "highway": "secondary", "reversed": false, "length": 7.139, "source": 49793759, "target": 9983605758}, {"osmid": [469157093, 695842775], "oneway": true, "lanes": ["4", "3"], "name": "I Street Northwest", "highway": "secondary", "reversed": false, "length": 152.51700000000002, "source": 49793773, "target": 49793777}, {"osmid": [469157092, 468434119], "oneway": true, "lanes": "4", "name": "I Street Northwest", "highway": "secondary", "reversed": false, "length": 124.80199999999998, "source": 49793777, "target": 1381204541}, {"osmid": 583698433, "oneway": true, "lanes": "4", "name": "19th Street Northwest", "highway": "secondary", "maxspeed": "25 mph", "reversed": false, "length": 124.128, "source": 49793777, "target": 1381212154}, {"osmid": 50797098, "oneway": true, "lanes": "2", "name": "F Street Northwest", "highway": "tertiary", "reversed": false, "length": 125.034, "source": 49797543, "target": 49799817}, {"osmid": 130908289, "oneway": true, "lanes": "3", "name": "20th Street Northwest", "highway": "tertiary", "reversed": false, "length": 156.245, "source": 49797543, "target": 633923743}, {"osmid": [347003330, 1212569774], "lanes": "4", "name": "F Street Northwest", "highway": "secondary", "oneway": false, "reversed": false, "length": 130.626, "source": 49799633, "target": 49799643}, {"osmid": 589533564, "oneway": true, "lanes": "2", "name": "12th Street Northwest", "highway": "secondary", "reversed": false, "length": 135.28, "source": 49799633, "target": 3016605388}, {"osmid": 50797098, "oneway": true, "lanes": "2", "name": "F Street Northwest", "highway": "tertiary", "reversed": false, "length": 152.399, "source": 49799808, "target": 49799817}, {"osmid": [1054701977, 436136930], "oneway": true, "lanes": "4", "name": "19th Street Northwest", "highway": "secondary", "maxspeed": "25 mph", "reversed": false, "length": 152.69400000000002, "source": 49799817, "target": 4001470337}, {"osmid": 421263466, "lanes": "6", "name": "13th Street Northwest", "highway": "secondary", "oneway": false, "reversed": false, "length": 13.466, "source": 49813347, "target": 3027616128}, {"osmid": [354079209, 987879163], "oneway": true, "lanes": "2", "name": "New York Avenue Northwest", "highway": "primary", "reversed": false, "length": 63.153, "source": 49813347, "target": 3027616040}, {"osmid": 321444902, "oneway": true, "lanes": "2", "name": "New York Avenue Northwest", "highway": "primary", "reversed": false, "length": 143.982, "source": 49813347, "target": 49853878}, {"osmid": [26707840, 469154540], "lanes": ["6", "7"], "name": "Pennsylvania Avenue Northwest", "highway": "primary", "oneway": false, "reversed": false, "length": 212.93499999999997, "source": 49827624, "target": 1381216023}, {"osmid": [130285136, 468436770, 698748856], "lanes": ["6", "5"], "name": "Pennsylvania Avenue Northwest", "highway": "primary", "oneway": false, "reversed": true, "length": 167.053, "source": 49827624, "target": 1381212154}, {"osmid": [6060937, 397304549], "lanes": ["5", "3"], "name": "15th Street Northwest", "highway": "secondary", "maxspeed": "25 mph", "oneway": false, "reversed": false, "length": 231.40200000000002, "source": 49843643, "target": 2504806041}, {"osmid": 47916244, "oneway": true, "lanes": "2", "name": "Madison Drive Northwest", "highway": "tertiary", "maxspeed": "15 mph", "reversed": false, "length": 98.961, "source": 49843643, "target": 4303519741}, {"osmid": 439875858, "oneway": true, "lanes": "2", "name": "12th Street Northwest", "highway": "secondary", "reversed": false, "length": 14.945, "source": 49853878, "target": 876615374}, {"osmid": [47916243, 120478419], "lanes": ["7", "8"], "ref": "US 50", "name": "Constitution Avenue Northwest", "highway": "trunk", "maxspeed": "25 mph", "oneway": false, "reversed": true, "length": 145.27299999999997, "source": 520072065, "target": 2504806041}, {"osmid": 120478694, "lanes": "7", "ref": "US 1", "name": "14th Street Northwest", "highway": "trunk", "oneway": false, "reversed": false, "length": 186.54799999999997, "source": 520072065, "target": 4303519741}, {"osmid": [1122241938, 203119341], "oneway": true, "lanes": "4", "name": "E Street Northwest", "highway": "primary", "reversed": false, "length": 126.425, "source": 633923743, "target": 4001470337}, {"osmid": 50202335, "oneway": true, "lanes": "2", "name": "17th Street Southwest", "highway": "primary", "maxspeed": "25 mph", "reversed": false, "length": 70.106, "source": 638210736, "target": 8325310264}, {"osmid": [397360055, 469154543], "oneway": true, "lanes": ["2", "3"], "name": "Virginia Avenue Northwest", "highway": "primary", "reversed": false, "length": 62.306, "source": 641127601, "target": 11260344012}, {"osmid": 1071867030, "oneway": true, "lanes": "1", "name": "C Street Northwest", "highway": "tertiary", "reversed": false, "length": 11.928, "source": 641127601, "target": 4015360172}, {"osmid": 1061333127, "oneway": true, "lanes": "3", "name": "Virginia Avenue Northwest", "highway": "primary", "reversed": false, "length": 7.409, "source": 641127601, "target": 3008009375}, {"osmid": 50431292, "oneway": true, "lanes": "2", "name": "Virginia Avenue Northwest", "highway": "primary", "reversed": false, "length": 120.139, "source": 641127613, "target": 4015360173}, {"osmid": 589551072, "oneway": true, "lanes": "4", "name": "18th Street Northwest", "highway": "primary", "reversed": false, "length": 57.97, "source": 647584811, "target": 11260344021}, {"osmid": [296591633, 1136984658, 1136984659], "oneway": true, "lanes": ["2", "3"], "name": "Madison Drive Northwest", "highway": "tertiary", "maxspeed": "15 mph", "reversed": false, "length": 326.046, "source": 650017955, "target": 4303519741}, {"osmid": 421259825, "oneway": true, "lanes": "2", "name": "New York Avenue Northwest", "highway": "secondary", "reversed": false, "length": 158.019, "source": 876615335, "target": 876615362}, {"osmid": 74100353, "oneway": true, "lanes": "2", "name": "New York Avenue Northwest", "highway": "primary", "reversed": false, "length": 154.016, "source": 876615362, "target": 3027616061}, {"osmid": 421268132, "oneway": true, "lanes": "2", "name": "New York Avenue Northwest", "highway": "primary", "reversed": false, "length": 143.398, "source": 876615374, "target": 3027616128}, {"osmid": 421076400, "oneway": true, "lanes": "3", "name": "20th Street Northwest", "highway": "tertiary", "reversed": false, "length": 68.486, "source": 1381204541, "target": 1381307998}, {"osmid": [468436769, 985426724], "lanes": "6", "name": "Pennsylvania Avenue Northwest", "highway": "primary", "oneway": false, "reversed": false, "length": 136.22099999999998, "source": 1381212154, "target": 1381307998}, {"osmid": [998360408, 120478418, 423615732, 397304550], "lanes": "8", "ref": "US 50", "name": "Constitution Avenue Northwest", "highway": "trunk", "maxspeed": "25 mph", "oneway": false, "reversed": true, "length": 505.26, "source": 2504794158, "target": 2504806041}, {"osmid": [423630952, 6057626, 1022810670, 397277247], "lanes": "4", "name": "17th Street Southwest", "highway": "primary", "oneway": false, "reversed": false, "length": 353.47999999999996, "source": 2504794158, "target": 8325310264}, {"osmid": [305368640, 397303089, 397303091, 397315033], "lanes": "4", "name": "15th Street Northwest", "highway": "secondary", "oneway": false, "reversed": true, "length": 372.772, "source": 2504806041, "target": 8245233135}, {"osmid": 1061333126, "oneway": true, "lanes": "1", "name": "C Street Northwest", "highway": "tertiary", "reversed": false, "length": 12.168, "source": 3008009375, "target": 4015360173}, {"osmid": 542269372, "oneway": true, "lanes": "4", "name": "12th Street Northwest", "highway": "secondary", "reversed": false, "length": 113.87299999999999, "source": 3016605388, "target": 3016605397}, {"osmid": [397319281, 297759291], "oneway": true, "lanes": "4", "name": "Pennsylvania Avenue Northwest", "highway": "primary", "reversed": false, "length": 138.099, "source": 3016605397, "target": 3027616106}, {"osmid": [1111540698, 421736134], "oneway": true, "lanes": "3", "name": "12th Street Northwest", "highway": "secondary", "reversed": false, "length": 18.016, "source": 3016605397, "target": 3016605409}, {"osmid": [298814316, 454817812, 397319278], "oneway": true, "lanes": ["4", "3"], "name": "Pennsylvania Avenue Northwest", "highway": "primary", "reversed": false, "length": 139.821, "source": 3016605409, "target": 3027616084}, {"osmid": 508158267, "oneway": false, "lanes": "2", "name": "H Street Northwest", "highway": "primary", "reversed": true, "length": 11.587, "source": 3027616040, "target": 3027616118}, {"osmid": 508158268, "oneway": true, "lanes": "2", "name": "New York Avenue Northwest", "highway": "primary", "reversed": false, "length": 12.051, "source": 3027616040, "target": 3027616043}, {"osmid": [298814315, 1047793071], "oneway": true, "lanes": "2", "name": "H Street Northwest", "highway": "primary", "reversed": false, "length": 83.97999999999999, "source": 3027616040, "target": 3027616047}, {"osmid": 508158271, "oneway": true, "lanes": "2", "name": "H Street Northwest", "highway": "primary", "reversed": false, "length": 11.158, "source": 3027616043, "target": 3027616061}, {"osmid": 130285121, "oneway": true, "lanes": "2", "name": "H Street Northwest", "highway": "primary", "reversed": false, "length": 73.626, "source": 3027616043, "target": 3027616047}, {"osmid": 508158273, "oneway": true, "lanes": "2", "name": "New York Avenue Northwest", "highway": "primary", "reversed": false, "length": 13.575, "source": 3027616061, "target": 3027616118}, {"osmid": 6058330, "oneway": false, "lanes": "6", "name": "13th Street Northwest", "highway": "secondary", "reversed": true, "length": 15.736999999999998, "source": 3027616084, "target": 3027616106}, {"osmid": [70948802, 397319283], "oneway": true, "lanes": "3", "name": "Pennsylvania Avenue Northwest", "highway": "primary", "reversed": false, "length": 93.22099999999999, "source": 3027616084, "target": 3027731623}, {"osmid": [397319288, 397319285, 409541717, 436271294], "oneway": true, "lanes": ["2", "3"], "name": "Pennsylvania Avenue Northwest", "highway": "primary", "reversed": false, "length": 97.38099999999999, "source": 3027616106, "target": 3027738437}, {"osmid": 508158270, "oneway": true, "lanes": "3", "name": "New York Avenue Northwest", "highway": "primary", "reversed": false, "length": 52.541, "source": 3027616118, "target": 3027616128}, {"osmid": 535531868, "oneway": true, "lanes": "1", "name": "13\u00bdth Street Northwest", "highway": "residential", "reversed": false, "length": 16.125999999999998, "source": 3027731623, "target": 3027738437}, {"osmid": 535780676, "oneway": true, "lanes": "3", "name": "Pennsylvania Avenue Northwest", "highway": "primary", "reversed": false, "length": 6.912, "source": 3027731623, "target": 3027738436}, {"osmid": 6054453, "oneway": true, "lanes": "1", "name": "13\u00bdth Street Northwest", "highway": "residential", "reversed": false, "length": 16.81, "source": 3027738436, "target": 3027738437}, {"osmid": [468450576, 397319287], "oneway": true, "lanes": "3", "name": "Pennsylvania Avenue Northwest", "highway": "primary", "reversed": false, "length": 100.76799999999999, "source": 3027738436, "target": 3027822532}, {"osmid": [50799606, 397319279], "oneway": true, "lanes": ["2", "3"], "name": "Pennsylvania Avenue Northwest", "highway": "primary", "reversed": false, "length": 105.17699999999999, "source": 3027738437, "target": 3027822526}, {"osmid": 70948803, "lanes": "7", "name": "14th Street Northwest", "highway": "primary", "oneway": false, "reversed": true, "length": 62.037, "source": 3027822526, "target": 3027832454}, {"osmid": 397316201, "lanes": "6", "name": "14th Street Northwest", "highway": "primary", "oneway": false, "reversed": false, "length": 12.967, "source": 3027822526, "target": 3027822532}, {"osmid": [397319282, 397319286], "oneway": true, "lanes": ["2", "3"], "name": "Pennsylvania Avenue Northwest", "highway": "secondary", "reversed": false, "length": 144.71699999999998, "source": 3027822526, "target": 8245233140}, {"osmid": 298829677, "oneway": true, "lanes": "2", "name": "Pennsylvania Avenue Northwest", "highway": "secondary", "reversed": false, "length": 144.756, "source": 3027822532, "target": 8245233135}, {"osmid": 590525659, "oneway": true, "lanes": "2", "name": "Virginia Avenue Northwest", "highway": "primary", "reversed": false, "length": 8.253, "source": 4015360172, "target": 4015360173}, {"osmid": 1215387526, "oneway": true, "lanes": "2", "name": "Virginia Avenue Northwest", "highway": "primary", "reversed": false, "length": 54.157, "source": 4015360172, "target": 11260344015}, {"osmid": [468495096, 469115617, 6053914, 468495095], "lanes": ["6", "7"], "ref": "US 1", "name": ["14th Street Northwest", "14th Street Southwest"], "highway": "trunk", "oneway": false, "reversed": false, "length": 200.069, "source": 4303519741, "target": 8427543420}, {"osmid": [1000469048, 1000469047], "lanes": ["5", "4"], "name": "15th Street Northwest", "highway": "secondary", "oneway": false, "reversed": [false, true], "length": 11.186, "source": 8245233135, "target": 8245233140}, {"osmid": 296384738, "oneway": true, "lanes": "1", "name": "Jefferson Drive Southwest", "highway": "tertiary", "maxspeed": "15 mph", "reversed": false, "length": 326.67699999999996, "source": 8427531415, "target": 8427543420}, {"osmid": 1089891386, "oneway": true, "lanes": "1", "name": "Black Lives Matter Plaza Northwest", "highway": "secondary", "maxspeed": "15 mph", "reversed": false, "length": 123.66000000000001, "source": 9983605755, "target": 9983605758}, {"osmid": [469154544, 50431293, 397360056], "oneway": true, "lanes": "1", "name": "Virginia Avenue Northwest", "highway": "primary", "reversed": false, "length": 177.57599999999996, "source": 11260344012, "target": 11260344021}, {"osmid": 1215387527, "oneway": true, "lanes": "5", "name": "19th Street Northwest", "highway": "secondary", "reversed": false, "length": 13.745, "source": 11260344012, "target": 11260344015}, {"osmid": 1215387528, "oneway": true, "lanes": "2", "name": "Virginia Avenue Northwest", "highway": "primary", "reversed": false, "length": 21.946, "source": 11260344015, "target": 11260344016}, {"osmid": 509326252, "oneway": true, "lanes": "2", "name": "Virginia Avenue Northwest", "highway": "primary", "reversed": false, "length": 163.08700000000002, "source": 11260344016, "target": 11260344021}]}